,service_id,store_id,category,merchant_name,merchant_address,store_name,store_address,longitude,latitude,specific
0,2094705476432891136,7307965617398606368,Coffee chains and Milk tea,Công Ty TNHH Cây Đào Đỏ,"257 Thống Nhất, Phường 11, Gò Vấp, Tp. HCM",I Love Kem Kinh Dương Vương,"127 Kinh Dương Vương , P.12  Q.6, Tp. HCM",,,Cafe
20,3469740592050032385,8441805907250926137,Mass Merchant,Nguyễn Thị Hồng Quyên,"122 Lò Đúc, Phường Đống Mác, Quận Hai Bà Trưng, Hà Nội, VIỆT NAM",Bánh Canh Ghẹ Tươi,"122 Lò Đúc, Phường Đống Mác, Quận Hai Bà Trưng, Hà Nội, VIỆT NAM",106.7388299,10.706003,Mass Merchant
22,3232333568492323330,6837397147393907004,Coffee chains and Milk tea,CN HÀ NỘI – Công ty TNHH Gongcha Việt Nam,"Số 63 Chùa Bộc, Phường Trung Liệt, Quận Đống Đa, Hà Nội",Gong Cha Hoàng Đạo Thúy,"Tòa nhà 34T phố Hoàng Đạo Thúy,, Phường Trung Hoà, Quận Cầu Giấy, Hà Nội, VIỆT NAM",105.81246090000002,21.0204944,Cafe
30,5689251315330117634,6490941503921000601,Mass Merchant,BUBBLE BEAR,"483 Hậu Giang, Phường 11, Quận 6, Thành Phố Hồ Chí Minh, VIỆT NAM",bubblebear483,MOMOHEV520181102,,,Mass Merchant
32,8556496424374803715,780530919347839340,Fast food,CÔNG TY TNHH PIZZA HUT VIỆT NAM,"Tầng 5, Toà nhà S123 Shophouse Saigon Pearl, số 92 Nguyễn Hữu Cảnh, Phường 22, Quận Bình Thạnh, Thành Phố Hồ Chí Minh, VIỆT NAM",Pizza Hut Phan Xich Long,"93 Phan Xich Long, Phường 2, Quận Phú Nhuận, Thành Phố Hồ Chí Minh, VIỆT NAM",106.710965,10.800326,Fast food
57,805375962505978627,8872648247928254135,Fast food,CôNG TY TNHH DịCH Vụ THựC PHẩM Và GIảI KHáT VIệT NAM,"Lầu 5, Tòa nhà Sài Gòn Royal, 91  Pasteur, Phường Bến Nghé, Quận 1, Thành Phố Hồ Chí Minh, VIỆT NAM",Domino's Pizza Giảng Võ,"C4 Giảng Võ, Phường Giảng Võ, Quận Ba Đình, Hà Nội, VIỆT NAM",,,Fast food
84,9072059382294699011,7967765642527772782,Mass Merchant,LA GARE COFFEE,"447 Nguyễn Thị Thập, Phường Tân Phong, Quận 7, Thành Phố Hồ Chí Minh, VIỆT NAM",lagarecoffee1,MOMOZ0IW20181114,106.666962,10.776023,Mass Merchant
86,7559692742087391493,7659625585733048513,Mass Merchant,THE KING COFFE,"30 Nguyễn Đình Chiểu, Đa Kao, Quận 1, Hồ Chí Minh",kingcoffee123,MOMO43WA20180423,106.6735416,10.7859882,Mass Merchant
88,1091190812284273157,6323339645647389900,Mass Merchant,CAFE BABA,"33 Pháo Đài Láng, Phường Láng Thượng, Quận Đống Đa, Hà Nội, VIỆT NAM",CAFE BABA,"33 Pháo Đài Láng, Phường Láng Thượng, Quận Đống Đa, Hà Nội, VIỆT NAM",105.83710259999998,21.0123495,Mass Merchant
90,6246455540529687045,604531271684439811,Mass Merchant,Cafe Bùi 1,"63B Nguyễn Khuyến, Phường Văn Miếu, Quận Đống Đa, Hà Nội, VIỆT NAM",cafebui631,MOMOJYIB20181017,105.8306606,21.0032249,Mass Merchant
91,7222321513225138182,7007379330806386509,Coffee chains and Milk tea,Effoc An Dương Vương,"435 An Dương Vương, Phường 3, Quận 5, Thành Phố Hồ Chí Minh, VIỆT NAM",effocadvuong,MOMO0T0920181114,,,Cafe
93,7301990929868186374,5494680444014187358,Mass Merchant,ALIFOODCORNER,"008-009 Lô T chưng cư  Ngô Gia Tự, Phường 2, Quận 10, Thành Phố Hồ Chí Minh, VIỆT NAM",ALIFOODCORNER CC NGÔ GIA TỰ,"008-009 Lô T Chưng Cư Ngô Gia Tự, Phường 2, Quận 10, Thành Phố Hồ Chí Minh, VIỆT NAM",106.6733813,10.7624208,Mass Merchant
95,6130594080009760775,8918389291500458238,Mass Merchant,BILUXURY NGUYỄN ÁI QUỐC,"1875 Nguyễn Ái Quốc, Phường Tân Tiến, Thành phố Biên Hòa, Đồng Nai, VIỆT NAM",biluxurynguyenaiquoc,MOMOLDIG20181228,,,Mass Merchant
111,9045274477408763399,2821745424997075775,Mass Merchant,thealleyhotungmau,"114 Hồ Tùng Mậu, Phường Bến Nghé, Quận 1, Thành Phố Hồ Chí Minh, VIỆT NAM",thealleyhotungmau,MOMO7JMY20181105,105.8427815,21.0433059,Mass Merchant
127,4545526623053894407,2593451281685614696,Restaurant,CÔNG TY TNHH MỘT THÀNH VIÊN DỊCH VỤ TRÚC ANH	,"42 Trần Văn Khéo , Phường Cái Khế, Quận Ninh Kiều, Cần Thơ, VIỆT NAM",DON CHICKEN Trân Văn Khéo,"42 Trần Văn Khéo, Phường Cái Khế, Quận Ninh Kiều, Cần Thơ, VIỆT NAM",106.6733813,10.7624208,chicken
129,3552555863717876743,8117089422581323395,Mass Merchant,Bánh Cuốn Tây Sơn,"132 Phạm Văn Đồng, Phường 3, Quận Gò Vấp, Thành Phố Hồ Chí Minh, VIỆT NAM",Bánh Cuốn Tây Sơn,"44 Trương Công Định, phường 14, Tân Bình, Hồ Chí Minh, Việt Nam",106.682942,10.79524,Mass Merchant
133,4627806457648007688,6314189829115489867,Mass Merchant,VUA TÀO PHỚ,"50 Thái Hà, Phường Trung Liệt, Quận Đống Đa, Hà Nội, VIỆT NAM",VUA TÀO PHỚ,"110 Đào Tấn, Phường Phúc Xá, Quận Ba Đình, Hà Nội, VIỆT NAM",,,Mass Merchant
135,8421950360944077064,5279137210118216101,Restaurant,CÔNG TY LIÊN DOANH TNHH KFC VIỆT NAM,"Số 292 Bà Triệu, Phường Lê Đại Hành, Quận Hai Bà Trưng, Hà Nội",KFC Quang Trung Hà Đông,"484 Quang Trung, P.La Khê, Q.Hà Đông, Hà Nội",,,chicken
174,7006999597222169608,5412916634862308739,Coffee chains and Milk tea,My Life Coffee 160 Nguyễn Cư Trinh,"160 Nguyễn Cư Trinh, Phường Nguyễn Cư Trinh, Quận 1, Thành Phố Hồ Chí Minh, VIỆT NAM",mlcnct,MOMOS0V620180507,106.690441,10.825447,Cafe
186,6813810437735499528,8211066546836965925,Mass Merchant,CƠM NIÊU THIÊN LÝ - Nguyễn Đình Chiểu,"16 Nguyễn Đình Chiểu, Phường Đa Kao, Quận 1, Thành Phố Hồ Chí Minh, VIỆT NAM",comnieu2,MOMOYOJI20180809,106.68579640000002,10.771197099999998,Mass Merchant
194,3877919560489393161,1496197246305038486,Mass Merchant,ROYAL RICE & BUNBAR,"40 Đặng Thị Nhu, Phường Nguyễn Thái Bình, Quận 1, Thành Phố Hồ Chí Minh, VIỆT NAM",ROYAL RICE & BUNBAR,"40 Đặng Thị Nhu, Phường Nguyễn Thái Bình, Quận 1, Thành Phố Hồ Chí Minh, VIỆT NAM",,,Mass Merchant
196,3797980347767515401,6363652732867312230,Coffee chains and Milk tea,Trung Nguyên Legend,"82-84 Bùi Thị Xuân, P. Bến Thành, Quận 1, Tp Hồ Chí Minh",HCM-222 Bùi Viện,"222 Bùi Viện, Phường Phạm Ngũ Lão, Quận 1, Thành Phố Hồ Chí Minh, VIỆT NAM",,,Cafe
219,466122145409001993,2822463503541994492,Mass Merchant,PHỞ VIỆT NAM,"66 Trần Quốc Toản, Phường 8, Quận 3, Thành Phố Hồ Chí Minh, VIỆT NAM",phovietnam1,MOMOG5GV20181127,106.6926962,10.7712649,Mass Merchant
220,3357730268712656651,4805393640823166031,Mass Merchant,Gà Ác Vĩnh Quý Quận 7,"510Bis Nguyễn Thị Thập, Phường Tân Quy, Quận 7, Thành Phố Hồ Chí Minh, VIỆT NAM",advinhquyq7,MOMO7TSS20181101,106.69481100000002,10.783691,Mass Merchant
222,905706459541087244,518985245610880186,Mass Merchant,Gà Ác Vĩnh Quý ,"776 Nguyễn Kiệm, Phường 4, Quận Phú Nhuận, Thành Phố Hồ Chí Minh, VIỆT NAM",Gà Ác Vĩnh Quý - Phú Nhuận,"776 Nguyễn Kiệm, Phường 4, Quận Phú Nhuận, Thành Phố Hồ Chí Minh, VIỆT NAM",105.793413,21.008374,Mass Merchant
224,1691048167182528780,4881978455872540189,Mass Merchant,HÀ NGỌC THU HIỀN,"412/1,412/3,412/5 Lê Văn Việt, Khu Phố 7, Phường Tăng Nhơn Phú A, Quận 9, Thành Phố Hồ Chí Minh, VIỆT NAM",TRÀ SỮA HOT&COLD - VHM,"11 SƯ VẠN HẠNH, Phường 12, Quận 10, Thành Phố Hồ Chí Minh, VIỆT NAM",,,Mass Merchant
241,1023280480942069518,1155475283193365728,Mass Merchant,Nem Nướng Oanh Vy,"245/4 nguyễn thị minh khai, Phường Nguyễn Cư Trinh, Quận 1, Thành Phố Hồ Chí Minh, VIỆT NAM",nemnuongoanhvy,MOMOEFWW20180614,106.6960244,10.7719047,Mass Merchant
243,7635373549852617486,817142716531128615,Mass Merchant,Tổng Hợp Việt 1,"334 Cao Thắng, Phường 12, Quận 10, Thành Phố Hồ Chí Minh, VIỆT NAM",tonghopviet1,MOMO4Y6X20181125,,,Mass Merchant
247,6472234742928442639,322866929283630834,Mass Merchant,ATM STREET COFFEE,"167/2  Sư Phạm Hạnh, Phường 3, Quận 10, Thành Phố Hồ Chí Minh, VIỆT NAM",atmstreetcoffee1,MOMOFDC020180822,105.8560127,21.0331371,Mass Merchant
249,2566362126491332623,2543374150794859197,Mass Merchant,CÔNG TY TNHH MỘT THÀNH VIÊN LAVIDA COFFEE AND TEA,"113 PHAN XÍCH LONG, Phường 7, Quận Phú Nhuận, Thành Phố Hồ Chí Minh, VIỆT NAM",LAVIDA COFFEE AND TEA 03-07 TRẦN QUỐC TOẢN,"03-07 trâng quốc toản, Phường 8, Quận 3, Thành Phố Hồ Chí Minh, VIỆT NAM",106.736409,10.804286,Mass Merchant
261,2651480655471329551,1541123254620768047,Mass Merchant,Bamboo Dimsum Aeon Mall Bình Dương,"Số 1 Đại Lộ Bình Dương Khu Phố Bình Giao, Phường Thuận Giao, Thị xã Thuận An, Bình Dương, VIỆT NAM",bambooaeonbinhduong,MOMOUBWL20180726,105.8309694,21.0161376,Mass Merchant
282,3269274051670598927,49551193210428926,Restaurant,Công ty cổ phần thương mại Nhật Thái,"Vincom Center, Tầng hầm B3-28F, 45A Lý Tự Trọng, Bến Nghé, Quận 1, Hồ Chí Minh",Coca  Vincom B ,"B3-28F, Vincom B Center, 45A Ly Tu Trong, Dist.1, HCMC.",,,asian
288,9181422185636075279,7824096065976301151,Coffee chains and Milk tea,Gong Cha Lý Thường Kiệt,"56 Lý Thường Kiệt, Phường Cửa Nam, Quận Hoàn Kiếm, Hà Nội, VIỆT NAM",2238,MOMO2D0W20181030,106.668726,10.7813116,Cafe
290,7217455669218222351,2230887186680152293,Coffee chains and Milk tea,CÔNG TY TNHH VIETART FOOD & BEVERAGE,"343 Trần Nguyên Đán, Phường Hòa Minh, Quận Liên Chiểu, Đà Nẵng, VIỆT NAM",Sharetea 3/2,"Lô 33-34 2/9, Phường Thạch Thang, Quận Hải Châu, Đà Nẵng, VIỆT NAM",106.69512,10.779998,Cafe
292,2668036139076462607,825550025383856222,Restaurant,CÔNG TY CP ĐT TM QT MẶT TRỜI ĐỎ (TP HÀ NỘI),"208 Nam Kỳ Khởi Nghĩa, Phường6, Quận 3, TP.HCM",Hotpot Story Vivo City (0055),"GH 04-05A, TTTM SC Vivocity,số 1058 Nguyễn Văn Linh, KP1, P. Tân Phong, Q.7",,,hotpot
317,946180032524845328,5547027203754879852,Fast food,CÔNG TY TNHH KẾT NỐI KHÔNG GIAN,246/9 Bình Quới - Phường 28 - Quận Bình Thạnh - TP Hồ Chí Minh.,ICOOLBOX CGVVincom Bà Triệu 1,"191 Bà Triệu, Phường Lê Đại Hành, Quận Hai Bà Trưng, Hà Nội, VIỆT NAM",106.6840129,10.786586,Fast food
336,8894244506110084880,8326290601255147340,Mass Merchant,Pizza Chảo 414 Đội Cấn,"414 Đội Cấn, Phường Vĩnh Phúc, Quận Ba Đình, Hà Nội, VIỆT NAM",pizzachao4123,MOMOF9LG20180621,106.626632,10.813266,Mass Merchant
338,2906553735390061840,9100756562792647110,Mass Merchant,CỬA HÀNG ĂN UỐNG SỐ 12,"12 Đồng Nai, Phường 15, Quận 10, Thành Phố Hồ Chí Minh, VIỆT NAM",cuahanganuongso121,MOMO0OPW20181102,106.67865159999998,10.7678127,Mass Merchant
340,521630549682136336,4646581228844495345,Coffee chains and Milk tea,Chewy Junior Trần Quang Diệu,"19 Trần Quang Diệu, Phường 14, Quận 3, Thành Phố Hồ Chí Minh, VIỆT NAM",chewytranquangdieu,MOMOT0EB20180628,,,Cafe
342,1161222413519607568,6078117618508315404,Mass Merchant,HỘ KINH DOANH MÌ QUẢNG 3 ANH EM,"193 Cách Mạng Tháng 8, Phường 4, Quận 3, Thành Phố Hồ Chí Minh, VIỆT NAM",MÌ QUẢNG 3 ANH EM 193 CMT8,"193 Cách Mạng Tháng 8, Phường 4, Quận 3, Thành Phố Hồ Chí Minh, VIỆT NAM",106.7039269,10.7721509,Mass Merchant
344,1045617830876991761,5608594123270500634,Mass Merchant,CÔNG TY TNHH DỊCH VỤ TIÊN TÂM,"29 LÊ ANH XUÂN, Phường Bến Thành, Quận 1, Thành Phố Hồ Chí Minh, VIỆT NAM",NHÀ HÀNG ELEVEN,"29 lê anh xuân, Phường Bến Thành, Quận 1, Thành Phố Hồ Chí Minh, VIỆT NAM",106.6681101,10.7742506,Mass Merchant
346,5572251577044109331,2756308763787969774,Mass Merchant,THE ALLEY,"539 Sư Vạn Hạnh (nd), Phường 13, Quận 10, Thành Phố Hồ Chí Minh, VIỆT NAM",thealleysuvanhanh1,"539 Sư Vạn Hạnh (nd), Phường 13, Quận 10, Thành Phố Hồ Chí Minh, VIỆT NAM",,,Mass Merchant
348,4474770828003663379,6054057789083581588,Coffee chains and Milk tea,Gong Cha Quang Trung,"Tầng trệt CoopMart Quang Trung, 304A Quang Trung, Phường 11, Quận Gò Vấp, Thành Phố Hồ Chí Minh, VIỆT NAM",8578,MOMOCSBR20181029,,,Cafe
369,3930568325289511699,2425270690171757788,Mass Merchant,Nhà hàng Hoa Sen ( lotus cafe),"9 Đào Duy Anh, Phường Phương Liên, Quận Đống Đa, Hà Nội, VIỆT NAM",Nhà hàng Hoa Sen 1 ( lotus cafe) ,"9  Đào Duy Anh, Phường Phương Liên, Quận Đống Đa, Hà Nội, VIỆT NAM",,,Mass Merchant
371,913123953496470035,4083301282811853346,Mass Merchant,LiBB House Coffee & Tea,"198B  Nguyễn Kim, Phường 6, Quận 10, Thành Phố Hồ Chí Minh, VIỆT NAM",libbhouse123,MOMOER8C20180829,105.8029221,21.0083109,Mass Merchant
373,3811078734948900116,3060377769010395548,Fast food,Sawadee Quận 10,"388 Nguyễn Chí Thanh, Phường 5, Quận 10, Thành Phố Hồ Chí Minh, VIỆT NAM",sawadeenct,MOMO5FU220180827,106.68955359999998,10.7975269,Fast food
375,6209364856195916309,3589247407548585946,Mass Merchant,1st GARDEN CAFE & BISTRO,"Lầu 3, 26 Lý Tự Trọng, Phường Bến Nghé, Quận 1, Thành Phố Hồ Chí Minh, VIỆT NAM",1ST GARDEN CAFE&BISTRA,"LẦU 3 SỐ 26 LÝ TỰ TRỌNG, Phường Bến Nghé, Quận 1, Thành Phố Hồ Chí Minh, VIỆT NAM",,,Mass Merchant
377,1188081138098976021,1951767277531320012,Mass Merchant,KHOAI LANG LẮC,"SỐ 98A ĐƯỜNG SỐ 1, Phường Tân Phú, Quận 7, Thành Phố Hồ Chí Minh, VIỆT NAM",khoailanglac1,MOMOVBAV20181124,106.7187626,10.8035802,Mass Merchant
379,441054968299719702,7156377329232808811,Mass Merchant,CV GAMING & COFFEE,"23 Nguyễn Thị Thập, Phường Tân Hưng, Quận 7, Thành Phố Hồ Chí Minh, VIỆT NAM",CV GAMING & COFFEE,"23 Nguyễn Thị Thập, Phường Tân Hưng, Quận 7, Thành Phố Hồ Chí Minh, VIỆT NAM",106.6709111,10.7711026,Mass Merchant
381,7549210150399079702,3181081454660562065,Mass Merchant,BÚN CÁ 164 Ô CHỢ DỪA,"164  Ô Chợ Dừa, Phường Ô Chợ Dừa, Quận Đống Đa, Hà Nội, VIỆT NAM",bunca1641,"164 Ô Chợ Dừa, Phường Ô Chợ Dừa, Quận Đống Đa, Hà Nội, VIỆT NAM",105.836747,21.026716,Mass Merchant
383,633626781599368982,7241007355383079410,Mass Merchant,CỬA HÀNG TÚ LINH,"19 Hàng Điều, Phường Cửa Đông, Quận Hoàn Kiếm, Hà Nội, VIỆT NAM",Cửa hàng Tú Linh 1,"19 Hàng Điếu, Phường Cửa Đông, Quận Hoàn Kiếm, Hà Nội, VIỆT NAM",105.852774,21.0193629,Mass Merchant
385,5813181484015283222,4578788207277615775,Mass Merchant,Koi Cafe Spa 646,"646 Láng, Phường Láng Hạ, Quận Đống Đa, Hà Nội, VIỆT NAM",KOI Coffee,"646 Đường Láng, Phường Láng Hạ, Quận Đống Đa, Hà Nội, VIỆT NAM",106.687347,10.7891746,Mass Merchant
387,6835189764919746072,4132762970393719878,Mass Merchant,B59 COFFEE,"370  Thái Hà, Phường Láng Hạ, Quận Đống Đa, Hà Nội, VIỆT NAM",B59 Coffee,"Số 11 Đường Thanh Niên, Phường Quán Thánh, Quận Ba Đình, Hà Nội",,,Mass Merchant
393,7600023406352101656,2033297345442553619,Mass Merchant,CÔNG TY TNHH THƯƠNG MẠI DỊCH VỤ LARINA,"453 Nguyễn Thị Thập, Phường Tân Phong, Quận 7, Thành Phố Hồ Chí Minh, VIỆT NAM",LŨY BÁN BÍCH,"713 Lũy Bán Bích, Phường Phú Thọ Hòa, Quận Tân Phú, Thành Phố Hồ Chí Minh, VIỆT NAM",105.824386,21.003327,Mass Merchant
397,7147576413666439448,8466767084322056430,Mass Merchant,Nhà thuốc Việt Dũng,"Số 26 Ngõ 151A Thái Hà, Phường Láng Hạ, Quận Đống Đa, Hà Nội, VIỆT NAM",nhathuocvd1,MOMOHTVK20181023,106.6770033,10.8273755,Mass Merchant
398,4595112376248466200,8573678259839858841,Restaurant,Trống Cơm –Estella Place,"Tầng 8, Estella Place, 88 Song Hành, An Phú, Quận 2, Hồ Chí Minh, Việt Nam",tep,MOMO2BYY20190326,106.7196014,10.7482233,vietnamese
410,2632452905725643033,6829067633582950765,Mass Merchant,huongnguyencoffee1,"284/4/2 Lý Thường Kiệt, Phường 14, Quận 10, Thành Phố Hồ Chí Minh, VIỆT NAM",huongnguyencoffee1,MOMOKWZQ20181024,105.7923394,20.979644600000004,Mass Merchant
411,896239053579162138,3284161041390944683,Mass Merchant,Thập Cẩm Canh Ma La - Tang 1,"17C Hàm Long, Phường Phan Chu Trinh, Quận Hoàn Kiếm, Hà Nội, VIỆT NAM",thapcamcanh1,MOMOU5CV20181124,105.9494248,21.1689215,Mass Merchant
413,1258129089952486938,2306229402365819138,Mass Merchant,Newborns Vietnam,"18/879 La Thành, Phường Láng Thượng, Quận Đống Đa, Hà Nội, VIỆT NAM",Newborns MUC 2019,Chân thành cảm ơn bạn đã cùng chúng tôi cứu sống 10.000 trẻ sơ sinh mỗi năm!,106.706847,10.758654,Mass Merchant
415,1304915546221196826,1189951701747396389,Mass Merchant,Ốc ăn vặt Thành Công,"104 A5 Tập thể Thành Công Thành Công, Phường Thành Công, Quận Ba Đình, Hà Nội, VIỆT NAM",Ốc ăn vặt Thành Công,"104 A5  Tập thể Thành Công, Phường Thành Công, Quận Ba Đình, Hà Nội, VIỆT NAM",106.7239272,10.7378779,Mass Merchant
417,6959023445664812314,5691686776240831559,Mass Merchant,CÔNG TY TNHH XUẤT NHẬP KHẨU THƯƠNG MẠI AN MINH,"Số 20, ngõ 145 Nguyễn Văn Cừ, Phường Ngọc Lâm, Quận Long Biên, Thành phố Hà Nội",f5fruitshop2,"95 Văn Cao, Phường Liễu Giai, Quận Ba Đình, Hà Nội, VIỆT NAM",106.687731,10.799976,Mass Merchant
421,5944907827980751130,6591796615431037061,Shopping,Oz Hoa Lan (Routine),"11-13-15 Hoa Lan, Phú Nhuận, Hồ Chí Minh, Việt Nam",HCM05,MOMO7LTG20190329,,,Shopping
423,2930306563080904218,4172328365798307147,Coffee chains and Milk tea,Trà sữa Chamichi Trường Sa,"312 Trường Sa, Phường 7, Quận Phú Nhuận, Thành Phố Hồ Chí Minh, VIỆT NAM",5108,MOMOTQTU20181022,,,Cafe
425,2950673307605020187,1428966070960278343,Restaurant,Chi Nhánh Công Ty CP Alfresco's Á Châu,"8/54 -56-58 Đinh Tiên Hoàng, Phường Đa Kao, Quận 1, Thành Phố Hồ Chí Minh, VIỆT NAM",Al Fresco's Vạn Hạnh Mall,"11 Sư Vạn Hạnh, Phường 12, Quận 10, Thành Phố Hồ Chí Minh, VIỆT NAM",106.699013,10.802677,western
427,3893968759609682715,6435390054467534893,Mass Merchant,Pháo Cafe,"188 Thái Thịnh, Phường Láng Hạ, Quận Đống Đa, Hà Nội, VIỆT NAM",phaocafe1,MOMOLAKT20181027,106.6597338,10.9705987,Mass Merchant
431,7608564882640589084,646880886373206453,Mass Merchant,THE ALLEY HỒNG BÀNG,"493 Hồng Bàng, Phường 14, Quận 5, Thành Phố Hồ Chí Minh, VIỆT NAM",thealleyhongbang1,MOMODIXC20181101,106.685896,10.7781288,Mass Merchant
433,2486766860431340829,5845552758929852084,Mass Merchant,MÌ QUẢNG 3 ANH EM -117 NGUYỄN GIA TRÍ,"117 Nguyễn Gia Trí, Phường 25, Quận Bình Thạnh, Thành Phố Hồ Chí Minh, VIỆT NAM",miquang123,MOMOVMOQ20181006,,,Mass Merchant
435,3771801775643244829,8724625073405159732,Coffee chains and Milk tea,Công Ty TNHH Passio,"15F Nguyễn Thị Minh Khai, Bến Nghé, Quận 1, Hồ Chí Minh",Passio - 199 Điện Biên Phủ,"199 Điện Biên Phủ, Phường 6, Quận Bình Thạnh, Thành Phố Hồ Chí Minh, VIỆT NAM",105.84778500000002,20.983487,Cafe
455,5996685943079716381,5012562935269269895,Mass Merchant,DADDY PARIS,"223 Tôn Đức Thắng, Phường Hàng Bột, Quận Đống Đa, Hà Nội, VIỆT NAM",daddyparis142,"142 Trung Hòa, Phường Yên Hoà, Quận Cầu Giấy, Hà Nội, VIỆT NAM",,,Mass Merchant
459,2976045368419517725,3489734833602344912,Coffee chains and Milk tea,Công Ty TNHH Paris Baguette Việt Nam,"Số 01 Cao Thắng, Phường 2, Quận 3, Thành Phố Hồ Chí Minh, VIỆT NAM",Paris Baguette Scenic Valley 2,"B0.03, Khối nhà B Khu phố Scenic Valley 2 (Lô MD4-4), Phường Tân Phú, Quận 7, Thành Phố Hồ Chí Minh, VIỆT NAM",105.8230941,21.008364,Cafe
471,1746255898961407518,3071992577596393063,Mass Merchant,Mizusawa 1,"68 Chùa Láng, Phường Láng Thượng, Quận Đống Đa, Hà Nội, VIỆT NAM",mizusawa1,MOMOXMCA20180921,106.7165252,10.7482756,Mass Merchant
473,7887751739049043230,3161046717067114339,Coffee chains and Milk tea,LUÂN THẢO,"982 Cách Mạng Tháng 8, phường 05, Quận Tân Bình, TPHCM",TocoToco Cách mạng tháng 8,"982 Cách Mạng Tháng 8, phường 05, Quận Tân Bình, TPHCM",105.7789657,21.0145173,Cafe
475,100459171840484639,1376649113973554247,Mass Merchant,Sumo Steak 1,"30 Nguyễn Hữu Huân, Phường Lý Thái Tổ, Quận Hoàn Kiếm, Hà Nội, VIỆT NAM",sumosteak1,MOMOFOZX20181128,106.7155735,10.8101905,Mass Merchant
477,5254920233222510111,5205852676321353372,Mass Merchant,TÙNG BOOK COFFEE,"Số 6 ngõ 71 Trần Quang Diệu, Phường Ô Chợ Dừa, Quận Đống Đa, Hà Nội, VIỆT NAM",tungbook1,"số 6 ngõ 71 Trần Quang Diệu, Phường Ô Chợ Dừa, Quận Đống Đa, Hà Nội, VIỆT NAM",105.817827,21.0113375,Mass Merchant
479,8532453824534521631,8195782436963691781,Mass Merchant,Công Ty Trách Nhiệm Hữu Hạn SAVOR Việt Nam ,"Số 108 Nguyễn Chí Thanh, Phường Láng Thượng, Quận Đống Đa, Hà Nội, VIỆT NAM",Savor 187 Đội Cấn,"187 Đội Cấn, Ba Đình, Hà Nội, Việt Nam",,,Mass Merchant
499,5561294982351160096,5689067350520316668,Mass Merchant,HAHA CHICKEN,"111D11 thái thịnh, Phường Thịnh Quang, Quận Đống Đa, Hà Nội, VIỆT NAM",HAHA CHICKEN,"111D11 Thái Thịnh, Phường Thịnh Quang, Quận Đống Đa, Hà Nội, VIỆT NAM",106.6815201,10.7548033,Mass Merchant
501,5740558382180822560,2029453691248989883,Mass Merchant,TRÂN CHÂU ĐƯỜNG ĐEN 1992 - 320 TRẦN VĂN ĐANG,"320 Trần Văn Đang, Phường 11, Quận 3, Thành Phố Hồ Chí Minh, VIỆT NAM",tranchau1992123,MOMOBLXH20181015,,,Mass Merchant
502,3497215282199771681,2616029047975092659,Mass Merchant,Trà Sữa Hefkcha,"Số 71 Chùa Láng, Phường Láng Thượng, Quận Đống Đa, Hà Nội, VIỆT NAM",Trà Sữa Hefkcha,"71 Chùa Láng, Phường Láng Thượng, Quận Đống Đa, Hà Nội, VIỆT NAM",106.6440126,,Mass Merchant
504,6455373417544269857,3608423139184012147,Mass Merchant,D.A.T,"148 Trường Chinh, Phường 12, Quận Tân Bình, Thành Phố Hồ Chí Minh, VIỆT NAM",THE ALLEY LÊ VĂN SỸ,"182A Lê Văn Sỹ, Phường 10, Quận Phú Nhuận, Thành Phố Hồ Chí Minh, VIỆT NAM",105.8686517,,Mass Merchant
508,5101756719615476258,5679518349534162602,Mass Merchant,THE ALLEY QUẬN 2,"17 Mai Chí Thọ, Phường Bình Khánh, Quận 2, Thành Phố Hồ Chí Minh, VIỆT NAM",thealleyquan21,"17 Mai Chí Thọ, Phường Bình Khánh, Quận 2, Thành Phố Hồ Chí Minh, VIỆT NAM",105.848966,,Mass Merchant
510,3402112950160040738,9213368089344421131,Mass Merchant,Quán Khói 1,"Ngõ 360 Xã Đàn, Phường Ô Chợ Dừa, Quận Đống Đa, Hà Nội, VIỆT NAM",quankhoi1,MOMOAI4A20181111,105.8342379,21.0082508,Mass Merchant
511,8902169816698075683,7352352893535959163,Mass Merchant,ĐẠI BIỂN DƯƠNG,"133 Nguyễn Văn Cừ, Phường 2, Quận 5, Thành Phố Hồ Chí Minh, VIỆT NAM",THE ALLEY NGUYỄN VĂN CỪ,"133 Nguyễn Văn Cừ, Phường 12, Quận 5, Thành Phố Hồ Chí Minh, VIỆT NAM",106.647464,10.793008,Mass Merchant
513,8604760745999833635,2331892616485878096,Mass Merchant,Chè Và Trà Sữa Đài Loan Blackball,"62 Nguyễn Chí Thanh, Phường Láng Thượng, Quận Đống Đa, Hà Nội, VIỆT NAM",Chè Và Trà Sữa Đài Loan Blackball,"62 Nguyễn Chí Thanh, Phường Láng Thượng, Quận Đống Đa, Hà Nội, VIỆT NAM",106.7394326,10.6966566,Mass Merchant
515,1594271052652957220,7692680777571749969,Mass Merchant,Royal Tea 379 Trường Chinh,"379 Trường Chinh, Phường Trung Liệt, Quận Đống Đa, Hà Nội, VIỆT NAM",ROYAL TEA,"30 Phan Kế Bính, Phường Cống Vị, Quận Ba Đình, Hà Nội, VIỆT NAM",106.663405,10.7635442,Mass Merchant
517,1541760682999376676,4476055643856456781,Mass Merchant,Apsara Cafe1,"Số 1 Phạm Ngũ Lão, Phường Phan Chu Trinh, Quận Hoàn Kiếm, Hà Nội, VIỆT NAM",apsaracafe1,MOMOVTBV20181124,,,Mass Merchant
519,248251419196055076,4214965033912391194,Mass Merchant,MÌ QUẢNG ẤM CHÈ XANH.,"18 Đường số 11N- Khu cư xá Ngân Hàng, Phường Tân Thuận Tây, Quận 7, Thành Phố Hồ Chí Minh, VIỆT NAM",miquangamchexanh1,MOMOBIAD20181227,,,Mass Merchant
521,3423255638505231397,2464204299783294444,Mass Merchant,Milano Ngõ,"75/1 Mai Thị Lựu, Phường Đa Kao, Quận 1, Thành Phố Hồ Chí Minh, VIỆT NAM",milanongo,MOMOVQYE20180614,106.6980686,10.8156787,Mass Merchant
523,2769325030748005157,4574155073240421414,Mass Merchant,Giày BQ 246 Ông Ích Khiêm,246 Ông Ích Khiêm - P.Tân Chính - Q.Thanh Khê - Đà Nẵng,shopgiaybq246,MOMODM4F20180405,,,Mass Merchant
527,3205701174830506022,5913411194069361706,Mass Merchant,HƯƠNG TRÀ - Q10,"131 3/2, Phường 11, Quận 10, Thành Phố Hồ Chí Minh, VIỆT NAM",huongtra123,MOMOYNFA20181006,,,Mass Merchant
529,7299330263891848742,3996481822562733528,Restaurant,CÔNG TY TNHH H4L,"32 Nguyễn Trãi, Phường Bến Thành, Quận 1, Thành Phố Hồ Chí Minh, VIỆT NAM",PHỞ HOTPOT PHẠM HÙNG,"318D Phạm Hùng, Phường 5, Quận 8, Thành Phố Hồ Chí Minh, VIỆT NAM",,,hotpot
535,1962645878451483174,5526791816214393840,Mass Merchant,BÚN CHẢ VÀ BÁNH TÔM ,"20  Trần Cao Vân , Phường Đa Kao, Quận 1, Thành Phố Hồ Chí Minh, VIỆT NAM",hokinhdoanhhotay123,MOMOR7BS20180719,,,Mass Merchant
537,2899266241547759654,5659862762049578976,Mass Merchant,Odin Coffee 2,"24 Cửa Bắc, Phường Quán Thánh, Quận Ba Đình, Hà Nội, VIỆT NAM",odincoffee2,MOMOQ0SI20181123,106.663375,,Mass Merchant
539,4610209840050917926,1715362287618231707,Mass Merchant,ĐÔI MÓNG GIÒ,"Số 77 - 79 Chùa Láng, Phường Láng Hạ, Quận Đống Đa, Hà Nội, VIỆT NAM",ĐÔI MÓNG GIÒ,"77-79  Chùa Láng, Phường Láng Thượng, Quận Đống Đa, Hà Nội, VIỆT NAM",105.807922,21.069084600000004,Mass Merchant
541,1188886319037313063,3398768035189414000,Mass Merchant,Công ty TNHH NHà Hàng Vela,"35 Hàng Vôi, Phường Lý Thái Tổ, Quận Hoàn Kiếm, Hà Nội, VIỆT NAM",Lẩu Nướng Vela 2,"112E3 Lê Thanh Nghị, Phường Đồng Tâm, Quận Hai Bà Trưng, Hà Nội, VIỆT NAM",106.7114575,10.7598509,Mass Merchant
545,4522620599497170471,4741040088808232299,Restaurant,Công ty Cổ phần Thương mại dịch vụ Cổng Vàng ,"Số 60 Giang Văn Minh, Phường Đội Cấn, Quận Ba Đình, Hà Nội, VIỆT NAM",Gogi House Cao Thắng,"19 Cao Thắng, Phường 2, Quận 3, Thành Phố Hồ Chí Minh, VIỆT NAM",106.6692348,10.778045,bbq
630,7640837096380101159,5082679651879963718,Mass Merchant,Daiso Vincom Xuân Khánh,"Daiso Vincom Xuân Khánh, 209 Đường 30 Tháng 4, Cần Thơ",daisovincom,MOMOFWDN20180410,,,Mass Merchant
638,6590908705817898024,3930026831246987654,Mass Merchant,MOTO CAFE,"19 Khánh Hội, Phường 3, Quận 4, Thành Phố Hồ Chí Minh, VIỆT NAM",25Bis Nguyễn Thị Minh Khai MOTOCAFE,"25 BIS NGUYỄN THỊ MINH KHAI , Phường Bến Nghé, Quận 1, Thành Phố Hồ Chí Minh, VIỆT NAM",,,Mass Merchant
654,1251655062647410473,8715421901972788828,Mass Merchant,thealleyhaibatrung1,"407 Hai Bà Trưng, Phường 8, Quận 3, Thành Phố Hồ Chí Minh, VIỆT NAM",thealleyhaibatrung1,MOMONTOW20181113,105.8677319,21.0102651,Mass Merchant
656,2634694001534768682,4044258285986783917,Coffee chains and Milk tea,Gong Cha Vũng Tàu,"117 Hoàng Hoa Thám, Phường Thắng Tam, Thành phố Vũng Tàu, Bà Rịa - Vũng Tàu, VIỆT NAM",2232,MOMOPTB320181030,106.6643993,10.7747659,Cafe
658,9090494937141424170,5957003432431032285,Mass Merchant,Phở Gà Ta-Bún Dọc Mùng,"102B Đông Tác, Phường Kim Liên, Quận Đống Đa, Hà Nội, VIỆT NAM",phogata11,MOMODSPY20180921,106.6588585,10.7961696,Mass Merchant
660,3217347275587941674,6548674047258545575,Mass Merchant,Trà chanh Cafe Minh Thúy,"9 Láng, Phường Láng Hạ, Quận Đống Đa, Hà Nội, VIỆT NAM",Trà chanh Cafe Minh Thúy,"9 Láng, Phường Láng Hạ, Quận Đống Đa, Hà Nội, VIỆT NAM",106.709971,10.742805,Mass Merchant
662,3661299848013983274,8402343940404043875,Mass Merchant,VŨ VĂN THẮNG,"379 Phạm Văn Đồng, Phường 11, Quận Bình Thạnh, TP Hồ Chí Minh",Laha Coffee Phạm Văn Đồng Bình Thạnh,"379 Phạm Văn Đồng, Phường 11, Quận Bình Thạnh, Thành Phố Hồ Chí Minh, VIỆT NAM",105.85672350000002,21.0177206,Mass Merchant
666,7241075282237721387,2518155672334506507,CVS,Circle K HCM,"28/8 Bùi Viện, phường Phạm Ngũ Lão, Quận 1, Hồ Chí Minh, Việt Nam",Circle K 76 Vườn Lan,"76 Vườn Lan, Phường 10, Quận Tân Bình, Thành Phố Hồ Chí Minh, VIỆT NAM",,,CVS
794,8066122325579095851,4905344551601099343,Mass Merchant,NHÀ HÀNG LONG BÉO,"39 KDC Star Hill, Phường Tân Phú, Quận 7, Thành Phố Hồ Chí Minh, VIỆT NAM",nhahanglongbeo123,MOMOWA7H20181116,,,Mass Merchant
796,5986993037282341163,6685682437759240431,Mass Merchant,FANCHA,"Số 51B Ô Chợ Dừa, Phường Ô Chợ Dừa, Quận Đống Đa, Hà Nội, VIỆT NAM",trasuafancha1,MOMOPPD220181009,105.823434,21.0285882,Mass Merchant
797,716877020031775787,1298220214139535112,Mass Merchant,Thìn Béo Quán,"30 ngõ 107 Nguyễn Chí Thanh, Phường Láng Hạ, Quận Đống Đa, Hà Nội, VIỆT NAM",Thìn Béo Quán,"59 Đại Cồ Việt, Lê Đại Hành, Hai Bà Trưng, Hà Nội, Việt Nam",,,Mass Merchant
799,5994303900897369131,5939800793044288430,Mass Merchant,LEE KIM CHI COFFEE,"148/23 Lý Chính Thắng, Phường 7, Quận 3, Thành Phố Hồ Chí Minh, VIỆT NAM",leekimchicoffee1,MOMOL5XD20181126,106.669361,10.764018,Mass Merchant
801,1718055554810408236,5983941504145017871,Coffee chains and Milk tea,HỘ KINH DOANH MÙI ĐẤT,"95  Dân Chủ, Khu phố 2, Phường Bình Thọ, Quận Thủ Đức, Thành Phố Hồ Chí Minh, VIỆT NAM",Toco Toco Dân Chủ - Thủ Đức,"95 Dân Chủ, Khu phố 2, Phường Bình Thọ, Quận Thủ Đức, Thành Phố Hồ Chí Minh, VIỆT NAM",106.680572,10.8373313,Cafe
803,3556711155825289772,4117189888530373400,Mass Merchant,Men's Health,"7B/31 Thành Thái, Phường 14, Quận 10, Thành Phố Hồ Chí Minh, VIỆT NAM",menhealth123,MOMOUFVL20181028,106.6847813,10.773125300000002,Mass Merchant
805,6898512775031293997,4649390833257760240,Mass Merchant,Coffee Ann,"10C2 Nguyễn Thị Minh Khai, Phường Đa Kao, Quận 1, Thành Phố Hồ Chí Minh, VIỆT NAM",coffeeannq12,MOMOGHYR20181002,105.8498892,21.0165789,Mass Merchant
807,2052689421326173229,675164573133755360,Mass Merchant,Coffee- cơm vp,"Số 2B-Lê Phụng Hiểu, Hoàn Kiếm, Hà Nội",coffee- cơm vp,"2B Lê Phụng Hiểu, Phường Tràng Tiền, Quận Hoàn Kiếm, Hà Nội, VIỆT NAM",106.620684,10.792371,Mass Merchant
809,753846046626302766,711837094584098446,Mass Merchant,TRÀ CÀ PHÊ THE MYRA,"260 Trần Hưng Đạo, Phường 11, Quận 5, Thành Phố Hồ Chí Minh, VIỆT NAM",THE MYRA-Coffee & Tea,"260 Trần Hưng Đạo, Phường 11, Quận 5, Thành Phố Hồ Chí Minh, VIỆT NAM",106.698239,10.815489,Mass Merchant
811,3411078897447237934,560370752825895211,Mass Merchant,HỘ KINH DOANH CỬA HÀNG TRÀ SỮA FOGO VIỆT NAM,"51A Ô Chợ Dừa, Phường Ô Chợ Dừa, Quận Đống Đa, Hà Nội, VIỆT NAM",FOGO,"51A Ô Chợ Dừa, Phường Ô Chợ Dừa, Quận Đống Đa, Hà Nội, VIỆT NAM",105.818512,21.003619,Mass Merchant
813,4761131599689251118,5408890286609245867,Mass Merchant,HỘ KINH DOANH BA LÁ TRÀ,"74 Nguyễn Cơ Thạch, Phường An Lợi Đông, Quận 2, Thành Phố Hồ Chí Minh, VIỆT NAM",BA LÁ TRÀ 515A NGUYỄN TRI PHƯƠNG,"515A Nguyễn Tri Phương, Phường 8, Quận 10, Thành Phố Hồ Chí Minh, VIỆT NAM",106.6712793,10.8380129,Mass Merchant
819,8290495394742723630,8617242513514188072,Mass Merchant,RANG MỘC COFFEE1,"19D lý phục man, Phường Bình Thuận, Quận 7, Thành Phố Hồ Chí Minh, VIỆT NAM",rangmoccoffee1,MOMO9MH320181116,106.656942,10.773393,Mass Merchant
820,4093392211453611311,5856374023156633923,Mass Merchant,MILANO COFFEE 12,"12 Số 1 KDC cityland, Phường Tân Phú, Quận 7, Thành Phố Hồ Chí Minh, VIỆT NAM",milanocoffee1,MOMO5KBD20181129,106.6780507,10.7694833,Mass Merchant
822,824805060953052720,7837484280605974232,Mass Merchant,MR LÌ STEAK & PASTA,"252A1 Cô Bắc, Phường Cô Giang, Quận 1, Thành Phố Hồ Chí Minh, VIỆT NAM",quanmrli2,MOMOZNIT20180710,106.6890424,10.7446662,Mass Merchant
824,8267091063317927728,4202101063231516402,Mass Merchant,NHÀ HÀNG RÊU CÁ GARDEN,"06 Thái Văn Lung, Phường Bến Nghé, Quận 1, Thành Phố Hồ Chí Minh, VIỆT NAM",reucagarden1,MOMOZVLK20181108,105.7880497,20.970333,Mass Merchant
826,2638821849471398448,6608902868820632462,Mass Merchant,"Tầng 1, Rạp chiếu phim Quốc Gia, số  , Ba Đình, TP.Hà nội. ","87 Láng Hạ, Phường Phúc Xá, Quận Ba Đình, Hà Nội, VIỆT NAM",annstorelh,MOMO6LBS20180816,105.8121929,21.012493,Mass Merchant
828,1833760639046547504,4611433168257464479,Mass Merchant,Vietcetera Cafe 1,"290 Nguyễn Thị Minh Khai, Phường 5, Quận 3, Thành Phố Hồ Chí Minh, VIỆT NAM",vietceteracafe1,MOMOE9VP20180830,105.8360777,21.0097948,Mass Merchant
832,4783068067704523568,3882312723560071681,Mass Merchant,TRƯỜNG CHINH,"71 Trường Chinh, Phường Tân Thới Nhất, Quận 12, Thành Phố Hồ Chí Minh, VIỆT NAM",vdl45,MOMOXNYZ20180918,106.72940420000002,10.7386626,Mass Merchant
840,6106253060430341681,4328211162792217596,Mass Merchant,Atelier Coffee Roaster 1,"65A Tôn Thất Thiệp, Phường Điện Biên, Quận Ba Đình, Hà Nội, VIỆT NAM",ateliercoffee1,MOMOWMPQ20181220,106.664049,10.7755114,Mass Merchant
842,7308955566450311986,8782598853165299792,Mass Merchant,HKD ĐẠI MỘC THỦY - THE ALLEY,"412-414-416 Trần Phú, Phường 7, Quận 5, Thành Phố Hồ Chí Minh, VIỆT NAM",THE ALLEY TRẦN PHÚ,"412-414-416 Trần Phú, Phường 7, Quận 5, Thành Phố Hồ Chí Minh, VIỆT NAM",106.707901,10.761767,Mass Merchant
844,7599581686906545458,4594936573700340317,Mass Merchant,Nhậu Chất - Gu Hoa Lan,"4 Hoa Lan, Phường 2, Quận Phú Nhuận, Thành Phố Hồ Chí Minh, VIỆT NAM",nhauchatguhl,MOMOF7AJ20181203,106.7008908,10.7732954,Mass Merchant
845,398194198805457715,4792565610595830185,Restaurant,Khoái 49 Đinh Tiên Hoàng,"49 ĐINH TIÊN HOÀNG, PHƯỜNG DAKAO, QUẬN 1, TPHCM",khoaidth,MOMO5LRD20180416,105.85767,21.01899,western
847,2836438908368408116,816398266352161810,Mass Merchant,SMILE212 268 TÔ HIẾN THÀNH,"268 Tô Hiến Thành, Phường 15, Quận 10, Thành Phố Hồ Chí Minh, VIỆT NAM",tanos123,MOMOBEMB20180703,105.8240469,21.0023069,Mass Merchant
849,6567803275683323444,4512723080527169366,Coffee chains and Milk tea,CỬA HÀNG EFFOC,"92 Đồng Nai, Phường 15, Quận 10, Thành Phố Hồ Chí Minh, VIỆT NAM",Effoc Đồng Nai,"92 Đồng Nai, Phường 15, Quận 10, Thành Phố Hồ Chí Minh, VIỆT NAM",,,Cafe
851,5775634317021755701,7754791971526659506,Restaurant,DON CHICKEN SƯ VẠN HẠNH,"395-397 Sư Vạn Hạnh, Phường 12, Quận 10, Thành Phố Hồ Chí Minh, VIỆT NAM",donsvh,MOMOGG0F20180809,105.8277874,20.9799344,chicken
853,8431263805393422133,5390028361030947400,Mass Merchant,Banyan Tea,"117 Trâu Quỳ, Thị trấn Trâu Quỳ, Huyện Gia Lâm, Hà Nội, VIỆT NAM",banyantea2,"Phù Đổng 2 Phù Đổng, Xã Bát Tràng, Huyện Gia Lâm, Hà Nội, VIỆT NAM",106.6624689,10.7621549,Mass Merchant
855,1965522757843837493,1250527302405237123,Mass Merchant,THẾ GIỚI HÀU 601,"601/2 Cách Mạng Tháng 8, Phường 15, Quận 10, Thành Phố Hồ Chí Minh, VIỆT NAM",THẾ GIỚI HÀU 601 CMT8,"601/2 Cách Mạng Tháng 8, Phường 15, Quận 10, Thành Phố Hồ Chí Minh, VIỆT NAM",,,Mass Merchant
857,2887390537207147317,1068782711402484465,Mass Merchant,Bếp Của Mẹ,"Kiot 4 NO1 Ngõ 84 Chùa Láng, Phường Láng Hạ, Quận Đống Đa, Hà Nội, VIỆT NAM",bepcuame6,MOMO9YTV20181026,106.69391029999998,10.7946033,Mass Merchant
859,7870989550813941047,829677172260787459,Coffee chains and Milk tea,CÔNG TY CP TMDV TACO VIỆT NAM,"Số 105, ngõ 622 Minh Khai, Phường Vĩnh Tuy, Quận Hai Bà Trưng, Hà Nội, VIỆT NAM",Tocotoco - 52 Hòa Bình,"52 Hòa Bình, Phường 5, Quận 11, Thành Phố Hồ Chí Minh, VIỆT NAM",106.649563,10.763916900000002,Cafe
909,7980330338534887736,6721103996513569075,Mass Merchant,SARI,"82 Trần Minh Quyền, Phường 11, Quận 10, Thành Phố Hồ Chí Minh, VIỆT NAM",SARI1,MOMOLHII20181024,106.6647812,10.7634611,Mass Merchant
911,9107214669541149753,4649359943000958964,Mass Merchant,FOODHOUSE HỒ ĐẮC DI,"157  Hồ Đắc Di, Phường Phương Liên, Quận Đống Đa, Hà Nội, VIỆT NAM",foodhousehdd,MOMOOVGG20180816,106.676645,10.7659434,Mass Merchant
931,7114548482837413945,8533175187949919023,Mass Merchant,Bilio Coffee,"1/37 Đê La Thành, Phường Ngọc Khánh, Quận Ba Đình, Hà Nội, VIỆT NAM",BILIO COFFEE KIM MÃ,"75/649 Kim Mã, Ba Đình, Hà Nội, Việt Nam",,,Mass Merchant
933,7260637975327411002,6049703269288622557,Coffee chains and Milk tea,Gong Cha Hội An,"40 Công Nữ Ngọc Khối Hoài Phô, Phường Cẩm Phô, Thành phố Hội An, Quảng Nam, VIỆT NAM",4718,MOMOHPDP20181030,106.6556135,10.7794123,Cafe
935,1529371805079198010,5141924046874260527,Mass Merchant,Torano 330 Nguyễn Trãi,"330 Nguyễn Trãi, PHƯỜNG TRUNG VĂN, Quận Nam Từ Liêm, Hà Nội, VIỆT NAM",torano4,MOMOAXFY20180818,105.82621840000002,21.0267276,Mass Merchant
955,2302341927271356986,4356890199670765840,Mass Merchant,OANHBUNMIEN1,"58 Thợ Nhuộm, Phường Cửa Nam, Quận Hoàn Kiếm, Hà Nội, VIỆT NAM",oanhbunmien1,MOMOVR5R20180621,106.6621466,10.7742447,Mass Merchant
957,6547291063756653115,806666444271878232,Fast food,SCT," Sense City - Tầng trệt, số 01   Hòa Bình, Phường Tân An, Quận Ninh Kiều, Cần Thơ, VIỆT NAM",006sctcto,MOMOKAR520180807,105.847855,21.029299,Fast food
963,4304266835052078651,6055478863379991267,Mass Merchant,TERRISA DIRECT 1,"255 Lý Tự Trọng, Phường Bến Thành, Quận 1, Thành Phố Hồ Chí Minh, VIỆT NAM",terrisadirect1,MOMOEUYQ20181029,106.6668179,10.7633776,Mass Merchant
965,3869951071421869884,5963240530127225011,Restaurant,CÔNG TY TNHH QUỐC TẾ SOMY,"67-69  Đường Cách Mạng Tháng Tám, Phường Bến Thành, Quận 1, Thành Phố Hồ Chí Minh, VIỆT NAM",Nguyễn Tri Phương,"98-126 Nguyễn Tri Phương, Phường 7, Quận 5, Thành Phố Hồ Chí Minh, VIỆT NAM",106.6733813,10.7624208,foodcourt
969,3506583208688897340,6229821033992891289,Mass Merchant,HỘ KINH DOANH LÂM VĂN THẮNG,"419 Nguyễn Văn Luông, Phường 12, Quận 6, Thành Phố Hồ Chí Minh, VIỆT NAM",QUẬN 6,"419 Nguyễn Văn Luông, Phường 12, Quận 6, Thành Phố Hồ Chí Minh, VIỆT NAM",105.8359974,21.0098624,Mass Merchant
971,6683159578094575932,976051178694470726,CVS,MINISTOP Việt Nam,"Tòa nhà Century, 100 Nguyễn Thị Minh Khai, Quận 3, Tp. HCM",S66 - Đinh Tiên Hoàng,"41 - 43 Đinh Tiên Hoàng, Phường Bến Nghé, Quận 1",,,CVS
1067,7768896821901689661,3640336075309879206,Mass Merchant,Chicbae21,"82 Tuệ Tĩnh, Phường Nguyễn Du, Quận Hai Bà Trưng, Hà Nội, VIỆT NAM",chicbae211,MOMOSPWU20181101,105.84682,21.0238902,Mass Merchant
1068,8679358109832507197,9219039036386858136,Mass Merchant,Cafe Hào Nam 1,"32B  Hào Nam, Phường Phương Liên, Quận Đống Đa, Hà Nội, VIỆT NAM",cafehaonam1,MOMOVQ5D20180717,106.6031175,10.7650724,Mass Merchant
1070,5035602593473279039,9056281791437222292,Mass Merchant,Cửa Hàng Eco Fruits,"9 Mạc Đĩnh Chi, Phường Bến Nghé, Quận 1, Thành Phố Hồ Chí Minh, VIỆT NAM", Eco Fruits,"09 Mạc Đĩnh Chi, Phường Bến Nghé, Quận 1, Thành Phố Hồ Chí Minh, VIỆT NAM",106.668845,10.761859,Mass Merchant
1072,6132585021646909504,8522969662182631111,Mass Merchant,4Gs TEXAS - CN3,"16 Cao Thắng, Phường 5, Quận 3, Thành Phố Hồ Chí Minh, VIỆT NAM",4gstexas3,MOMOGTLQ20181210,105.8457922,21.0010837,Mass Merchant
1076,3684865627460824384,1704503596141550737,Mass Merchant,COFFEE PING,"51/12 Thành Thái, Phường 14, Quận 10, Thành Phố Hồ Chí Minh, VIỆT NAM",pingthanhthai1,MOMOXVKY20180925,106.7102482,10.744736,Mass Merchant
1078,7619769669289713473,5143030218749687379,Coffee chains and Milk tea,CÔNG TY TNHH THỰC PHẨM NEW SUN,"1748 Huỳnh Tấn Phát, Thị trấn Nhà Bè, Huyện Nhà Bè, Thành Phố Hồ Chí Minh, VIỆT NAM",Smoothie - Crescentmall,"Crescent Mall - 101  Tôn Dật Tiên, Phường Tân Phú, Quận 7, Thành Phố Hồ Chí Minh, VIỆT NAM",105.8360777,21.0097948,Cafe
1080,2470205792735577921,2744358882371164740,Mass Merchant,BÚN BÒ HUẾ GIA HỘI81,"81 đường 23, Phường Tân Quy, Quận 7, Thành Phố Hồ Chí Minh, VIỆT NAM",bunbohuegiahoi,MOMOZIIC20181212,106.65518,10.791743,Mass Merchant
1081,5891512199587776066,4046379204793079582,Mass Merchant,ViVa Coffee 45 Hoàng Hoa Thám,"45 Hoàng Hoa Thám, Phường 13, Quận Tân Bình, Thành Phố Hồ Chí Minh, VIỆT NAM",vivacoffee1,MOMO3ZW020180721,105.854789,21.030942,Mass Merchant
1083,4135335377799288131,2815462573834119891,Mass Merchant,CAFE MILANO NAM KỲ KHỞI NGHĨA,"281/1A Nam Kỳ Khởi Nghĩa, Phường 7, Quận 3, Thành Phố Hồ Chí Minh, VIỆT NAM",CAFE MILANO NAM KỲ KHỞI NGHĨA,"281/1A Nam kỳ Khởi Nghĩa, Phường 7, Quận 3, Thành Phố Hồ Chí Minh, VIỆT NAM",105.8142669,21.0162438,Mass Merchant
1085,9208970943430807363,5600346432520005096,Mass Merchant,LITTLE SOMETHING,"Lầu 5 - Cresent mall -101 Tôn Dật Tiên, Phường Tân Phú, Quận 7, Thành Phố Hồ Chí Minh, VIỆT NAM",littlesomethingq7,MOMOMNJE20181129,106.72971470000002,10.7877714,Mass Merchant
1087,2851494391888379716,380117279073809583,Mass Merchant,café Lâm 29,29 Nguyễn Hữu Huân,Café Lâm 29,29 Nguyễn Hữu Huân,106.699373,10.79987,Mass Merchant
1089,417023939004436036,2641482056882556413,Mass Merchant,Đức Trang Bakery,"Số 61 Pháo Đài Láng, Phường Láng Thượng, Quận Đống Đa, Hà Nội, VIỆT NAM",ductrangbakery2,MOMOFHYA20181030,106.6648993,10.7631584,Mass Merchant
1093,1134106962249903428,8712313264775114997,Mass Merchant,SHOWROOM HOA TƯƠI GẤU CON-LOTTE Q11,"968 3/2, Phường 7, Quận 11, Thành Phố Hồ Chí Minh, VIỆT NAM",hoatuoigaucon3,MOMOXQKM20181114,106.703545,10.730366,Mass Merchant
1095,714028373799377477,1597664933691019846,Mass Merchant,HỘ KINH DOANH  AN XANH VEGGIE CAFE AND BREAD,"58/9 Trương Định, Phường Bến Thành, Quận 1, Thành Phố Hồ Chí Minh, VIỆT NAM",anxanhcafe1,MOMOOIDK20180717,,,Mass Merchant
1096,6617482751287210054,4481154742808260529,Restaurant,Siêu thị Genshai - Vista An Phú,"628c Xa Lộ Hà Nội, Phường An Phú, Quận 2, Thành Phố Hồ Chí Minh, VIỆT NAM",vista,MOMOWGFE20181015,105.8091486,21.0199484,foodcourt
1104,4574040863613308486,4492162800627347897,Mass Merchant,R&B Tea Nguyễn Thái Học,"84 Nguyễn Thái Học, Phường Cầu ông Lãnh, Quận 1, Hồ Chí Minh",rbteanth123,MOMOM97120180420,105.84805,21.035468,Mass Merchant
1106,100670421557790535,1273185289080977831,Mass Merchant,BÁNH MỲ ZÒN,"22 Cửa Bắc, Phường Trúc Bạch, Quận Ba Đình, Hà Nội, VIỆT NAM",BÁNH MỲ ZÒN 1,"22 Cửa Bắc, Phường Đồng Xuân, Quận Hoàn Kiếm, Hà Nội, VIỆT NAM",106.6869161,10.7758276,Mass Merchant
1108,3937139360851577671,8112427337611548616,Mass Merchant,Rosso Café,Sạp 66 Chợ Hàng Bè Phường Chương Dương Quận Hoàn Kiếm Hà Nội,Rosso Café,"296 Tây Sơn, Phường Ngã Tư Sở, Quận Đống Đa, Hà Nội, VIỆT NAM",105.83288799999998,21.007674,Mass Merchant
1110,625946011894317895,7057476616529675332,Mass Merchant,Tarmi Mart 1,"Số 5 ngõ Phan Chu Trinh, Phường Phan Chu Trinh, Quận Hoàn Kiếm, Hà Nội, VIỆT NAM",tarmimart1,MOMO42D420181118,,,Mass Merchant
1112,1324711243256079431,4291774827388506178,Shopping,CÔNG TY TNHH ROUTINE VIỆT NAM,"68 Nguyễn Huệ, Phường Bến Nghé, Quận 1, TP Hồ Chí Minh",Routine Võ Văn Ngân,"240 Võ Văn Ngân, Bình Thọ, Thủ Đức, Hồ Chí Minh, Việt Nam",,,Shopping
1133,2699686806543021384,1915744601679651148,Mass Merchant,PASSSS COFFEE,"26 lý tự trọng, Phường Bến Nghé, Quận 1, Thành Phố Hồ Chí Minh, VIỆT NAM",PASSSS COFFEE QUẬN 1,"26 Lý Tự Trọng, Phường Bến Nghé, Quận 1, Thành Phố Hồ Chí Minh, VIỆT NAM",106.683172,10.74512,Mass Merchant
1135,7796704070938761544,8258228260367543240,Mass Merchant,Nhà hàng Khoái Lê Quý Đôn,"3A LÊ QUÝ ĐÔN, PHƯỜNG 6, QUẬN 3",khoailqd,MOMOUZ6720180409,,,Mass Merchant
1137,4069843186865860424,6137354604427447771,Mass Merchant,CÔNG TY CỔ PHẦN THỰC PHẨM SUNDO,"34/6 Trần Khánh Dư, Phường Tân Định, Quận 1, TPHCM",Savoure XVNT,"220 XVNT, P.21 Quận Bình Thạnh, Tp.HCM.",105.847743,21.032596,Mass Merchant
1143,5915606340191407689,3818343296270937722,Mass Merchant,BLUE INFINITY COFFEE,"150 Võ Văn Kiệt, Phường Nguyễn Thái Bình, Quận 1, Thành Phố Hồ Chí Minh, VIỆT NAM",blueinfinitycoffee,MOMOMCRT20181023,106.679678,10.7475989,Mass Merchant
1144,4679944794797932361,8064855749082990246,Mass Merchant,OSAKA,"21 10, Phường Tân Quy, Quận 7, Thành Phố Hồ Chí Minh, VIỆT NAM",osakacoffee1,MOMOMOPG20181115,106.669882,10.736457,Mass Merchant
1145,2984752121711150409,1628374427971005750,Mass Merchant,ĐẶNG CHÂU Ý NHI,"167 Bờ Bao Tân Thắng, Phường Sơn Kỳ, Quận Tân Phú, Thành Phố Hồ Chí Minh, VIỆT NAM",vivastar200nht,"200 Nguyễn Hữu Tiến, Phường Tây Thạnh, Quận Tân Phú, Thành Phố Hồ Chí Minh, VIỆT NAM",105.7892438,21.0348063,Mass Merchant
1149,7435641053063427914,2411789253329774372,CVS,Circle K Hà Nội,"Số 8, Phan Văn Trường, phường Dịch Vọng Hậu, quận Cầu Giấy, Hà Nội",Circle K 01 Tây Hồ,"01 Tây Hồ, Yên Phụ, Quận Tây Hồ, Hà Nội, VIỆT NAM",105.851443,21.035715,CVS
1216,716935564934018890,1754525431207575779,Mass Merchant,DEMI COFFEE,"75 - 77 Đường D1, Phường Tân Hưng, Quận 7, Thành Phố Hồ Chí Minh, VIỆT NAM",DEMI COFFEE,"75 - 77 Đường D1, Phường Tân Hưng, Quận 7, Thành Phố Hồ Chí Minh, VIỆT NAM",106.7284458,10.7377815,Mass Merchant
1218,8622242012958029898,9170855459118938621,Mass Merchant,Royal Tea,"215 Tôn Đức Thắng, Phường Hàng Bột, Quận Đống Đa, Hà Nội, VIỆT NAM",Royal Tea Ngọc Khánh,"14 Ngọc Khánh, Ngọc Khánh, Ba Đình, Hà Nội, Việt Nam",106.678767,10.7684204,Mass Merchant
1224,1947593774170713675,2952213301147192650,Mass Merchant,Bún Bò Huế O-Nga,"104 C10 Thành Công, Phường Thành Công, Quận Ba Đình, Hà Nội, VIỆT NAM",bunboonga1,MOMODMEU20181126,105.8451294,21.0010429,Mass Merchant
1226,822043397492434507,5232059766194519190,Mass Merchant,Công ty TNHH Dalat Hasfarm,"Số 450 Nguyên Tử Lực, Phường 8, Thành phố Đà Lạt, Lâm Đồng",Dalat Hasfarm HCM Trương Công Định,"136-138 Trương Công Định, Phường 14, Quận Tân Bình, Thành Phố Hồ Chí Minh, VIỆT NAM",106.7020064,10.7787544,Mass Merchant
1248,1923355030228942924,2357613035895336845,Mass Merchant,STU Coffee & Food,"43 - 45 Nguyễn Chí Thanh, Phường 9, Quận 5, Thành Phố Hồ Chí Minh, VIỆT NAM",STU Coffee & Food,"43 - 45 Nguyễn Chí Thanh, Phường 09, Quận 5, Thành Phố Hồ Chí Minh, VIỆT NAM",106.6923645,,Mass Merchant
1250,7583220493983739980,5102590664107728998,Mass Merchant,LẨU TRƯ KÝ ,"63  Trần Nhân Tông, Phường Bùi Thị Xuân, Quận Hai Bà Trưng, Hà Nội, VIỆT NAM",63trannhantong2,MOMONKUI20180727,105.7931986,21.0391609,Mass Merchant
1254,146985018043866446,2828401083264678448,Mass Merchant,THẢO CAFE,"91 Pasteur, Phường Bến Nghé, Quận 1, Thành Phố Hồ Chí Minh, VIỆT NAM",CHẢO CAFE,"91 Pasteur, Phường Bến Nghé, Quận 1, Thành Phố Hồ Chí Minh, VIỆT NAM",106.6988949,10.750397,Mass Merchant
1256,8704399662923415118,6133736544083052563,Mass Merchant,Ốc Chuối Đậu,"101 B6 lương định của, Phường Kim Liên, Quận Đống Đa, Hà Nội, VIỆT NAM",occhuoidau1,MOMOM04I20180924,105.8188277,21.0353524,Mass Merchant
1257,2182594663430634831,6632453165307868917,Mass Merchant,Living Well Lounge,"2 Tản Viên, Phường 2, Quận Tân Bình, Thành Phố Hồ Chí Minh, VIỆT NAM",livingwelllounge,MOMOTQSP20181119,106.6872779,10.7941355,Mass Merchant
1261,2243844528580542031,8884597123571761335,Mass Merchant,HT MART,"16 Trung Hòa, Trung Hoà, Cầu Giấy, Hà Nội, Việt Nam",htmart16,MOMOJ6DB20181204,106.6747701,10.77496,Mass Merchant
1262,7630373312878770511,4611978024685160240,Mass Merchant,MILESTONE COFFEE,"210B1 Nguyễn Khắc Nhu, Phường Cô Giang, Quận 1, Thành Phố Hồ Chí Minh, VIỆT NAM",milestonecoffee123,MOMO7RNW20180817,106.7145808,10.808477,Mass Merchant
1264,8742885012138412111,1763181083841063904,Mass Merchant,Lecastella And Leecha Huỳnh Thúc Kháng,"7 Huỳnh Thúc Kháng, Phường Láng Hạ, Quận Đống Đa, Hà Nội, VIỆT NAM",Lecastella And Leecha Lê Đại Hành,"21 Lê Đại Hành, Phường Lê Đại Hành, Quận Hai Bà Trưng, Hà Nội, VIỆT NAM",105.7838505,20.9859587,Mass Merchant
1268,3994825961428294992,8236041299717350950,Mass Merchant,Vua Cua,"376 Võ Văn Kiệt, Phường Cô Giang, Quận 1, Thành Phố Hồ Chí Minh, VIỆT NAM",vuacua111,MOMOD3NB20180626,106.6664953,10.761742,Mass Merchant
1269,4730332944869925968,7131988597453472367,Coffee chains and Milk tea,Gong Cha Vinh,"1 Lê Hồng Phong, Phường Hưng Bình, Thành phố Vinh, Nghệ An, VIỆT NAM",3717,MOMO8JUV20181030,106.6853066,10.791932,Cafe
1271,1485355072760805970,2112818583492072444,Mass Merchant,HỘ KINH DOANH KIỀU OANH,"26/14 Nguyễn Bỉnh Khiêm, Phường Đa Kao, Quận 1, Thành Phố Hồ Chí Minh, VIỆT NAM",DESTINY'S HOUSE - COFFEE Q1,"26/14 Nguyễn Bỉnh Khiêm, Phường Đa Kao, Quận 1, Thành Phố Hồ Chí Minh, VIỆT NAM",,,Mass Merchant
1273,8620648820787832659,5624760222902395674,Mass Merchant,MOUNTAIN PEARL COFFEE,"571-573 Bà Hạt, Phường 8, Quận 10, Thành Phố Hồ Chí Minh, VIỆT NAM",mountain123,MOMOFYDZ20181029,106.695559,10.791703,Mass Merchant
1274,7508698289722542420,456616057538839028,Mass Merchant,ALTO COFFEE,"408 điện biên phủ, Phường 11, Quận 10, Thành Phố Hồ Chí Minh, VIỆT NAM",ALTO COFFEE,"408 điện biên phủ, Phường 11, Quận 10, Thành Phố Hồ Chí Minh, VIỆT NAM",106.67100659999998,10.8463565,Mass Merchant
1276,7085550782588407381,2774245033927551576,Mass Merchant,THE ORGANIC - NHÀ HÀNG CHAY,"54 Lý Văn Phức, Phường Tân Định, Quận 1, Thành Phố Hồ Chí Minh, VIỆT NAM",chaytheorganic1,MOMOXPAX20181122,106.63295259999998,,Mass Merchant
1277,2205467369627124822,2258327053972440192,Coffee chains and Milk tea,TocoToco Nguyễn Văn Quá,"762 Nguyễn Văn Quá, phường Đông Hưng Thuận, Quận 12, Hồ Chí Minh, Việt Nam",tctcnvq1,MOMOYTXR20190313,106.7102646,10.744745,Cafe
1279,5048025997327319126,6944452555877994210,Mass Merchant,Bún Đậu Mẹt,"102 chùa láng, Phường Láng Thượng, Quận Đống Đa, Hà Nội, VIỆT NAM",Bún Đậu Mẹt - Lòng chần cháo,"102 chùa láng, Phường Láng Thượng, Quận Đống Đa, Hà Nội, VIỆT NAM",105.823074,20.997706,Mass Merchant
1281,4696475929912495191,7175599795648500389,Mass Merchant,Công ty CP VEETEX,"132 Tổ 15 Nha, Phường Long Biên, Quận Long Biên, Hà Nội, VIỆT NAM",Tuticare 121 Thoại Ngọc Hầu,"121  Thoại Ngọc Hầu, Phường Phú Thạnh, Quận Tân Phú, Thành Phố Hồ Chí Minh, VIỆT NAM",105.853429,21.021918,Mass Merchant
1307,2930026672445728600,3553002705083040876,Mass Merchant,Công ty TNHH Truyền Thông Xuân Vũ,"Số 60, ngõ 22 phố Phan Đình Giót, P.Phương Liệt, Q.Thanh Xuân, Hà Nội",Xuân Vũ Audio Láng Hạ,"165 Láng Hạ, Phường Láng Hạ, Quận Đống Đa, Hà Nội, VIỆT NAM",,,Mass Merchant
1311,4121938566561679704,6089280164547262477,Mass Merchant,Cửa Hàng Gà 99,"3/604 Trường Chinh, Phường Khương Thượng, Quận Đống Đa, Hà Nội, VIỆT NAM",cuahangga99tc,MOMOIYT720181031,,,Mass Merchant
1312,4259817312070497624,4888130970500432993,Mass Merchant,Bánh cuốn 77 Đặng Văn Ngữ ,"77 Đặng Văn Ngữ, Phường Trung Tự, Quận Đống Đa, Hà Nội, VIỆT NAM",banhcuon77a,MOMODTV820181011,106.6941609,,Mass Merchant
1314,6947600923794307672,1623028222236366268,Mass Merchant,Kombo Vương Thừa Vũ,"78 Vương Thừa Vũ, Phường Khương Trung, Quận Thanh Xuân, Hà Nội, VIỆT NAM",kombo12,MOMOKZP820180206,,,Mass Merchant
1331,466952392149864792,7118896432431239361,Mass Merchant,COCO KEM,"275 NGUYỄN TRÃI, Phường Nguyễn Cư Trinh, Quận 1, Thành Phố Hồ Chí Minh, VIỆT NAM",quancocokem1,MOMOYACB20180820,106.6912915,10.796499,Mass Merchant
1332,1374200209684771417,5912548598585474343,Mass Merchant,SWEETHOUSE COFFEE,"84 Đường số 11, Phường Tân Kiểng, Quận 7, Thành Phố Hồ Chí Minh, VIỆT NAM",sweethousecoffee1,MOMOTRIZ20181122,,,Mass Merchant
1334,1733958504199370585,3438787989746880195,Mass Merchant,CỬA HÀNG PHƯƠNG,"37A Cô Bắc, Phường Cầu Ông Lãnh, Quận 1, Thành Phố Hồ Chí Minh, VIỆT NAM",cuahangphuong1,MOMOHC7S20181112,105.8045278,21.0018572,Mass Merchant
1335,368740081501453914,7459468174866239563,Mass Merchant,Son sonas,"12 Tân Trào, phường Tân Phú, Quận 7, Hồ Chí Minh, Việt Nam",Cái gì cũng bán,"13 Tân Trào, Phường Linh Chiểu, Quận Thủ Đức, Thành Phố Hồ Chí Minh, VIỆT NAM",105.868069,20.994828,Mass Merchant
1339,9167086045041131611,4862440203206372910,Mass Merchant,PAPA ROTI,"268 Tô Hiến Thành, Phường 15, Quận 10, Thành Phố Hồ Chí Minh, VIỆT NAM",PAPA ROTI,"268 , Phường 15, Quận 10, Thành Phố Hồ Chí Minh, VIỆT NAM Tô Hiến Thành, Phường 15, Quận 10, Thành Phố Hồ Chí Minh, VIỆT NAM",106.6790618,10.770304800000002,Mass Merchant
1343,2883473754778890331,6246190086141808345,Mass Merchant,YOUONE HOTDOG,"Số 51 Ô Chợ Dừa, Phường Ô Chợ Dừa, Quận Đống Đa, Hà Nội, VIỆT NAM",You One Hot Dog,"số 51 Ô Chợ Dừa, Phường Ô Chợ Dừa, Quận Đống Đa, Hà Nội, VIỆT NAM",105.808228,21.002056,Mass Merchant
1347,5595214819838513501,3570299071861150734,Restaurant,Công ty TNHH Nhà Hàng Hoàng Yến,"148 Hai Bà Trưng, Phường ĐaKao, Quận 1, TP.HCM",Hoàng Yến Vincom Q1,"B3-27 Tầng B3, 72 Lê Thánh Tôn, Q.1, TP Hồ Chí Minh",,,foodcourt
1359,1294056480389871198,6911419568965628479,Mass Merchant,HỘ KINH DOANH BEEFSTEAK,"285 Lâm Văn Bền, Phường Bình Thuận, Quận 7, Thành Phố Hồ Chí Minh, VIỆT NAM",RES BEEFSTEAK,"285 Lâm Văn Bền, Phường Bình Thuận, Quận 7, Thành Phố Hồ Chí Minh, VIỆT NAM",108.2247313,16.069608300000002,Mass Merchant
1361,2972817004937296222,213556739461622494,Mass Merchant,Quán Cơm quê,"49 Vũ Thạnh, Phường Ô Chợ Dừa, Quận Đống Đa, Hà Nội, VIỆT NAM",quancomquevt1,MOMOSB1M20181029,105.8363169,,Mass Merchant
1362,3410187157010981215,1009992771045345670,Mass Merchant,CÔNG TY TNHH SẢN XUẤT THƯƠNG MẠI DỊCH VỤ NAM QUỐC,"29 25, Phường Hiệp Bình Chánh, Quận Thủ Đức, Thành Phố Hồ Chí Minh, VIỆT NAM",CACHI TEA 38D,"38d Trường Sa, Phường 15, Bình Thạnh, Hồ Chí Minh, Việt Nam",,,Mass Merchant
1366,8380438440088687967,5179837415976655908,Mass Merchant,MON TEA,"606/101 3 tháng 2, Phường 14, Quận 10, Thành Phố Hồ Chí Minh, VIỆT NAM", MON TEA,"606/101 3 THÁNG 2, Phường 14, Quận 10, Thành Phố Hồ Chí Minh, VIỆT NAM",105.812401,21.011757,Mass Merchant
1368,402104628417190239,5672893233555447709,Mass Merchant,Mì Quảng Thăng Bình,"10G Lâm Văn Bền, Phường Tân Thuận Tây, Quận 7, Thành Phố Hồ Chí Minh, VIỆT NAM",Mì Quảng Thăng Bình - Quận 7,"10G Lâm Văn Bền, Phường Tân Thuận Tây, Quận 7, Thành Phố Hồ Chí Minh, VIỆT NAM",105.8115889,21.0243978,Mass Merchant
1370,1077561302727319391,2027565240785871134,Mass Merchant,Hộ kinh doanh dịch vụ ăn bích đào,"số 1 ngõ 111 đường Láng Hạ, Phường Láng Hạ, Quận Đống Đa, Hà Nội, VIỆT NAM",Cháo Ếch Singapore,"111 Láng Hạ, Phường Láng Hạ, Quận Đống Đa, Hà Nội, VIỆT NAM",,,Mass Merchant
1372,923274385191933792,3611947917981895450,Fast food,Dunkin' Donuts Phú Mỹ Hưng,"59 Nguyễn Đức Cảnh, Phường Tân Phong, Quận 7, Thành Phố Hồ Chí Minh, VIỆT NAM",dunkinphumyhung,MOMOBSHS20180726,105.848686,21.0361109,Fast food
1376,4151098067551333216,8488452763045555941,Mass Merchant,Thèm Trái Cây.,"52 Trương Quyền, Phường 6, Quận 3, Thành Phố Hồ Chí Minh, VIỆT NAM",themtraicay123,MOMOODRU20181015,,,Mass Merchant
1378,7422214414468023904,7858748327107943679,Mass Merchant,comgaquangbinh1,"kiot 46 ngõ 85 Khương Thượng, Phường Khương Thượng, Quận Đống Đa, Hà Nội, VIỆT NAM",comgaquangbinh1,MOMOSYEQ20180813,105.812763,21.02766,Mass Merchant
1379,6716191339412858465,2760709763307266194,Mass Merchant,Công ty TNHH MỘT THÀNH VIÊN ĐẠI MỄ,"74 Trương Quốc Dung, Phường 10, Quận Phú Nhuận, Thành Phố Hồ Chí Minh, VIỆT NAM",QUÁN CƠM THƯỢNG HẢI,"21-23 Võ Văn Tần, Phường 6, Quận 3, Thành Phố Hồ Chí Minh, VIỆT NAM",106.6733813,10.7624208,Mass Merchant
1387,5676409292342853729,5315972415210993387,Mass Merchant,MOCHIOTEA,"06  hoàng cầu mới, Phường Trung Liệt, Quận Đống Đa, Hà Nội, VIỆT NAM",mochiotea1,MOMO2ZFQ20180912,105.8280399,21.0195763,Mass Merchant
1389,7990772444239018337,6956116996495761738,Mass Merchant,K' Street,"186 Thượng Đình, Phường Thượng Đình, Quận Thanh Xuân, Hà Nội, VIỆT NAM",K' Street,"186 Thượng Đình, Phường Thượng Đình, Quận Thanh Xuân, Hà Nội, VIỆT NAM",106.7354388,10.8039011,Mass Merchant
1391,7341550893129842017,5572415374417418023,Coffee chains and Milk tea,The Coffee House,"223 Võ Văn Tần, Quận 3, HCM",The Coffee House Nguyễn Thái Bình,"141 Nguyễn Thái Bình, P.Nguyễn Thái Bình, Q.1, Thành Phố Hồ Chí Minh, Việt Nam",,,Cafe
1451,7741555901284673889,19357953563296344,Shopping,Robins_4F,"101 Tôn Dật Tiên, P.Tân Phú, Quận 7",24600001,MOMOI1UA20180321,,,Shopping
1459,5494030965430035042,797527916232973901,Coffee chains and Milk tea,YiFang Taiwan Fruit Tea- Vinhome Gardenia ,"20B2 Hàm Nghi, Phường Mỹ Đình 2, Quận Nam Từ Liêm, Hà Nội, VIỆT NAM",yfvinhome,MOMO8OXB20180917,105.8247237,21.0073828,Cafe
1493,1331731186241134178,1162553298642968027,CVS,Sakuko Hàng Bông,"169-171 Hàng Bông, Phường Đồng Xuân, Quận Hoàn Kiếm, Hà Nội, VIỆT NAM",sakukohangbong,MOMOGALC20180927,106.7159087,10.7394252,CVS
1519,8859522645926176354,7683226859607760500,Mass Merchant,LALY CAFE,"3 Huỳnh Khương Ninh, Phường Đa Kao, Quận 1, Thành Phố Hồ Chí Minh, VIỆT NAM",lalycafe1,MOMOTMJO20181027,106.6988949,10.750397,Mass Merchant
1520,5628731143176480866,3272322233711955839,Mass Merchant,Foglian Coffee,"56/298 Tây Sơn, Phường Ngã Tư Sở, Quận Đống Đa, Hà Nội, VIỆT NAM",foglian123,MOMO6OBX20181128,,,Mass Merchant
1522,4669683755001151843,6526931032128504107,Mass Merchant,CÔNG TY CỔ PHẦN KAI LIFE,"766A/45 Lạc Long Quân, Phường 9, Quận Tân Bình, Thành Phố Hồ Chí Minh, VIỆT NAM",Kofi Kai Coffee - Lê Văn Lương (2),"329 Lê Văn Lương, Phường Tân Quy, Quận 7, Thành Phố Hồ Chí Minh, VIỆT NAM",105.8272326,21.0332222,Mass Merchant
1528,5040215113118185315,5665382559675080458,Mass Merchant,HỘ KINH DOANH MỘT CHÍN TÁM NĂM.,"200 TÔ HIẾN THÀNH, Phường 15, Quận 10, Thành Phố Hồ Chí Minh, VIỆT NAM",the1985123,MOMOO63H20180817,105.789865,21.035104,Mass Merchant
1530,1567068929703954020,4155591300165413276,Restaurant,Al Fresco's Nguyễn Thị Nghĩa,"16 Nguyễn Thị Nghĩa, Phường Bến Thành, Quận 1, Thành Phố Hồ Chí Minh, VIỆT NAM",alfresco16ntn,MOMOO89U20180611,106.6638401,10.7760732,western
1545,7388968636509119332,1343496556602868944,Restaurant,CÔNG TY CP ĐẦU TƯ TM VÀ DV SHC VIỆT NAM,"Số 4, Biệt thự 6A khu đô thị Mỹ Đình II, Phường Mỹ Đình 1, Quận Nam Từ Liêm, Hà Nội, VIỆT NAM",Hotto Vincom Thủ Đức,"Lầu 3, TTTM Vincom Plaza Thủ Đức 216 Võ Văn Ngân, Phường Bình Thọ, Quận Thủ Đức, Thành Phố Hồ Chí Minh, VIỆT NAM",106.71910590000002,10.8033703,japanese
1557,3505676199538325604,2635411458315399525,Mass Merchant,HOLIMIX COFFEE,"24 Hoàng Cầu, Phường Ô Chợ Dừa, Quận Đống Đa, Hà Nội, VIỆT NAM",Holimix coffee 1,"24 Hoàng Cầu, Phường Ô Chợ Dừa, Quận Đống Đa, Hà Nội, VIỆT NAM",105.7852539,21.055724800000004,Mass Merchant
1559,277971958366605925,5645100609101520514,Mass Merchant,HỘ KINH DOANH CHEESE LAB,"288 (tầng trệt) Nguyễn Thị Minh Khai, Phường 6, Quận 3, Thành Phố Hồ Chí Minh, VIỆT NAM",Cheese Lab,"228 (tầng trệt) Nguyễn Thị Minh Khai, Phường 6, Quận 3, Thành Phố Hồ Chí Minh, VIỆT NAM",,,Mass Merchant
1561,6380751752406010726,4031595511915344327,Mass Merchant,Bánh Kếp Viet Crepe 1,"1 Tràng Thi, Phường Hàng Bông, Quận Hoàn Kiếm, Hà Nội, VIỆT NAM",banhkepviet1,MOMOLKEH20181111,105.8212871,21.0109225,Mass Merchant
1562,255344331244246119,4222945562580677981,Coffee chains and Milk tea,Gong Cha Cần Thơ,"P1-03, Vincom Center Cần Thơ, Số 209 30/4, Phường Xuân Khánh, Quận Ninh Kiều, Cần Thơ, VIỆT NAM",2682,MOMOTUDK20181030,105.803128,20.998648,Cafe
1568,2180187955578894951,6852567407129605020,Coffee chains and Milk tea,CÔNG TY TNHH BÁNH NGỌT CJ VIỆT NAM,"Lầu 14, Tòa nhà CJ, số 2Bis-4-6 Lê Thánh Tôn, Phường Bến Nghé, Quận 1, Thành Phố Hồ Chí Minh, VIỆT NAM",Tous les Jours - IPH," Indochina Plaza, 241 Xuân Thủy, Phường Dịch Vọng Hậu, Quận Cầu Giấy, Hà Nội, VIỆT NAM",108.0618976,12.6921811,Cafe
1588,2924970720588960871,3798427279734602580,Mass Merchant,Chew tea,"số 7 B4 ngõ 201 trần quốc hoàn, Phường Dịch Vọng, Quận Cầu Giấy, Hà Nội, VIỆT NAM", Chew tea,"7B4 Trần Quốc Hoàn, Phường Dịch Vọng, Quận Cầu Giấy, Hà Nội, VIỆT NAM",106.6564931,10.7543646,Mass Merchant
1590,9105773273715501159,3451600018671449858,Mass Merchant,CÔNG TY TNHH MTV THỰC PHẨM SAIGON CO.OP,"199-205 Nguyễn Thái Học, Phường Phạm Ngũ Lão, Quận 1, Thành Phố Hồ Chí Minh, VIỆT NAM",COOP FOOD NGUYỄN CỬU ĐÀM,"16 Nguyễn Cửu Đàm, Phường Tân Sơn Nhì, Quận Tân Phú, Thành Phố Hồ Chí Minh, VIỆT NAM",106.7184008,10.794053300000002,Mass Merchant
1660,7270982136367221864,4307102106283250202,Mass Merchant,Công ty TNHH Thương Mại Dịch Vụ Sản Xuất Hoa Hướng Dương,"116 Võ Thành Trang, Phường 11, Quận Tân Bình, Thành Phố Hồ Chí Minh, VIỆT NAM",Hoa Hướng Dương - Bành Văn Trân,"141 Bành Văn Trân, Phường 7, Quận Tân Bình, Thành Phố Hồ Chí Minh, VIỆT NAM",105.4408155,10.376561,Mass Merchant
1674,7261616585863472745,1844753641980859244,Fast food,CÔNG TY CỔ PHẦN SOYA GARDEN,"19 Hoa Bằng, Phường Yên Hoà, Quận Cầu Giấy, Hà Nội, VIỆT NAM",Soya Garden - Mỹ Đình Plaza 2,"2  Nguyễn Hoàng, Xã Mỹ Đình, Huyện Từ Liêm, Hà Nội, VIỆT NAM",106.6831489,10.781295,Fast food
1697,4151212544567892073,5228200351794564086,CVS,Circle K Mobay,"Số 1 Lô A6, Khu đô thị mới phía đông Hòn Cặp Bè, tổ 4, khu 4A, Phường Hồng Hải, Thành phố Hạ Long, Tỉnh Quảng Ninh, VIỆT NAM",4001,MOMOJ9KX20190419,,,CVS
1699,745531510797296233,2117196657926399299,Mass Merchant,Bún Chả Tùng Lâm.,"84 Trương Quyền, Phường 6, Quận 3, Thành Phố Hồ Chí Minh, VIỆT NAM",bunchatunglam123,MOMO7GPO20181015,,,Mass Merchant
1701,750556993121044330,1659216208796894485,Mass Merchant,TRÀ SỮA AUNTIE KIM 3/2 Q10,"643 3/2, Phường 6, Quận 10, Thành Phố Hồ Chí Minh, VIỆT NAM",trasuaauntiekim123,MOMOBZFQ20180726,105.8473777,21.041797100000004,Mass Merchant
1703,1136811934461115501,2587955115655920034,Mass Merchant,CAFE LEO,"487/57 Huỳnh Tấn Phát, Phường Tân Thuận Đông, Quận 7, Thành Phố Hồ Chí Minh, VIỆT NAM",cafeleo39123,MOMOHTOC20181116,,,Mass Merchant
1704,5610008375107306861,3815338996251656287,Fast food,PastaMania Vạn Hạnh Mall,"GH 6-17, Tầng 6, Tòa nhà TTTM Vạn hạnh, Số 11 Sư Vạn Hạnh, Phường 12, Quận 10, Thành Phố Hồ Chí Minh, VIỆT NAM",17,MOMOO8QJ20180621,106.7301213,10.738098,Fast food
1734,2943732258825304685,3803059903881046546,Mass Merchant,Công Ty TNHH TMDV Vườn Rau Chấm Com,"14B Đinh Tiên Hoàng, Phường Đa Kao, Quận 1, Thành Phố Hồ Chí Minh, VIỆT NAM",Công Ty tnhh tmdv Vườn Rau Chấm Com,"14B Đinh Tiên Hoàng, Phường Đa Kao, Quận 1, Thành Phố Hồ Chí Minh, VIỆT NAM",106.4055173,10.537497300000002,Mass Merchant
1736,1366486654528010094,528739887900839461,Mass Merchant,Discovery Corners Coffee,"115/3  Võ Thị Sáu, Phường 6, Quận 3, Thành Phố Hồ Chí Minh, VIỆT NAM",dcvrcncoffee123,MOMO34KQ20180517,105.847845,21.017747,Mass Merchant
1738,5712902886229892718,1556050612871301245,Coffee chains and Milk tea,Hộ kinh doanh Huy Tiến,"Lô G-25 tầng trệt, Trung tâm mua sắm Aeon Mall Khu phố Bình Giao, Phường Thuận Giao, Thị xã Thuận An, Bình Dương, VIỆT NAM",Gong Cha Aeon Mall Bình Dương,"1 Đại lộ Bình Dương, Khu 12, Phường Chánh Nghĩa, Thành phố Thủ Dầu Một, Bình Dương, VIỆT NAM",106.669539,10.781122,Cafe
1742,2099591234867156590,6779958339236330195,Mass Merchant,ĐÈN BẦU COFFEE,"2 Phú Thuận, Phường Tân Phú, Quận 7, Thành Phố Hồ Chí Minh, VIỆT NAM",denbaucoffee123,MOMOPBIY20181123,106.7889713,,Mass Merchant
1744,6778625465845016942,8255610362200108661,Restaurant,Công Ty Cổ Phần Alfresco's Á Châu,"23L Hai Bà Trưng, Phường Đồng Xuân, Quận Hoàn Kiếm, Hà Nội, VIỆT NAM",Al Fresco's Vincom Nguyễn Chí Thanh,"54 Nguyễn  Chí  Thanh, Phường Láng Hạ, Quận Đống Đa, Hà Nội, VIỆT NAM",105.835541,21.005069,western
1762,4997437366315911536,2698729111385843262,Mass Merchant,Khay Coffee,"13 Hàng Khay, Phường Hàng Bài, Quận Hoàn Kiếm, Hà Nội, VIỆT NAM",Khay Coffee,"13 Hàng Khay, Phường Hàng Bài, Quận Hoàn Kiếm, Hà Nội, VIỆT NAM",106.6698416,10.7713435,Mass Merchant
1764,4541714328833055088,5972554838244765624,Mass Merchant,QUÁN MÓN HUẾ,"35 Nguyễn Chí Thanh, Phường Ngọc Khánh, Quận Ba Đình, Hà Nội, VIỆT NAM",monhue123,MOMO5ERU20180819,,,Mass Merchant
1765,8602654454042294128,3673558303488156121,Mass Merchant,Delithy,"21 Ngõ Thái Hà Thái Hà, Phường Láng Hạ, Quận Đống Đa, Hà Nội, VIỆT NAM",delithy123,MOMOJZ9520180820,,,Mass Merchant
1766,9028382462624110704,2621838759340030614,Mass Merchant,CO PORT,"163/24/69 Tô Hiến Thành, Phường 13, Quận 10, Thành Phố Hồ Chí Minh, VIỆT NAM",CO PORT,"163/24/69 Tô Hiến Thành, Phường 13, Quận 10, Thành Phố Hồ Chí Minh, VIỆT NAM",106.7098832,10.740476199999998,Mass Merchant
1768,3855088784381494128,2101146520398305880,Mass Merchant,AA Stop & Shop,"53A Hồ Xuân Hương, Phường 6, Quận 3, Thành Phố Hồ Chí Minh, VIỆT NAM",aastopshop123,MOMO5QQ320181018,,,Mass Merchant
1770,3939716487280444528,6866875735863883662,Mass Merchant,HỘ KINH DOANH CAFE BERNARD,"2 Nguyễn Sơn Hà, Phường 5, Quận 3, Thành Phố Hồ Chí Minh, VIỆT NAM",cafebernard123,"2 Nguyễn Sơn Hà, Phường 5, Quận 3, Thành Phố Hồ Chí Minh, VIỆT NAM",105.813635,21.020796,Mass Merchant
1772,1551153095406971249,6627542588881041718,Mass Merchant,Nem nộm trường tâm,"105A5 tập thể Thành Công, Phường Thành Công, Quận Ba Đình, Hà Nội, VIỆT NAM",Nem nộm trường tâm 1,"105A5 tập thể  Thành Công, Phường Thành Công, Quận Ba Đình, Hà Nội, VIỆT NAM",105.8295687,21.0025042,Mass Merchant
1774,70962159902343026,2584439814501730449,Mass Merchant,CHÈ NGON BÉ CHUN 1,"68 Nguyễn Chí Thanh, Phường Láng Thượng, Quận Đống Đa, Hà Nội, VIỆT NAM",chebechun1,MOMO9GGL20181017,106.686734,10.767837,Mass Merchant
1776,6889877656216293490,5009481075780179864,Mass Merchant,CÔNG TY TNHH O'DOUCEURS VIỆT NAM,"Số 91A Trần Hưng Đạo, Phường Cửa Nam, Quận Hoàn Kiếm, Hà Nội, VIỆT NAM",O'Douceurs Bakery,"8 Phan Chu Trinh, Tràng Tiền, Hoàn Kiếm, Hà Nội, Việt Nam",,,Mass Merchant
1778,7697129851354317938,7944763912293615324,Mass Merchant,Nộm Gia Truyền Hoa Mai,"111A5 Thành Công, Phường Thành Công, Quận Ba Đình, Hà Nội, VIỆT NAM",nomgiatruyen1,MOMO2DWX20181018,105.830741,21.0052117,Mass Merchant
1780,4384392302835307890,321509516047034441,Mass Merchant,SHOWROOM TRÀ VIỆT - HCM,"278C Nam Kỳ Khởi Nghĩa, Phường 8, Quận 3, Thành Phố Hồ Chí Minh, VIỆT NAM",traviethcm,MOMO4SAK20181204,106.6945676,10.7676226,Mass Merchant
1781,6624136956482465650,2649602796964412598,Mass Merchant,vivastar99dt1,"99 Đất Thánh, Phường 6, Quận Tân Bình, Thành Phố Hồ Chí Minh, VIỆT NAM",vivastar99dt1,MOMOUH4E20181220,,,Mass Merchant
1785,6949141615268452466,1410090508832271433,Mass Merchant,Trà Sữa T - CAT,"3 Ngõ 3 Thái Hà, Phường Trung Liệt, Quận Đống Đa, Hà Nội, VIỆT NAM",Trà Sữa T - CAT,"Số 3 Ngõ 3  Thái Hà, Phường Trung Liệt, Quận Đống Đa, Hà Nội, VIỆT NAM",106.6883616,10.7983624,Mass Merchant
1787,7456266269222559602,3919938617765685815,Mass Merchant,THE HANGOVER COFFEE,"12 khu City Land Park Hill Số 7, Phường 10, Quận Gò Vấp, Thành Phố Hồ Chí Minh, VIỆT NAM",thehanggovercoffee1,MOMOAMRA20181108,105.794353,20.9799967,Mass Merchant
1788,5809869629066114418,1306959222625599753,Mass Merchant,MÌ VỊT TIỀM YAU CHAN,"Quầy 43-44-45 Asian Food Town, Số 4 Phạm Ngũ Lão, Phường Phạm Ngũ Lão, Quận 1, Thành Phố Hồ Chí Minh, VIỆT NAM",MÌ VỊT TIỀM YAUCHAN,"Quầy 43-44-45, Asian Food Town,số 4 PHẠM NGŨ LÃO, Phường Phạm Ngũ Lão, Quận 1, Thành Phố Hồ Chí Minh, VIỆT NAM",105.8096055,21.0197185,Mass Merchant
1790,4942158102627391859,6592247188127906713,Shopping,Công ty Cổ phần thế giới Phụ nữ,"25 Tôn Đản, phường 13, Quận 4, Hồ Chí Minh, Việt Nam",iBasic - CH CMT8,"1085 Cách Mạng Tháng 8, phường 7, Tân Bình, Hồ Chí Minh, Việt Nam",,,Shopping
1813,7600788770474338163,6695332988616626134,Mass Merchant,MR-9 COFFEE ,"284/4 Lý Thường Kiệt, Phường 15, Quận 10, Thành Phố Hồ Chí Minh, VIỆT NAM",mr9coffee123,MOMONY8J20180628,,,Mass Merchant
1814,2174143209820598132,1688849133052243345,Mass Merchant,WE' SCORNER COFFEE123,"1/3 pasteur, Phường Nguyễn Thái Bình, Quận 1, Thành Phố Hồ Chí Minh, VIỆT NAM",wesornercoffee123,MOMO0R6620181017,,,Mass Merchant
1816,5200059340788794229,8292835704955799289,Mass Merchant,CÔNG TY TNHH MỘT THÀNH VIÊN CƠM TẤM THUẬN KIỀU,"137A-137B Thuận Kiều, Phường 4, Quận 11, Thành Phố Hồ Chí Minh, VIỆT NAM",CƠM TẤM THUẬN KIỀU,"52 Đặng Đức Thuật, Phường Tân Phong, Quận 7, Thành Phố Hồ Chí Minh, VIỆT NAM",105.8235602,21.0080319,Mass Merchant
1818,6285984312526878581,1148568050051663237,Mass Merchant,Hộ Kinh Doanh Phạm Huỳnh Như,"33B Lương Hữu Khánh, Phường Phạm Ngũ Lão, Quận 1, Thành Phố Hồ Chí Minh, VIỆT NAM",Nước Ép Trái Cây Như,"33B Lương Hữu Khánh, Phường Phạm Ngũ Lão, Quận 1, Thành Phố Hồ Chí Minh, VIỆT NAM",106.7382072,,Mass Merchant
1820,8381598467327647093,9086031210379574120,Mass Merchant,Grand Coffee,"436 Tây Sơn, Phường Ngã Tư Sở, Quận Đống Đa, Hà Nội, VIỆT NAM",grandcoffee1,MOMOBUMI20181113,,,Mass Merchant
1822,5254081703095251062,7482245785404659337,Mass Merchant,CÔNG TY CỔ PHẦN THỂ THAO BOOTH,"163 Phan Đăng Lưu, Phường 1, Quận Phú Nhuận, Thành Phố Hồ Chí Minh, VIỆT NAM",NEW BALANCE NGUYỄN TRÃI,"30 Nguyễn Trãi, Phường Bến Thành, Quận 1, Thành Phố Hồ Chí Minh, VIỆT NAM",106.69378600000002,10.770397,Mass Merchant
1844,5838998140969323638,727192585203919074,Mass Merchant,MR CAKE THÀNH THÁI,"150 Thành Thái, Phường 12, Quận 10, Thành Phố Hồ Chí Minh, VIỆT NAM",mrcake123,MOMOOWOG20180629,106.672318,10.816609,Mass Merchant
1846,5026386084788898935,6635662009264066696,Mass Merchant,CÔNG TY TNHH THƯƠNG MẠI XNK TRẦN LÊ GIA,"75-77 HỒ TÙNG MẬU, Phường Bến Nghé, Quận 1, Thành Phố Hồ Chí Minh, VIỆT NAM",Uncle Lu's Cheesecake ,"652 SƯ VẠN HẠNH, Phường 12, Quận 10, Thành Phố Hồ Chí Minh, VIỆT NAM",106.7185184,10.791044,Mass Merchant
1848,6206751151934350967,5530360891257805027,Mass Merchant,Thế Giới Giày Patin Bình Thạnh,"44 Đinh Bộ Lĩnh, Phường 26, Quận Bình Thạnh, Thành Phố Hồ Chí Minh, VIỆT NAM",giaypatin8,MOMOZILA20181224,105.8005578,21.020623800000006,Mass Merchant
1852,1824675286297828983,8728804612483168181,Mass Merchant,VIVO COFFEE & TEA,"35B Trần Đình Xu, Phường Cầu Kho, Quận 1, Thành Phố Hồ Chí Minh, VIỆT NAM",vivocoffeeandtea1,MOMOXHLI20180724,105.833735,21.00766,Mass Merchant
1853,3925253927268147576,793766451503370943,Mass Merchant,Go Green Shop,"385A Cách Mạng Tháng Tám, Phường 13, Quận 10, Thành Phố Hồ Chí Minh, VIỆT NAM",gogreenshop123,MOMOHN9F20180717,106.703569,106.703569,Mass Merchant
1855,7162169384463203448,1007173768848530060,Coffee chains and Milk tea,Chewy - Vincom Q1,"TTTM Vincom Center Đồng Khởi, 72 Lê Thánh Tôn,",vincomq1,MOMOE7HZ20180416,105.856409,21.01975,Cafe
1878,7662962602693264504,2038434822275087547,Mass Merchant,CÔNG TY CỔ PHẦN ẨM THỰC CUỐN VIỆT,"134/1 CÁCH MẠNG THÁNG 8, Phường 10, Quận 3, Thành Phố Hồ Chí Minh, VIỆT NAM",CUỐN VÀ CHẤM,"93 BIS NGUYỄN ÁNH THỦ, Phường Đa Kao, Quận 1, Thành Phố Hồ Chí Minh, VIỆT NAM",,,Mass Merchant
1884,4496785069188293497,1820780391583556734,Coffee chains and Milk tea,Gongcha Bình Minh,"03 Lý Thường Kiệt, Phường Chánh Nghĩa, Thành phố Thủ Dầu Một, Bình Dương, VIỆT NAM",7921,MOMOWKFR20181220,105.8012803,21.0274603,Cafe
1888,79592222281026681,5416858617769778681,Mass Merchant,Bánh Mì Thổ Nhĩ Kì - Thành Thái,"7/27 Thành Thái, Phường 14, Quận 10, Thành Phố Hồ Chí Minh, VIỆT NAM",banhmithonhiki123,MOMOEBPE20180521,106.631312,10.843399,Mass Merchant
1890,5118073894352076666,6894633298831679673,Mass Merchant,MICHI SUSHI,"42/73 NGUYỄN HUỆ, Phường Bến Nghé, Quận 1, Thành Phố Hồ Chí Minh, VIỆT NAM",michisushi123,MOMOR39H20180922,105.847106,21.036848000000006,Mass Merchant
1892,5035507415958505338,7666121133643019814,Mass Merchant,Cafe Muối,"12 Tông Đản, Phường Tràng Tiền, Quận Hoàn Kiếm, Hà Nội, VIỆT NAM",Cafe Muối,"12 Tông Đản, Phường Tràng Tiền, Quận Hoàn Kiếm, Hà Nội, VIỆT NAM",105.8034146,21.0129866,Mass Merchant
1896,6861326911902337402,7292074286939663321,Mass Merchant,Sakura Sou Japan1,"4 Vũ Ngọc Phan, Phường Láng Hạ, Quận Đống Đa, Hà Nội, VIỆT NAM",sakurasou1,MOMOCADR20181020,,,Mass Merchant
1898,576006017123449210,7123867235111098515,Mass Merchant,Bánh Mỳ Ánh Tuyết,"Số 89 Chùa Láng, Phường Láng Thượng, Quận Đống Đa, Hà Nội, VIỆT NAM",banhmyanhtuyet1,MOMOSJVT20180922,105.8256127,21.0268193,Mass Merchant
1899,4916269759642439546,2914861425243916000,Mass Merchant,Kimmy's Chocolate Hà Nội,"29A Nguyễn Chí Thanh, Phường Ngọc Khánh, Quận Ba Đình, Hà Nội, VIỆT NAM",chocolate1,MOMOFK9R20181017,105.8002603,21.0050001,Mass Merchant
1900,6982231443388607098,7919842707502225554,Mass Merchant,FRUITSDAY 1,"63 Nguyễn Du, Phường Nguyễn Du, Quận Hai Bà Trưng, Hà Nội, VIỆT NAM",fruitsday1,MOMOHONQ20181219,106.666499,10.775634,Mass Merchant
1902,5976334042179721339,7419461700271472011,CVS,MARUMART Xuân Diệu,"170A  Xuân Diệu, Phường Quảng An, Quận Tây Hồ, Hà Nội, VIỆT NAM",marumartxd,MOMODZMO20180725,106.6690739,10.7728379,CVS
1906,5070526498254742907,3755352763367819636,Coffee chains and Milk tea,Hộ kinh doanh Phùng Thị Kim,"311 Đại Lộ Bình Dương, tổ 6 khu 12, Phường Chánh Nghĩa, Thành phố Thủ Dầu Một, Bình Dương, VIỆT NAM",Gong Cha Thủ Dầu Một,"309A-311 Đại Lộ Bình Dương, khu 12, Phường Chánh Nghĩa, Thành phố Thủ Dầu Một, Bình Dương, VIỆT NAM",106.7042202,10.7428169,Cafe
1910,6573947514783036540,82578457097144261,Coffee chains and Milk tea,Công Ty CP Những Hạt Cà Phê Nói Chuyện,"29 ngõ 93 phố Vũ Hữu  Khuất Duy Tiến, Phường Thanh Xuân Bắc, Quận Thanh Xuân, Hà Nội, VIỆT NAM",TWTTER BEANS COFFEE  VIEA,"Tầng 1 Tòa Nhà Việt Á Duy Tân, Phường Dịch Vọng Hậu, Quận Cầu Giấy, Hà Nội, VIỆT NAM",105.8177603,21.0178692,Cafe
1932,3057450306757234300,6802926512652084614,Mass Merchant,NHÀ HÀNG CHAY AMITABA 2 ,"180 NGUYỄN DUY DƯƠNG, Phường 6, Quận 10, Thành Phố Hồ Chí Minh, VIỆT NAM",nhahangamitaba2,MOMOLT1F20180625,106.685556,10.797673,Mass Merchant
1936,9039492385198365820,3964770485518013618,Mass Merchant,Trà sữa Earl Tea,"684  Sư Vạn Hạnh, Phường 12, Quận 10, Thành Phố Hồ Chí Minh, VIỆT NAM",Trà sữa Earl Tea 684 Sư Vạn Hạnh,"684  Sư Vạn Hạnh, Phường 12, Quận 10, Thành Phố Hồ Chí Minh, VIỆT NAM",106.718398,10.800435,Mass Merchant
1938,7310160001796817277,8112081339749365455,Coffee chains and Milk tea,Đen Đá Coffee Hàm Nghi,"96 Hàm Nghi, Phường Bến Nghé, Quận 1",dendahamnghi,MOMOJFH320180124,,,Cafe
1952,8714321951742318973,6423548506403559240,CVS,CÔNG TY CỔ PHẦN VIỆT NAM KỸ NGHỆ SÚC SẢN,"420   Nơ Trang Long, Phường 13, Quận Bình Thạnh, Thành Phố Hồ Chí Minh, VIỆT NAM",Vissan Tân Mỹ,"52 DS1, Khu Phố 2, Phường Tân Phú, Quận 7, Thành Phố Hồ Chí Minh, VIỆT NAM",105.9163423,21.0509866,CVS
1972,7466808126828574845,7557724901711340218,Shopping,Robinson Department Store   4,Tầng hầm B1 - R6 Royal City số 72A Nguyễn Trãi - Thanh Xuân - Hà Nội,robins4,MOMOSSR020180418,105.849145,21.03579,Shopping
1980,617717190676253054,2754781372262471946,Mass Merchant,TRÀ SỮA MẸ TÔI - 266 NGÔ QUYỀN,"266 Ngô Quyền, Phường 8, Quận 10, Thành Phố Hồ Chí Minh, VIỆT NAM",trasuametoi123,MOMODU6A20181012,106.7034814,10.7722361,Mass Merchant
1984,7398373044743834494,8020769648294868219,Mass Merchant,Hestia Coffee & Milktea 378 Võ Văn Tần,"378 Võ Văn Tần, Phường 5, Quận 3, Thành Phố Hồ Chí Minh, VIỆT NAM",hestiacoffee1,MOMOBMB820180516,106.6909415,10.768458099999998,Mass Merchant
1986,7500926462320676222,3501996610961220535,Mass Merchant,ViVa Star Coffee Bella,"163/21 Tô Hiến Thành, Phường 13, Quận 10, Thành Phố Hồ Chí Minh, VIỆT NAM",ViVa Star Coffee T.Bella,"163/21 Tô Hiến Thành, Phường 13, Quận 10, Thành Phố Hồ Chí Minh, VIỆT NAM",106.759734,10.851021,Mass Merchant
1988,8491476075117990270,514572088156613131,Mass Merchant,NHÀ HÀNG CHẢO,"72/2 Trần Quốc Toản, Phường 8, Quận 3, Thành Phố Hồ Chí Minh, VIỆT NAM",nhahangchao,MOMOIVUE20181117,106.6832475,10.7605286,Mass Merchant
1992,6596477224139237248,8148835862195434640,Mass Merchant,Royal Tea 111 Nguyễn Thái Học,"111 Nguyễn Thái Học, Phường Cầu Ông Lãnh, Quận 1, Thành Phố Hồ Chí Minh, VIỆT NAM",Royal Tea 111 Nguyễn Thái Học.,"111 Nguyễn Thái Học, Phường Cầu Ông Lãnh, Quận 1, Thành Phố Hồ Chí Minh, VIỆT NAM",106.6785232,10.755982,Mass Merchant
1994,5730064122938835840,1777381507715177019,Mass Merchant,SUSHI CÔ CHỦ NHỎ,"543 Nguyễn Tri Phương, Phường 8, Quận 10, Thành Phố Hồ Chí Minh, VIỆT NAM",SUSHI CÔ CHỦ NHỎ 543 NGUYỄN TRI PHƯƠNG Q10,"543 Nguyễn Tri Phương, Phường 8, Quận 10, Thành Phố Hồ Chí Minh, VIỆT NAM",106.67261,10.7743405,Mass Merchant
1996,1296318385548951681,1104566157406337084,Mass Merchant,CAFE LINH,"20/91 Nguyễn Chí Thanh, Phường Láng Hạ, Quận Đống Đa, Hà Nội, VIỆT NAM",cafelinh123,MOMOQHKA20180916,105.936939,21.0067083,Mass Merchant
1997,2272495289021830529,4417043687094158257,Mass Merchant,BÚN QUẬY PHÚ QUỐC,"210 Nguyễn Tri Phương, Phường 3, Quận 10, Thành Phố Hồ Chí Minh, VIỆT NAM",BÚN QUẬY PHÚ QUỐC - 210 NGUYỄN TRI PHƯƠNG,"210 Nguyễn Tri Phương, Phường 4, Quận 10, Thành Phố Hồ Chí Minh, VIỆT NAM",105.801179,21.0234959,Mass Merchant
2001,4723008963296772225,5086177688613037699,Mass Merchant,Cửa Hàng Phớ Đê,"14 Chùa Láng, Phường Láng Thượng, Quận Đống Đa, Hà Nội, VIỆT NAM",Cửa Hàng Phớ Phớ Đê,"14 Chùa Láng, Phường Láng Thượng, Quận Đống Đa, Hà Nội, VIỆT NAM",106.6669113,,Mass Merchant
2003,4843476092800105345,4719313531664228060,Mass Merchant,THE LAMBOO,"339D NGUYỄN CẢNH CHÂN, Phường Cầu Kho, Quận 1, Thành Phố Hồ Chí Minh, VIỆT NAM",thelamboo123,MOMO9LOY20181029,,,Mass Merchant
2004,4122517681616110465,1026740595764670968,Mass Merchant,LIDER STORE,"42/22E Tôn Thất Thiệp, Phường Bến Nghé, Quận 1, Thành Phố Hồ Chí Minh, VIỆT NAM",LIDER STORE,"42/22E Tôn Thất Thiệp, Phường Bến Nghé, Quận 1, Thành Phố Hồ Chí Minh, VIỆT NAM",,,Mass Merchant
2006,9131182526470956674,8067473629658887135,Mass Merchant,Cafe Cú,"935 trường sa, Phường 11, Quận 3, Thành Phố Hồ Chí Minh, VIỆT NAM",coffeecu,MOMOWIAP20180928,,,Mass Merchant
2008,4730842644649314178,6428369174696209002,Mass Merchant,MR GOOD TEA,"212  Lê Trọng Tấn, Phường Khương Mai, Quận Thanh Xuân, Hà Nội, VIỆT NAM",MR GOODTEA,"212 Lê Trọng Tấn, Phường Khương Mai, Quận Thanh Xuân, Hà Nội, VIỆT NAM",,,Mass Merchant
2010,7810845149940257154,7211551983222665583,Mass Merchant,THỊT XIÊN NƯỚNG,"93 Chùa Láng, Phường Láng Thượng, Quận Đống Đa, Hà Nội, VIỆT NAM",thitxiennuong1,MOMORNJG20180820,,,Mass Merchant
2012,4900714096283263619,7041966293900325177,Mass Merchant,HỘ KINH DOANH FULI,"78 Nguyễn Công Trứ, Phường Nguyễn Thái Bình, Quận 1, Thành Phố Hồ Chí Minh, VIỆT NAM",HỘ KINH DOANH FULI,"78 Nguyễn Công Trứ, Phường Nguyễn Thái Bình, Quận 1, Thành Phố Hồ Chí Minh, VIỆT NAM",105.8273802,21.0204645,Mass Merchant
2014,3449906192629220227,5320293464710694828,Mass Merchant,SINH TỐ TỶ MUỘI 1,"606/7 3 Tháng 2, Phường 14, Quận 10, Thành Phố Hồ Chí Minh, VIỆT NAM",sinhtotymuoi1,MOMOBYCV20181031,106.668848,10.799337,Mass Merchant
2016,1847605581805649539,2893637834008026087,Mass Merchant,HỘ KINH DOANH NGUYỄN MẠNH HÙNG 4,"65 Hồ Xuân Hương, Phường 6, Quận 3, Thành Phố Hồ Chí Minh, VIỆT NAM",gcoffeehung4,MOMOG3DU20181228,,,Mass Merchant
2020,7428433154130272132,2984451847169561859,Mass Merchant,XÔ VIẾT NGHỆ TĨNH,"235 Xô Viết Nghệ Tĩnh, Phường 17, Quận Bình Thạnh, Thành Phố Hồ Chí Minh, VIỆT NAM",vdl05,MOMOVAXD20180920,106.6689003,10.7567696,Mass Merchant
2022,1736427146273652356,556943538286508020,Mass Merchant,CÔNG TY TNHH MONICA,"ST-06 Khối Nhà E, Số 170 NGuyễn Lương Bằng, KP Riverside Residence, Phường Tân Phú, Quận 7, Thành Phố Hồ Chí Minh, VIỆT NAM",SHOP RIVERSIDE,"Shop ST-06 Nguyễn Lương Bằng, Phường Tân Phú, Quận 7, Thành Phố Hồ Chí Minh, VIỆT NAM",105.778211,21.015695,Mass Merchant
2028,4464845626820170629,656485539559523006,Mass Merchant,RYU CHA - SƯ VẠN HẠNH,"770 D Sư Vạn Hạnh, Phường 12, Quận 10, Thành Phố Hồ Chí Minh, VIỆT NAM",trasuaryucha2,MOMOUNAZ20181130,106.68714,10.773452,Mass Merchant
2032,3315835320223835013,891980960429512779,Coffee chains and Milk tea,Công Ty TNHH Golden Trust,"79 Hồ Tùng Mậu, Phường Bến Nghé, Quận 1, Thành Phố Hồ Chí Minh, VIỆT NAM",Gongcha Hồ Tùng Mậu 2,"89-91 Hồ Tùng Mậu, Phường Bến Nghé, Quận 1, Thành Phố Hồ Chí Minh, VIỆT NAM",,,Cafe
2057,2314655369686142597,2618304119995813659,Mass Merchant,Cháo Gia Truyền Thanh Tâm,"224c4 vĩnh hồ, Phường Ngã Tư Sở, Quận Đống Đa, Hà Nội, VIỆT NAM",chaothanhtam1,MOMODNGC20181021,105.8375562,21.0006548,Mass Merchant
2058,8203460032407458181,5534612987004759139,Mass Merchant,CÔNG TY TNHH ĐẦU TƯ VÀ PHÁT TRIỂN BẦU TRỜI XANH,"124 Đường Trần Não, Khu phố 2, phường Bình An, Quận 2, Hồ Chí Minh, Việt Nam",3Sạch 246 Nguyễn Đình Chiểu,"246 Nguyễn Đình Chiểu, Phường 6, Quận 3, Thành Phố Hồ Chí Minh, VIỆT NAM",106.689536,10.775142,Mass Merchant
2072,7893517503223296389,3517612937201446835,Mass Merchant,SỮA TƯƠI TRÂN CHÂU ĐƯỜNG ĐEN,"Số 1 Mai Văn Vĩnh, Phường Tân Kiểng, Quận 7, Thành Phố Hồ Chí Minh, VIỆT NAM",MANA BAKERY AND DRINKS,"số 171 đường 17, Phường Tân Quy, Quận 7, Thành Phố Hồ Chí Minh, VIỆT NAM",105.8506131,21.0147736,Mass Merchant
2082,4501300687807117702,5459631265268959169,Coffee chains and Milk tea,CÔNG TY TNHH MỸ THỰC HƯNG THỊNH,"Số 128 Tân Mai, Phường Tân Mai, Quận Hoàng Mai, Hà Nội",Feeling Tea 11 Thanh Niên,"11 Thanh Niên, Hà Nội",105.846416,21.033637,Cafe
2129,6612168424670571656,266982520814551598,Mass Merchant,HỘ KINH DOANH BÁNH SU QUE ,"03 Nguyễn Hữu Cầu, Phường Tân Định, Quận 1, Thành Phố Hồ Chí Minh, VIỆT NAM", BÁNH SU QUE-03 NGUYỄN HỮU CẦU,"3 Nguyễn Hữu Cầu, Phường Tân Định, Quận 1, Thành Phố Hồ Chí Minh, VIỆT NAM",,,Mass Merchant
2135,3651275696711946632,8962046739780845509,Mass Merchant,Nhà Hàng Cơm Bún Bò Huế,"G23 Huỳnh Thúc Kháng, Phường Láng Hạ, Quận Đống Đa, Hà Nội, VIỆT NAM",combunbohue1,MOMOHQCZ20181012,106.63381499999998,10.8075053,Mass Merchant
2137,3739863709641733769,6771889826250666679,Mass Merchant,TRÀ SỮA KUBIN,"35 Nguyễn Phúc Nguyên, Phường 10, Quận 3, Thành Phố Hồ Chí Minh, VIỆT NAM",tskubin123,MOMOHKD520181029,106.7290229,10.7466109,Mass Merchant
2139,3557087237674630794,6077081414689026247,Mass Merchant,PHỦI CAFE,"45 Thái Thịnh, Phường Trung Liệt, Quận Đống Đa, Hà Nội, VIỆT NAM",PHỦI CAFE,"45 Thái Thịnh, Phường Trung Liệt, Quận Đống Đa, Hà Nội, VIỆT NAM",,,Mass Merchant
2141,5145577884641562507,7697431996288600689,Mass Merchant,QUÁN ĂN GIA ĐÌNH,"41 Nguyễn Sơn Hà, Phường 5, Quận 3, HCM",quanangd123,MOMOKMM320180410,,,Mass Merchant
2143,3704863353937667980,3335060638004967054,Mass Merchant,Công ty Cổ Phần Thương Mại Và Dịch Vụ SBO Việt Nam,"11 Nhà H9, Tập thể trường Đại học Sư Phạm Hà Nội, Phường Dịch Vọng, Quận Cầu Giấy, Hà Nội, VIỆT NAM",Le Monde Steak - VINCOM BÀ TRIỆU,"GH - L5 - 01, Tòa A Vincom Center Bà Triệu,Lê Đại Hành, Hai Bà Trưng, Hà Nội",106.678196,10.76834,Mass Merchant
2153,7131454618245464461,2340467738035652881,Mass Merchant,CÀ PHÊ ANH,"39 Nguyễn Khắc Nhu, Phường Cô Giang, Quận 1, Thành Phố Hồ Chí Minh, VIỆT NAM",CÀ PHÊ ANH ,"39 Nguyễn Khắc Nhu, Phường Cô Giang, Quận 1, Thành Phố Hồ Chí Minh, VIỆT NAM",105.8120862,21.0268206,Mass Merchant
2155,1218391469448849037,7586200320179628920,Mass Merchant,CỬA HÀNG BÁNH MÌ SÀI GÒN - BURGERS VIETNAM,"Kiosque 144B chợ Tôn Thất Đạm, Phường Bến Nghé, Quận 1, Thành Phố Hồ Chí Minh, VIỆT NAM",BÁNH MÌ SÀI GÒN,"80 Pasteur, Bến Nghé, Quận 1, Hồ Chí Minh, Việt Nam",106.6733813,10.7624208,Mass Merchant
2159,3398611740160718989,3919889686402291073,Coffee chains and Milk tea,Công ty TNHH SXTM Phúc Long,"42/24 Đường 643 Tạ Quang Bửu, P.4, Q.8, TP HCM",Phúc Long Coffee & Tea House - 29 Ngô Đức kế						,"29 Ngô Đức Kế, Phường Bến Nghé, Quận 1, Thành Phố Hồ Chí Minh, VIỆT NAM",105.843568,21.029394,Cafe
2196,5314294513087666829,8603760113750011470,Fast food,CÔNG TY CỔ PHẦN OTOKE CHICKEN,"34-36-38 Trần Hưng Đạo, P. Phạm Ngũ Lão, Quận 1.",Otoké Đào Duy Từ,"31 Đào Duy Từ, Phường 5, Quận 10, Thành Phố Hồ Chí Minh, VIỆT NAM",105.85098700000002,21.031176,Fast food
2212,466473117467912334,5664965210231881350,Mass Merchant,Công ty TNHH Dịch Vụ Bình An Thiên,"98 Nguyễn Công Hoan, Phường 7, Quận Phú Nhuận, Thành Phố Hồ Chí Minh, VIỆT NAM",Fruit Station,"18  Đinh Tiên Hoàng, Phường Đa Kao, Quận 1, Thành Phố Hồ Chí Minh, VIỆT NAM",106.3620813,10.3605249,Mass Merchant
2214,8736972261938279055,8033090100392966550,Mass Merchant,MASTER TEA,"24B Lò Đúc, Phường Phạm Đình Hổ, Quận Hai Bà Trưng, Hà Nội, VIỆT NAM",Master Tea ( Trần Quốc Hoàn ),"Số 75 Trần Quốc Hoàn, Dịch Vọng Hậu, Cầu Giấy, Hà Nội",106.711,10.808181,Mass Merchant
2218,7909444155349751696,8039485590265402569,Mass Merchant,Bác Tôm,"11 Hoàng Văn Thái, Phường Khương Mai, Quận Thanh Xuân, Hà Nội, VIỆT NAM",chuoibactom1,MOMOXMCX20181225,,,Mass Merchant
2226,4187990291243504784,616367980582151984,Mass Merchant,TAKA TEA,"20 LÝ PHỤC MAN, Phường Bình Thuận, Quận 7, Thành Phố Hồ Chí Minh, VIỆT NAM",TAKA TEA LÝ PHỤC MAN,"20 LÝ PHỤC MAN, Phường Bình Thuận, Quận 7, Thành Phố Hồ Chí Minh, VIỆT NAM",106.6532273,10.8008811,Mass Merchant
2228,2984103659215844752,3624627031228045483,Mass Merchant,Tào phớ lụa,"4 ngõ Bà Triệu Bà Triệu, Phường Bùi Thị Xuân, Quận Hai Bà Trưng, Hà Nội, VIỆT NAM",TAOPHOLUA1,"số 4 Ngõ Bà Triệu Bà Triệu, Phường Cửa Nam, Quận Hoàn Kiếm, Hà Nội, VIỆT NAM",106.687313,10.783448,Mass Merchant
2230,4706569827812853649,6872515049355411954,Mass Merchant,THỰC PHẨM SẠCH GFOOD,"124 C1 Vĩnh Hồ, Phường Thịnh Quang, Quận Đống Đa, Hà Nội, VIỆT NAM",THỰC PHẨM SẠCH GFOOD,"124 C1 Vĩnh Hồ, Phường Thịnh Quang, Quận Đống Đa, Hà Nội, VIỆT NAM",105.8294848,21.0214807,Mass Merchant
2232,1108085817241120402,267971215539138849,Coffee chains and Milk tea,Gong Cha Đà Nẵng,"25-27-29 Nguyễn Văn Linh, Phường Hải Châu I, Quận Hải Châu, Đà Nẵng, VIỆT NAM",2229,MOMOWRTL20181030,106.6733813,10.7624208,Cafe
2236,1336715627616364946,2262582684493795198,Mass Merchant,AMA KAFÉ NGÔ TẤT TỐ,"14B5 Ngô Tất Tố, Phường 19, Quận Bình Thạnh, Thành Phố Hồ Chí Minh, VIỆT NAM",amakafe1123,MOMO8JAQ20180529,106.6656982,10.8130933,Mass Merchant
2238,1210324986589931922,3967982132141971063,Mass Merchant,THE ALLEY -CMT8,"409 CMT8, Phường 13, Quận 10, Thành Phố Hồ Chí Minh, VIỆT NAM",thealleycmt81,"409 Cmt8, Phường 13, Quận 10, Thành Phố Hồ Chí Minh, VIỆT NAM",105.868467,21.0091379,Mass Merchant
2240,2097810288464482195,8241259043969025566,Mass Merchant,LAHA COFFEE,"343	Điện Biên Phủ, Phường 4, Quận 3, TP.Hồ Chí Minh",Laha Coffee Phan Xích Long Quận Phú Nhuận,"259 Phan Xích Long, Phường 2, Quận Phú Nhuận, Thành Phố Hồ Chí Minh, VIỆT NAM",105.7888,21.032819,Mass Merchant
2260,1545673861537157524,836934722744571622,Mass Merchant,Bánh xxếp Hong Kong - SVH,"193 Sư Vạn Hạnh, Phường 9, Quận 10, Thành Phố Hồ Chí Minh, VIỆT NAM",banhxepsvh123,MOMO6BGS20180529,106.693239,10.763161,Mass Merchant
2262,3541717506902122133,6650537538557138503,Mass Merchant,Crepes K,"2/91 Chùa Láng, Phường Láng Thượng, Quận Đống Đa, Hà Nội, VIỆT NAM",crepesk123,MOMOGNFA20181024,105.7615252,,Mass Merchant
2263,1929318416976556438,10184776005018933,Supermarket,Công ty TNHH MTV Hội nhập phát triển Đông Hưng,"96 Cao Thắng, Phường 4, Quận 3, TPHCM, Việt Nam",AEON CITIMART NEW SÀI GÒN,"HAGL III, c/c New Sài Gòn, Nguyễn Hữu Thọ, H.Nhà Bè, TP.HCM",,,Supermarket
2306,6110808841565436310,5362114968104780903,Mass Merchant,Súp Cua Hoa,"106 Ô Chợ Dừa, Phường Ô Chợ Dừa, Quận Đống Đa, Hà Nội, VIỆT NAM",Súp Cua Hoa,"106 Ô Chợ Dừa, Phường Ô Chợ Dừa, Quận Đống Đa, Hà Nội, VIỆT NAM",,,Mass Merchant
2308,5350129378332776599,1499611372182685347,Coffee chains and Milk tea,CÔNG TY TNHH THƯƠNG MẠI QUỐC TẾ  VƯỢNG HÀ HỒ CHÍ MINH,"1B  HUỲNH KHÚC KHÁNG, Phường Bến Nghé, Quận 1, Thành Phố Hồ Chí Minh, VIỆT NAM",Sharetea Nguyễn Sơn,"69A Nguyễn Sơn, Phường Tân Quý, Quận Tân Phú, Thành Phố Hồ Chí Minh, VIỆT NAM",106.6962338,10.7732819,Cafe
2320,4664853655419287,4843709340688819480,Mass Merchant,SINH TỐ - NƯỚC ÉP - TRÀ SỮA - NHO XANH,"494 Ngô Gia Tự, Phường 4, Quận 10, Hồ Chí Minh",nhoxanh123,MOMOB0AH20180420,105.852857,21.03221,Mass Merchant
2322,1155562636157432983,3994337596133547636,Supermarket,Lotte SPEED L Phú Thọ,"968 3 tháng 2, Phường 15, Quận 11, Thành Phố Hồ Chí Minh, VIỆT NAM",01503,LOTTE_MART,,,Supermarket
2355,1913003655301945239,2462606415657323183,Shopping,Công ty TNHH DOLL EYES,"22-24 Hồ Tùng Mậu, Phường Nguyễn Thái Bình, Quận 1, Thành Phố Hồ Chí Minh, VIỆT NAM",Dolleyes Lê Văn Sỹ,"305 Lê Văn Sỹ, Phường 13, Quận 3, Thành Phố Hồ Chí Minh, VIỆT NAM",106.6639101,10.768887800000002,Shopping
2386,5051997657856298904,5725940404781346568,Restaurant,Công Ty TNHH Wang Wang Việt Nam,"Số 29 Bùi Huy Bích,Phường Hoàng Liệt,Quận Hoàng Mai,Thành Phố Hà Nội,Việt Nam",Công Ty TNHH Wang Wang Việt Nam,"Nhà B14 KĐT Pandora Số 53,Triều Khúc,Tân Triều,Thanh Trì,Hà Nội",,,bbq
2392,2679274209015806104,5225721030721520413,Mass Merchant,Cơm Tám Đại Dương,"4 ngõ 49 Vĩnh Hồ, Phường Ngã Tư Sở, Quận Đống Đa, Hà Nội, VIỆT NAM",comtamdaiduong1,MOMOFLO120181017,,,Mass Merchant
2393,7867067114832483993,698364295617003563,Mass Merchant,SNOW BINGS,"169 Nguyễn Cư Trinh, Phường Nguyễn Cư Trinh, Quận 1, Thành Phố Hồ Chí Minh, VIỆT NAM",snowbings169,MOMOY7CK20180830,106.701392,10.750724,Mass Merchant
2394,5903031011860056729,1040983175555689736,Coffee chains and Milk tea,Cheese Coffee Thành Thái,"154 Thành Thái, Phường 12, Quận 10, Thành Phố Hồ Chí Minh, VIỆT NAM",cchcmtt01,MOMOGYSM20181226,105.8487299,21.0291199,Cafe
2410,4470526277233866905,3704667948774262201,Mass Merchant,BĐ Ất Sửu,"95 Đinh Tiên Hoàng, Đa Kao, Quận 1, Hồ Chí Minh",bundauatsuu123,MOMOVSBX20180423,106.7041397,10.7746038,Mass Merchant
2412,6072842575474785945,5408985646046259413,Mass Merchant,Cơm Huệ,"152 Thụy Khuê, Yên Phụ, Quận Tây Hồ, Hà Nội, VIỆT NAM",comhue1,MOMOGNMZ20180928,,,Mass Merchant
2414,5987226984921572762,5492054632653505424,Mass Merchant,HỘ KINH DOANH HAPPY BABY SPA,"117 đường 23/10, Phường Phương Sơn, Tp.Nha Trang, Khánh Hòa",HAPPY BABY SPA,"117 Đường 23/10, Phường Phương Sơn, Thành phố Nha Trang, Khánh Hòa, VIỆT NAM",106.6786361,10.830605,Mass Merchant
2416,4700759708176429466,7461855809556310762,Mass Merchant,ẨM THỰC CHAY RAU CỦ QUẢ VEGETA,"684 ĐIỆN BIÊN PHỦ, Phường 10, Quận 10, Thành Phố Hồ Chí Minh, VIỆT NAM",ẨM THỰC CHAY VEGETA,"684 ĐIỆN BIÊN PHỦ, Phường 10, Quận 10, Thành Phố Hồ Chí Minh, VIỆT NAM",,,Mass Merchant
2418,1612603502379132058,6958922612265920635,Mass Merchant,CÔNG TY TNHH TRÀ SỮA THÙY TRANG,"11B Trần Cao Vân, Phường Đa Kao, Quận 1, Thành Phố Hồ Chí Minh, VIỆT NAM",THE ALLEY TRẦN CAO VÂN,"11B Trần Cao Vân, Phường Đa Kao, Quận 1, Thành Phố Hồ Chí Minh, VIỆT NAM",106.696404,10.766531,Mass Merchant
2420,2321309504684175259,8700246996364308488,Mass Merchant,Êmm Drink,"76 Tôn Thất Tùng, Phường Khương Thượng, Quận Đống Đa, Hà Nội, VIỆT NAM",emmdrink1,MOMOLDS020180917,105.86257,21.022506,Mass Merchant
2422,608997457753305243,8283696096952170531,Mass Merchant,Lẩu laksa,"1 ngõ 117 Thái hà, Phường Trung Liệt, Quận Đống Đa, Hà Nội, VIỆT NAM",laulaksa2,MOMOMNLL20181101,106.630247,10.781518,Mass Merchant
2424,2034451288005972123,8480123623745918858,Mass Merchant,CÀ PHÊ MILANO HIMLAM.,"B5 Đường 4D KDC Him Lam, Phường Tân Hưng, Quận 7, Thành Phố Hồ Chí Minh, VIỆT NAM",caphemilanohimlam1,MOMOCQFA20181219,,,Mass Merchant
2426,6635502366708133531,228873345217803866,Mass Merchant,TRÀ SỮA ABC,"193/9 Điện Biên Phủ, Phường 15, Quận Bình Thạnh, Thành Phố Hồ Chí Minh, VIỆT NAM",trasuaabc1,MOMOFYWO20181022,106.7118202,10.7443744,Mass Merchant
2430,2453347438393803164,269664348318984473,Mass Merchant,Lá Còn Xanh Shop,"2  Lê Duẩn, Phường Bến Nghé, Quận 1, Thành Phố Hồ Chí Minh, VIỆT NAM",laconxanh,MOMODUZY20180624,106.8471768,10.9568489,Mass Merchant
2431,922770840377832605,4610911176590984677,Restaurant,CÔNG TY TNHH MTV NHÀ HÀNG HOÀNG YẾN,"148 Hai Bà Trưng, phường Đa Kao, Thành phố Hồ Chí Minh, Việt Nam",Chảo Cá - VivoCity,"Tầng 02, SC VivoCity, 1058 Nguyễn Văn Linh, P.Tân Phong, Q.7, TP.HCM",106.689229,10.776309,foodcourt
2441,4304572831211605661,4898428615647677077,Mass Merchant,FRUZII COFFEE,"21 Trần Thị Nghĩ, Phường 7, Quận Gò Vấp, Thành Phố Hồ Chí Minh, VIỆT NAM",fruziicoffeenk,"679 Nguyễn Kiệm, Phường 3, Quận Gò Vấp, Thành Phố Hồ Chí Minh, VIỆT NAM",,,Mass Merchant
2447,5233423985952720797,6989338700254407047,Mass Merchant,CÔNG TY TNHH SẢN XUẤT THƯƠNG MẠI CHẤN KHANG,"74 - 74b cao thắng, Phường 4, Quận 3, Thành Phố Hồ Chí Minh, VIỆT NAM",SWEETHOME BAKERY NS,"194 NGUYỄN SƠN, Phường Phú Thọ Hòa, Quận Tân Phú, Thành Phố Hồ Chí Minh, VIỆT NAM",,,Mass Merchant
2463,7831908147248642718,127968840784358873,Mass Merchant,Say coffee - SVH,"754 - 756 Sư Vạn Hạnh, Phường 12, Quận 10, Thành Phố Hồ Chí Minh, VIỆT NAM",saysvh123,MOMO4IVI20180601,106.672413,10.778615,Mass Merchant
2465,3947794641222203294,6661104330135907421,Mass Merchant,Chân Gà Rang Muối,"334 Thái Hà, Phường Trung Liệt, Quận Đống Đa, Hà Nội, VIỆT NAM",changarangmuoi1,MOMOMR2V20181103,106.71019579999998,,Mass Merchant
2466,6721693733825645470,2476717931865974070,Mass Merchant,Cô Nguyệt Quán,"43 Đinh Tiên Hoàng, Phường Đa Kao, Quận 1, TP Hồ Chí Minh",CÔ NGUYỆT QUÁN,"43 Đinh Tiên Hoàng, Đa Kao, Quận 1, Hồ Chí Minh",106.6812645,10.7786187,Mass Merchant
2468,6058953605927254686,1166100659187311481,Mass Merchant,Quán Bún Đậu Vân Lùn,"245/10 Nguyễn Trãi, Phường Nguyễn Cư Trinh, Quận 1, Thành Phố Hồ Chí Minh, VIỆT NAM",bundauvanlun,MOMOYURP20180621,106.670364,10.7794329,Mass Merchant
2469,4719769865534913696,5638310606508464639,Coffee chains and Milk tea,Pepperonis Trần Phú,"14 Trần Phú, Phường Mộ Lao, Quận Hà Đông, Hà Nội, VIỆT NAM",peperoni14tp,MOMOA90X20180611,106.7037421,10.7398316,Cafe
2493,3615982237552954784,2933327615732895028,Coffee chains and Milk tea,CÔNG TY TNHH KOI CAFE VIỆT NAM,"Phòng 1601, Tháp Royal Centre, 235 Nguyễn Văn Cừ, Phường Nguyễn Cư Trinh, Quận 1, TP.HCM", KOI THÉ VINCOM,"Vincom Mega Mall, số 161  Xa Lộ Hà Nội, KP1, Phường Thảo Điền, Quận 2, Thành Phố Hồ Chí Minh, VIỆT NAM",105.85526000000002,21.02294,Cafe
2536,7269666266945019297,3345800083880418984,Coffee chains and Milk tea,Chi Nhánh Công ty TNHH Đức Nhân  Đà Nẵng,"208 Trần Phú, Phường Phước Ninh, Quận Hải Châu, Đà Nẵng, VIỆT NAM",Al Fresco's Vincom Đà Nẵng,"910A Ngô Quyền, Phường An Hải Bắc, Quận Sơn Trà, Đà Nẵng, VIỆT NAM",106.626168,10.757447,Cafe
2542,8784503040925972898,1138843023379190677,Mass Merchant,DELI COFFEE,"Số 5 ngõ 131 Thái Hà, Phường Trung Liệt, Quận Đống Đa, Hà Nội, VIỆT NAM",delicoffee1,MOMOMIAE20181118,106.6651163,10.7787147,Mass Merchant
2544,4476621886561365668,5031335801573529585,Mass Merchant,chesauthegiao1,"số 151 Ô Chợ Dừa, Phường Ô Chợ Dừa, Quận Đống Đa, Hà Nội, VIỆT NAM",chesauthegiao1,MOMORA5T20180724,,,Mass Merchant
2545,1519391066364067495,5910892335216598099,Mass Merchant,SIÊU THỊ THỰC PHẨM SẠCH FALA,"304 3/2, Phường 12, Quận 10, Thành Phố Hồ Chí Minh, VIỆT NAM",SIÊU THỊ THỰC PHẨM SẠCH FALA,"304 3/2, Phường 12, Quận 10, Thành Phố Hồ Chí Minh, VIỆT NAM",106.671794,10.782809,Mass Merchant
2547,1728621666524296615,522399284898373717,Mass Merchant,The Hungry Pig .,"144 Cống Quỳnh, Phường Phạm Ngũ Lão, Quận 1, Thành Phố Hồ Chí Minh, VIỆT NAM",quananhungrypig,MOMOK3Z020180907,,,Mass Merchant
2548,6190291769435275431,7046395183284618631,Mass Merchant,Kim Chí Quán ,"27 ngõ 49 Huỳnh Thúc Kháng, Phường Láng Hạ, Quận Đống Đa, Hà Nội, VIỆT NAM",Kim Chí Quán Nguyên Hồng,"27 ngõ 49 Huỳnh Thúc Kháng, Phường Láng Hạ, Quận Đống Đa, Hà Nội, VIỆT NAM",106.38086090000002,10.235031,Mass Merchant
2550,3212306419124035752,1711964211306110475,Restaurant,OVEN D'OR RESTAURANT,"Nghi Tàm, Quảng An, Tây Hồ, Hà Nội, Việt Nam",SH2,MOMOG7DH20190311,105.8391824,21.008427800000003,buffet
2552,4736617612607365545,6571622827835272015,Fast food,CÔNG TY CỔ PHẦN PIZZA NGON,"77 Trần Nhân Tôn , Phường 9, Quận 5, Thành Phố Hồ Chí Minh, VIỆT NAM",TPC Nguyễn Thái Học,"105-107 Nguyễn Thái Học, Phường Cầu Ông Lãnh, Quận 1, Thành Phố Hồ Chí Minh, VIỆT NAM",106.692353,10.786967,Fast food
2580,4223642432792532905,8670502788007126223,Mass Merchant,Fabi Mart,"Ô Số 2 -SO1-CT3 Khu Đô Thị Mới An Hưng, Tố Hữu, Phường La Khê, Quận Hà Đông, Hà Nội, VIỆT NAM",fabimart11,MOMOWJ1J20181228,105.844027,20.992117,Mass Merchant
2582,5856558760800761258,7525831574912681871,Mass Merchant,Trà Sữa The MilTea Guy,"006 Lô F Chung cư Ngô Gia Tự, Phường 3, Quận 10, Thành Phố Hồ Chí Minh, VIỆT NAM",themilkteaguy1,MOMOE6IJ20180912,105.823165,21.014948,Mass Merchant
2584,642428637310777258,7997036188457379434,Mass Merchant,Công ty TNHH lương thực và thực phẩm Miefood ,"12 ngách 5  ngõ 178 Tây Sơn, Phường Trung Liệt, Quận Đống Đa, Hà Nội, VIỆT NAM",Mie Food,"12 Đặng tiến đông , Phường Trung Liệt, Quận Đống Đa, Hà Nội, VIỆT NAM",,,Mass Merchant
2586,6867086828130189483,7811045477820010549,Fast food,Toocha Phan Văn Trị,"366A23-A24  P5 Quận Gò Vấp Phan Văn Trị, Phường 5, Quận Gò Vấp, Thành Phố Hồ Chí Minh, VIỆT NAM",7090,MOMO8O3B20180521,106.618393,10.801787,Fast food
2637,5349216268372867755,8267882623251187292,Mass Merchant,Bún Đậu Cầu Gỗ - Lê Đại Hành,"281	Lê Đại Hành, Phường 13, Quận 11, Hồ Chí Minh",bundaucaugo281,MOMOUR5W20180424,105.852095,21.019741,Mass Merchant
2643,1413807917068409262,1221864307983247521,Fast food,CÔNG TY CỔ PHẦN THỰC PHẨM BLUE STAR,"424A Nguyễn Thị Minh Khai, Phường 5, Quận 3, Tp.HCM",Baskin Robbins Lê Văn Sỹ,"357 Lê Văn Sỹ, P.1, Quận Tân Bình",,,Fast food
2661,1560616255241742510,3840688517334867208,Supermarket,CÔNG TY TNHH MỘT THÀNH VIÊN BÁCH HÓA SÀI GÒN CO.OP,"199-205 Nguễn Thái Học, Phường Phạm Ngũ Lão, Quận 1, Thành Phố Hồ Chí Minh, VIỆT NAM",CO.OPSMILE - 71 TRẦN KẾ XƯƠNG,"71 Trần Kế Xương, P.7, Q.Phú Nhuận, Thành Phố Hồ Chí Minh, Việt Nam",105.851445,21.025089,Supermarket
2698,1391572509219260078,1780092698983904944,Coffee chains and Milk tea,Hộ Kinh Doanh Cà Phê E.F.F.O.C Phan Văn Trị,"661 Phan Văn Trị, Phường 7, Quận Gò Vấp, Thành Phố Hồ Chí Minh, VIỆT NAM",Effoc Coffee Phan Văn Trị,"661 Phan Văn Trị, Phường 7, Quận Gò Vấp, Thành Phố Hồ Chí Minh, VIỆT NAM",106.34143,10.358727,Cafe
2700,4553741234082020782,3874155429390747945,Mass Merchant,ASINT  COFFEE,"48 Nguyễn Đình Chiểu, Phường Đa Kao, Quận 1, Thành Phố Hồ Chí Minh, VIỆT NAM",asintcoffee1,MOMOJTLR20180825,,,Mass Merchant
2702,1790288908874625201,5429024391385210999,Coffee chains and Milk tea,Công ty Cổ phần thương mại dịch vụ TACO Việt Nam,"105, số 622 Minh Khai, Phường Vĩnh Tuy, Quận Hai Bà Trưng, Hà Nội, VIỆT NAM",Tocotoco - 114 Cầu Gỗ,"114 Cầu Gỗ, Phường Hàng Đào, Quận Hoàn Kiếm, Hà Nội, VIỆT NAM",107.3736679,10.4686612,Cafe
2718,9173343782673973426,1590626869450955150,Mass Merchant,CÔNG TY TNHH BEFUL,"Phòng 401, 142 Võ Văn Tần, Phường 6, Quận 3, TPHCM",OBAGI VIỆT NAM,"142 Võ Văn Tần, Phường 6, Quận 3, Thành Phố Hồ Chí Minh, VIỆT NAM",106.64038290000002,10.7921355,Mass Merchant
2720,9101699446477793458,7939530969949249179,Mass Merchant,Bún Chả Bình Chung,"88 lê văn hưu, Phường Ngô Thì Nhậm, Quận Hai Bà Trưng, Hà Nội, VIỆT NAM",Bún Chả Bình Chung,"88 lê văn hưu, Phường Ngô Thì Nhậm, Quận Hai Bà Trưng, Hà Nội, VIỆT NAM",,,Mass Merchant
2722,5251647995811785396,8851448295329400252,Mass Merchant,CHÁO ẾCH SENTOSA,"177 Tô Hiến Thành, Phường 13, Quận 10, Thành Phố Hồ Chí Minh, VIỆT NAM",SENTOSA TÔ HIẾN THÀNH,"177 Tô Hiến Thành, Phường 13, Quận 10, Thành Phố Hồ Chí Minh, VIỆT NAM",106.6792473,10.7691226,Mass Merchant
2726,2934243555093972662,130291123518762999,Mass Merchant,Gà Mạnh Hoạch,Số 66 Ngõ 34 Phương Mai Phương Liên Đống Đa Hà Nội,Gà Mạnh Hoạch,"Lô 211 tổ 4 là khê La Khê, Phường La Khê, Quận Hà Đông, Hà Nội, VIỆT NAM",105.83575,21.0127553,Mass Merchant
2728,599225798146342838,1827038211440911099,Restaurant,DON CHICKEN Hồ Tùng Mậu,"25  Hồ Tùng Mậu, Phường Bến Thành, Quận 1, Thành Phố Hồ Chí Minh, VIỆT NAM",docnhtm,MOMOD02X20180809,105.8321083,21.0113889,chicken
2730,7683040491188562102,5005839401317858900,Mass Merchant,Trà sữa -18oC,"74 Võ Văn Tần, Phường 6, Quận 3, HCM",Trà sữa -18độ C,"74 Võ Văn Tần, Phường 6, Quận 3, TP Hồ Chí Minh",106.713416,10.810851,Mass Merchant
2732,6839705713825000886,6273814420398392955,Mass Merchant,NẮNG COFFEE & ACOUSTIC,"lầu 4 - 326 Lê Văn Lương, Phường Tân Hưng, Quận 7, Thành Phố Hồ Chí Minh, VIỆT NAM",nangcoffee326,MOMOPLWW20181115,106.6999369,10.7637443,Mass Merchant
2733,1020517967048203191,1048393854589399088,Mass Merchant,KUP COFFEE,"495/8C Tô Hiến Thành, Phường 14, Quận 10, Thành Phố Hồ Chí Minh, VIỆT NAM",kupcoffee123,MOMOSMEC20180629,106.7223812,10.800451400000002,Mass Merchant
2735,5190410911577532601,5067078885761393979,Mass Merchant,Hoa Chanh Coffee,"69/10 Tôn Thất Tùng, Phường Khương Thượng, Quận Đống Đa, Hà Nội, VIỆT NAM",hoachanh123,MOMOXACD20181128,106.65246100000002,10.800632,Mass Merchant
2737,2170835392571376570,8530488857779728265,Mass Merchant,MR GOOD TEA,"CT1A-DN2 Hàm Nghi, Phường Mỹ Đình 2, Quận Nam Từ Liêm, Hà Nội, VIỆT NAM",mrgoodteahn1,MOMOXPBF20181019,,,Mass Merchant
2739,5654538597012118714,9180470094049301913,Coffee chains and Milk tea,Công Ty TNHH BoBapop,"115 Cao Thắng, Phường 11, Quận  10, TP.HCM",Bobapop 485 Sư Vạn Hạnh,"485 Sư Vạn Hạnh, P12, Quận 10, TP.HCM",106.661698,10.771896,Cafe
2787,580914346439077050,1798453740698427310,Restaurant,CALI MEGA MALL,"Tầng L4  Vincom Mega Mall Thảo Điền, Phường Thảo Điền, Quận 2, Thành Phố Hồ Chí Minh, VIỆT NAM",calimegamall,MOMOR8QR20180523,105.80226100000002,21.009283,vietnamese
2819,9053682795303467962,3380991968047977232,Mass Merchant,TRÁI CÂY TÔ HẺM 177,"Hẻm 177 Lý Tự Trọng, Phường Bến Thành, Quận 1, Thành Phố Hồ Chí Minh, VIỆT NAM",traicaytohem177,MOMONDV920180806,105.835806,21.009621,Mass Merchant
2821,3355964660155875259,653968084767051958,Mass Merchant,Trà sữa IMUZU,"420 Nguyễn Thị Minh Khai, Phường 5, Quận 3, Thành Phố Hồ Chí Minh, VIỆT NAM",tsimuzu123,MOMO0EFQ20180723,107.0838301,,Mass Merchant
2823,6024668875568663740,8218665413519861988,Mass Merchant,FURIN,"45 Huỳnh Khương Ninh, Phường Đa Kao, Quận 1, Thành Phố Hồ Chí Minh, VIỆT NAM",FURIN - Bánh Sầu Riêng,"45 Huỳnh Khương Ninh, Phường Đa Kao, Quận 1, Thành Phố Hồ Chí Minh, VIỆT NAM",106.766861,10.849795,Mass Merchant
2825,3418985492847960764,1755111973210960409,Mass Merchant,SÚP CUA ĐẠT BÉO,"99 ĐƯỜNG 14 A, Phường Tân Thuận Tây, Quận 7, Thành Phố Hồ Chí Minh, VIỆT NAM",supcuadatbeo123,MOMOZ3VP20181123,106.6427991,,Mass Merchant
2826,8034014249331272637,4205109577833068817,Mass Merchant,NƯỚC ÉP SINH TỐ D.A.T,"291/20 VÕ VĂN TẦN, Phường 5, Quận 3, Thành Phố Hồ Chí Minh, VIỆT NAM",NƯỚC ÉP SINH TỐ D.A.T1,"291/20 VÕ VĂN TẦN, Phường 5, Quận 3, Thành Phố Hồ Chí Minh, VIỆT NAM",105.825596,21.0208687,Mass Merchant
2828,4637408188978709949,2822994481245230681,Mass Merchant,Mr Sạch Coffee 1,"18  Võ Văn Dũng, Phường Phương Liên, Quận Đống Đa, Hà Nội, VIỆT NAM",mrsachcoffee1,MOMO8BYU20180725,105.827851,21.015719,Mass Merchant
2830,5440290204664021438,5075935315134124620,Mass Merchant,CÔNG TY TNHH LÊ NGUYỄN TUYẾT ANH,"714 SƯ VẠN HẠNH, Phường 12, Quận 10, Thành Phố Hồ Chí Minh, VIỆT NAM",ELLA'S STORES,"714 SƯ VẠN HẠNH, Phường 12, Quận 10, Thành Phố Hồ Chí Minh, VIỆT NAM",,,Mass Merchant
2832,5439851833261958847,7877277003042878204,Mass Merchant,Công ty TNHH Trà Đen Việt Nam,"322 Bà Hạt, Phường 9, Quận 10, Thành Phố Hồ Chí Minh, VIỆT NAM",THE BLACK TEA - Đinh Tiên Hoàng," 141 Đinh Tiên Hoàng, Phường Đa Kao, Quận 1, Thành Phố Hồ Chí Minh, VIỆT NAM",105.8316161,21.0045077,Mass Merchant
2838,6731818028068710847,3512825448150853021,Mass Merchant,GÀ LẮC,"Ngã Ba Nam Đồng Phố Nam Đồng, Phường Phương Liên, Quận Đống Đa, Hà Nội, VIỆT NAM",galac1542,MOMOOJR120180721,105.898989,21.02725,Mass Merchant
2839,6833267496949447871,1367689737787018223,Restaurant,CHI NHÁNH CÔNG TY LIÊN DOANH TNHH KFC VIỆT NAM TẠI TP. HỒ CHÍ MINH,"Số 1 Bạch Đằng, Phường 02, Quận Tân Bình, Tp.HCM",KFC Parkson C.T Plaza,"60A Trường Sơn, Phường 2, Quận Tân Bình, Tp.Hồ Chí Minh",,,chicken
2880,7129617946508210624,750865538925389596,Coffee chains and Milk tea,Sharetea Nguyễn Hữu Huân,"32 - 34 Nguyễn Hữu Huân, Phường Đồng Xuân, Quận Hoàn Kiếm, Hà Nội, VIỆT NAM",shareteanhh,MOMOEQYN20180620,106.699306,10.7838415,Cafe
2882,2525273299922420160,2269012240827527388,Mass Merchant,Tào Phớ Lụa,"12c Trịnh Hoài Đức, Phường Cát Linh, Quận Đống Đa, Hà Nội, VIỆT NAM",pholua1111,MOMO7MMA20181205,,,Mass Merchant
2884,5453033308428757696,6876238403132185378,Mass Merchant,BTDT COFFEE,"215 hoàng sa, Phường Tân Định, Quận 1, Thành Phố Hồ Chí Minh, VIỆT NAM",BIDI COFFEE,"215 hoàng sa, Phường Tân Định, Quận 1, Thành Phố Hồ Chí Minh, VIỆT NAM",106.70278,10.788165,Mass Merchant
2886,2593304534688212929,6663552477277073575,Mass Merchant,QUÁN NGON TRẢNG BÀNG,"68-68A Nguyễn Thị Thập, Phường Bình Thuận, Quận 7, Thành Phố Hồ Chí Minh, VIỆT NAM",QUÁN NGON TRẢNG BÀNG,"68-68A Nguyễn Thị Thập, Phường Bình Thuận, Quận 7, Thành Phố Hồ Chí Minh, VIỆT NAM",105.7845395,20.9792631,Mass Merchant
2888,6261126187140873153,8002274215451572339,Mass Merchant,Chi Nhánh - Công ty TNHH Brandlink VietNam,"85 Nguyễn Văn Thủ, Phường Đa Kao, Quận 1, Thành Phố Hồ Chí Minh, VIỆT NAM",T'AROMA COFFEE - NVT,"85 Nguyễn Văn Thủ, Phường Đa Kao, Quận 1, Thành Phố Hồ Chí Minh, VIỆT NAM",105.846569,21.013389,Mass Merchant
2890,4538707585231109058,1250538052624208184,Mass Merchant,QUÁN ĂN PHÚ GIA,"385/12 Nguyễn Trãi, Phường Nguyễn Cư Trinh, Quận 1, Thành Phố Hồ Chí Minh, VIỆT NAM",quananphugia2,MOMOBODV20181102,,,Mass Merchant
2892,67430505974266306,5503051050295975979,Mass Merchant,Steven café,"1 đường số 10, Phường Tân Kiểng, Quận 7, Thành Phố Hồ Chí Minh, VIỆT NAM",stevencafe1,MOMOOB3Q20181126,106.7370277,10.7138524,Mass Merchant
2894,1647697340456016579,8565192753522876414,Mass Merchant,Nhà Hàng Cao Phong,"Số 9 Ngõ 82  Phạm Ngọc Thạch, Phường Phương Liên, Quận Đống Đa, Hà Nội, VIỆT NAM",nhahangcaphong1,MOMOIHKQ20180727,106.652417,10.729855,Mass Merchant
2896,3455136982206448324,895111626878533714,Mass Merchant,SÀI GÒN specialty COFFEE,"38E Trần Cao Vân, Phường 6, Quận 3, Thành Phố Hồ Chí Minh, VIỆT NAM",saigoncoffee123,MOMOAZMM20180926,,,Mass Merchant
2898,6595253069973178052,1768612480206676540,Mass Merchant,BUSAN KOREAN FOOD 2,"5 Đinh Tiên Hoàng, Phường 3, Quận Bình Thạnh, Thành Phố Hồ Chí Minh, VIỆT NAM",busankoreafood2,MOMOB2FQ20181203,,,Mass Merchant
2900,1103557715161564100,1847723277533038544,Mass Merchant,IHOUSE COFFEE,"I4B - I4C Hương Giang, Phường 15, Quận 10, Thành Phố Hồ Chí Minh, VIỆT NAM",Ihouse Coffee,"i4b-i4c Hương Giang, Phường 15, Quận 10, Thành Phố Hồ Chí Minh, VIỆT NAM",106.6859416,10.7712153,Mass Merchant
2902,7651124199321619396,8525186485494568911,Mass Merchant,BÚN BÒ HUẾ TRƯƠNG ĐỊNH,"9G K5, Phường Tân Thuận Tây, Quận 7, Thành Phố Hồ Chí Minh, VIỆT NAM",bunbohuetruongdinh1,MOMOVTKK20181115,106.6531528,10.7489275,Mass Merchant
2904,6002488523543808197,7253655729657643429,Mass Merchant,CƠM CHAY MANI,"291/2 Võ Văn Tần, Phường 5, Quận 3, HCM",comchaymani123,MOMOKK2U20180410,,,Mass Merchant
2906,878202715708616901,4648193317422560953,Mass Merchant,KHUYẾN MÃI THANH LÝ,"A3 Chung cư Petroland, Phường Bình Trưng Đông, Quận 2, Thành Phố Hồ Chí Minh, VIỆT NAM",KHUYẾN MÃI THANH LÝ,"A3 Chung cư Petroland, Phường Bình Trưng Đông, Quận 2, Thành Phố Hồ Chí Minh, VIỆT NAM",105.81612040000002,21.0003996,Mass Merchant
2908,7721286411959026887,1734820374669623552,Mass Merchant,Bánh mỳ doner Tràng An ( Tam giác) 1,"65  Đường Thành, Phường Cửa Đông, Quận Hoàn Kiếm, Hà Nội, VIỆT NAM",banhmydoner651,MOMOOJTP20180915,105.8227346,21.0066161,Mass Merchant
2909,5010456923524073415,4486307252939492923,Mass Merchant,Laha Coffee Trần Cao Vân,"11b Trần Cao Vân, Phường Đa Kao, Quận 1, Thành Phố Hồ Chí Minh, VIỆT NAM",lahacoffeetcv123,MOMOX0XC20181101,106.684191,10.800549,Mass Merchant
2911,5420004629678826695,6794741281330571602,Mass Merchant,Lylagua Coffee,"440 Tây Sơn, Phường Ngã Tư Sở, Quận Đống Đa, Hà Nội, VIỆT NAM",lylaguacoffee1,MOMOJH7420181113,,,Mass Merchant
2913,8852348163950164423,4970656441220694201,Mass Merchant,Wings-Tea.,"2 Mai Thị Lựu, Phường Đa Kao, Quận 1, Thành Phố Hồ Chí Minh, VIỆT NAM",wingstea123,MOMOH0G120181101,105.82362,21.015195,Mass Merchant
2914,7602277713859172296,4139580851295961937,Fast food,CÔNG TY CỔ PHẦN KEM AN MINH,"77 Trần Nhân Tông, Phường 9, Quận 5, Thành Phố Hồ Chí Minh, VIỆT NAM",Swensen's Vincom Metropolis,"Tầng 3, Vincom Metropolis 29 Liễu Giai, Phường Ngọc Hà, Quận Ba Đình, Hà Nội, VIỆT NAM",105.806656,21.033196,Fast food
2934,7081390214729399753,1667757213738322599,Mass Merchant,Lẩu Song Việt,"47 Nguyễn Ngọc Vũ, Phường Trung Hoà, Quận Cầu Giấy, Hà Nội, VIỆT NAM",lausongviet2,MOMO18DY20180820,,,Mass Merchant
2935,4120325102144902345,6317174302579009045,Mass Merchant,Chè Bưởi Vĩnh Long ,"220 Tô Hiến Thành, Phường 15, Quận 10, Thành Phố Hồ Chí Minh, VIỆT NAM",Chè Bưởi Vĩnh Long 4,"220 Tô Hiến Thành, Phường 15, Quận 10, Thành Phố Hồ Chí Minh, VIỆT NAM",106.7581154,10.822475099999998,Mass Merchant
2937,1639407304044097994,2978960933645842186,Mass Merchant,Gà Rán Ngưu Ma Vương 0,"71  Hồ Đắc Di, Phường Nam Đồng, Quận Đống Đa, Hà Nội, VIỆT NAM",garanvuong1,MOMODFFJ20181012,106.6854271,10.770763,Mass Merchant
2939,4399025521839945418,6479312625237882057,Mass Merchant,Qùa Hà Nội Quán,"21/1 Võ Văn Tần, Phường 6, Quận 3, Thành Phố Hồ Chí Minh, VIỆT NAM",quahanoiquan1,MOMOBCSK20181122,105.847492,21.021818,Mass Merchant
2941,8543645865199399626,2268965898810900647,Mass Merchant,QTV CENTER,"788 Sư Vạn Hạnh, Phường 12, Quận 10, Thành Phố Hồ Chí Minh, VIỆT NAM",QTV CENTER1,"788 Sư Vạn Hạnh, Phường 12, Quận 10, Thành Phố Hồ Chí Minh, VIỆT NAM",105.852185,21.0372689,Mass Merchant
2943,6243076211879184331,1501507061910892280,Mass Merchant,MR GOOD TEA,"107A9 Mai Động, Phường Mai Động, Quận Hoàng Mai, Hà Nội, VIỆT NAM",MR GOOD TEA,"107A9 Mai Động, Phường Mai Động, Quận Hoàng Mai, Hà Nội, VIỆT NAM",105.8340038,21.0142161,Mass Merchant
2945,1609066667512926923,505107459907418035,Mass Merchant,Nước ép trái cây Hương Juice,"Số 12 Hàng Lược, Phường Hàng Mã, Quận Hoàn Kiếm, Hà Nội, VIỆT NAM",nuocephuong1,MOMOEVE020181015,,,Mass Merchant
2946,5007113432488259275,4191954238028844940,Mass Merchant,CÔNG TY TNHH POTATO THUỶ TIÊN,"78 - 80 Đồng Đen, Phường 14, Quận Tân Bình, Thành Phố Hồ Chí Minh, VIỆT NAM",POTATO CORNER,"Tầng 3, SC Vivo City, 1058 Nguyễn Văn Linh, Phường Tân Phong, Quận 7, Thành Phố Hồ Chí Minh, VIỆT NAM",106.7171047,10.7965515,Mass Merchant
2948,7972638678599937484,1092889215907603450,Fast food,CÔNG TY TNHH DỊCH VỤ THỰC PHẨM VÀ GIẢI KHÁT CÁNH DIỀU XANH,"Tầng 5, Tòa nhà Sài Gòn Royal, số 91 Pasteur, Phường Bến Nghé, Quận 1, TP.HCM",BurgerKing Phạm Ngũ Lão,"275 – 279 Phạm Ngũ Lão, Phường Phạm Ngũ Lão, Quận 1, Thành Phố Hồ Chí Minh, VIỆT NAM",106.6263642,10.749739,Fast food
2963,4853229276890186446,222391254639151689,Mass Merchant,Chi Nhánh Công Ty TNHH sản xuất thương mai cơ khí Trường Sơn,"15 Võ Văn Tần, Phường 6, Quận 3, Thành Phố Hồ Chí Minh, VIỆT NAM",FUGASHIN COFFEE,"15  Võ Văn Tần, Phường 6, Quận 3, Thành Phố Hồ Chí Minh, VIỆT NAM",105.850935,21.015632,Mass Merchant
2965,7928728133347645647,137626713558787976,Mass Merchant,Bún Bò Huế,"141 Lê Văn Hiến, PHƯỜNG CỔ NHUẾ 1, QUẬN BẮC TỪ LIÊM, Hà Nội, VIỆT NAM",bunbohue1111,MOMOIDVV20180927,105.8047385,21.0096154,Mass Merchant
2967,3891264094863370703,1984484776528370350,Mass Merchant,CỘT ĐIỆN QUÁN,"71 Đặng Văn Ngữ, Phường Trung Tự, Quận Đống Đa, Hà Nội, VIỆT NAM",CỘT ĐIỆN QUÁN,"71 Đặng Văn Ngữ, Phường Trung Tự, Quận Đống Đa, Hà Nội, VIỆT NAM",106.6779978,10.769123,Mass Merchant
2973,4942566902080692175,6608372960513686123,Mass Merchant,PET'S HOME RBB,"77 Rạch Bùng Binh, Phường 9, Quận 3, Thành Phố Hồ Chí Minh, VIỆT NAM",petshomerbb,MOMO34AC20181021,106.6793908,10.768660699999998,Mass Merchant
2979,2836984108500781008,6239691931360727075,Mass Merchant,Công ty TNHH Phát triển thương mại Phúc Linh,54A Ngõ 143 - Phố chợ Khâm Thiên - P. Trung Phụng - Đống Đa - Hà Nội - VIỆT NAM,Hoa quả Phúc Linh,"Số 5 Ngõ 151A Thái Hà, Phường Láng Hạ, Quận Đống Đa, Hà Nội, VIỆT NAM",106.7105974,10.7393835,Mass Merchant
2981,1238760765024775632,2844794757271658117,Fast food,Gà nướng Ò Ó O  87-89 Đường D5,"Tầng 1, 87 - 89 Đường D5, Phường 25, quận Bình Thạnh, Thành Phố Hồ Chí Minh, VIỆT NAM",ofooddd5,MOMOJN7H20180609,105.832318,21.004673,Fast food
3005,2178797276674805200,8936681779597401066,Mass Merchant,ĐIỂM HẸN COFFEE,"268 Tô Hiến Thành, Phường 15, Quận 10, Thành Phố Hồ Chí Minh, VIỆT NAM",diemhencoffee1,MOMOIJUS20181031,106.6626656,10.7625954,Mass Merchant
3007,3415683252579490000,4237724884545742245,Mass Merchant,CÔNG TY CỔ PHẦN DỊCH VỤ GIẢI TRÍ CẦU VỒNG,"5/20 Khiếu Năng Tĩnh, Phường An Lạc A, Quận Bình Tân, Thành Phố Hồ Chí Minh, VIỆT NAM",RAINBOW YOGURT QUẬN BÌNH THẠNH,"93 Lê Quang Định, Phường 14, Quận Bình Thạnh, Thành Phố Hồ Chí Minh, VIỆT NAM",105.80226100000002,21.009283,Mass Merchant
3009,9091730908646524368,4189919420876193084,Fast food,Công ty Cổ phần thương mại QSR Việt Nam,"77 Trần Nhân Tôn, Phường 09, Quận 5, Thành phố Hồ Chí Minh, Việt Nam",Vạn Hạnh Mall,"11 Sư Vạn Hạnh, Phường 12, Quận 10, Thành Phố Hồ Chí Minh, VIỆT NAM",105.8438155,20.9820527,Fast food
3052,9202280647071274705,1484336866940386987,Mass Merchant,Sexy Forever 42 Nguyễn Huệ,"Lầu 8 chung cư 42 Nguyễn Huệ, Phường Bến Nghé, Quận 1, Thành Phố Hồ Chí Minh, VIỆT NAM",sexyforever42,MOMONVSV20190107,106.631045,10.7474399,Mass Merchant
3062,5478110711664307154,5418730331986966439,Coffee chains and Milk tea,Taster's Choice 75 Lý Thường Kiệt ,"75 Lý Thường Kiệt, Hà Nội",tasterschoiceltk,MOMOS2QT20180425,106.664376,10.777515,Cafe
3066,306446194545434834,327502943142694472,Mass Merchant,The Alley 533 Nguyễn Tri Phương quận 10,"533 Nguyễn Tri Phương, Phường 8, Quận 10, Thành Phố Hồ Chí Minh, VIỆT NAM",thealleycoffee1,MOMOXHG520181027,106.713543,10.739495,Mass Merchant
3068,3856987200481659347,5344902699306350073,Mass Merchant,3T COFFEE,"355 Hoàng Sa, Phường Tân Định, Quận 1, Thành Phố Hồ Chí Minh, VIỆT NAM",3T COFFEE QUẬN 1,"355 Hoàng Sa, Phường Tân Định, Quận 1, Thành Phố Hồ Chí Minh, VIỆT NAM",,,Mass Merchant
3070,7075491327535556308,8380221866582883592,Mass Merchant,CÔNG TY CỔ PHẦN DU LỊCH VÉ MÁY BAY BÌNH MINH,"226/3  Minh Phụng, Phường 6, Quận 6, Thành Phố Hồ Chí Minh, VIỆT NAM",BM' MART 614 TRẦN HƯNG ĐẠO QUẬN 5,"614 Trần Hưng Đạo, Phường 2, Quận 5, Thành Phố Hồ Chí Minh, VIỆT NAM",106.6570543,10.7692574,Mass Merchant
3080,4577125193696403924,8960373318212660588,Mass Merchant,Sailing Coffee,"23 Ngõ 82 Chùa Láng, Láng Thượng, Đống Đa, Hà Nội, Việt Nam",urbanstation2,MOMOUANI20181228,106.680576,10.798909,Mass Merchant
3084,5038222557218054869,6281351022340138026,Mass Merchant,HỘ KINH DOANH KFIN,"23 Đường số 3J, Phường Tân Thuận Tây, Quận 7, Thành Phố Hồ Chí Minh, VIỆT NAM",KFIN Coffee,"23 3J, Phường Tân Thuận Tây, Quận 7, Thành Phố Hồ Chí Minh, VIỆT NAM",105.8900344,21.0540208,Mass Merchant
3086,7272637017843485142,4346155640181372866,Mass Merchant,Công ty Cổ Phần V-Food Việt Nam,"Số 20, Ngõ 145 Nguyễn Văn Cừ, Phường Ngọc Lâm, Quận Long Biên, Hà Nội, VIỆT NAM",Luôn Tươi Sạch Hàng Muối,"22 Hàng Muối, Phường Lý Thái Tổ, Quận Hoàn Kiếm, Hà Nội, VIỆT NAM",106.6817162,10.8134704,Mass Merchant
3100,3933576440147437783,5538369302982660063,Coffee chains and Milk tea,Sharetea Vinhomes Central Park,"Vinhomes Central Park 208 Nguyễn Hữu Cảnh, Phường 22, Quận Bình Thạnh, Thành Phố Hồ Chí Minh, VIỆT NAM",shareteavinhomes,MOMOF4GB20180620,106.67838799999998,10.783194,Cafe
3102,3560337350471154903,5761186158198485903,Shopping,Vera	 V81,"90 Lê Duẫn, Phường Thạch Thang, Quận Hải Châu, Đà Nẵng, VIỆT NAM",V81,MOMOU5P020181218,105.831964,21.006304,Shopping
3132,1396035296797382871,2975663460189775152,Mass Merchant,Cơm Thu,"3 ngõ 121 Thái Hà, Phường Trung Liệt, Quận Đống Đa, Hà Nội, VIỆT NAM",Cơm Thu,"3 ngõ 121 Thái Hà, Phường Trung Liệt, Quận Đống Đa, Hà Nội, VIỆT NAM",105.8496643,21.013500600000004,Mass Merchant
3134,7211472945118255576,3055422383996739608,Coffee chains and Milk tea,Công Ty TNHH TM- DV Trà Hoàng Gia,"Số 54 Ngõ 120 đường Trường Chinh, Phường Phương Mai, Quận Đống Đa, Tp. Hà Nội",Royal Tea 190 Hòa Bình,"190 Hòa Bình, Phường Tân Thới Hòa, Quận Tân Phú, Thành Phố Hồ Chí Minh, VIỆT NAM",106.6686047,10.7815364,Cafe
3148,2280554361720567768,3522035360622516725,Mass Merchant,Milano 7A/50 Thành Thái,"7A/50 Thành Thái, Phường 14, Quận 10, HCM",MILANO 7A/50 Thành Thái,"7A/50 Thành Thái, Phường 14, Quận 10, HCM",106.705594,10.781413,Mass Merchant
3150,1564697347935602136,5637315259252860063,Mass Merchant,CÔNG TY TNHH BOO GROUP,"72 Nguyễn Khoái, Phường 2, Quận 4, Thành Phố Hồ Chí Minh, VIỆT NAM",BOO COFFEE LẦU 9 - 42 NGUYỄN HUỆ Q1,"Lầu 9 - 42 Nguyễn Huệ, Phường Bến Nghé, Quận 1, Thành Phố Hồ Chí Minh, VIỆT NAM",106.6991645,10.7881933,Mass Merchant
3154,2462637464558474200,4944383101765661928,Coffee chains and Milk tea,CÔNG TY CỔ PHẦN KATINAT KAFE,"91 Đồng Khởi, Phường Bến Nghé, Quận 1, Thành Phố Hồ Chí Minh, VIỆT NAM",KATINAT KAFE Nguyễn Bỉnh Khiêm,"25L Nguyễn Bỉnh Khiêm, P Bến Nghé, Q 1",,,Cafe
3164,7165089198541247961,6392122166769784918,Coffee chains and Milk tea,CÔNG TY TNHH THƯƠNG MẠI DỊCH VỤ HEEKCAA VIỆT NAM,"4D Nguyễn Kiệm, Phường 3, Quận Gò Vấp, TP.HCM",Heekcaa Saigon - Cửa hàng Phạm Hùng,"179A Phạm Hùng, Phường 4, Quận 8, Thành Phố Hồ Chí Minh, VIỆT NAM",,,Cafe
3181,6495456468943643353,4750459497536299307,Mass Merchant,CHÈ KHÚC BẠCH ĐỖ NGỌC ,"245/23 NGUYỄN TRÃI, Phường Nguyễn Cư Trinh, Quận 1, Thành Phố Hồ Chí Minh, VIỆT NAM",chekhucbachdongoc1,MOMOHLHF20180820,106.680083,10.7830456,Mass Merchant
3185,8214464423675061465,4627920326532688824,Mass Merchant,She Coffee,"9 Ngõ Thái Hà, Phường Láng Hạ, Quận Đống Đa, Hà Nội, VIỆT NAM",shecoffee1,MOMOEEEV20181122,,,Mass Merchant
3187,6072375905080339929,24881436430224997,Coffee chains and Milk tea,Công ty TNHH Cà phê Effoc,"649/63 Điện Biên Phủ, Phường 25, Quận Bình Thạnh, Thành Phố Hồ Chí Minh, VIỆT NAM",Effoc Coffee Nguyễn Văn Tráng,"29 Nguyễn Văn Tráng, Phường Phạm Ngũ Lão, Quận 1, Thành Phố Hồ Chí Minh, VIỆT NAM",106.6702696,10.7662152,Cafe
3193,7517245497760836826,1366324859397704033,Coffee chains and Milk tea,Chi nhánh Hải Phòng - Công ty Cổ phần Sáng tạo Ý tưởng Kinh doanh,"Số 21A  Trần Hưng Đạo, Phường Hoàng Văn Thụ, Quận Hồng Bàng, Hải Phòng, VIỆT NAM",Gong Cha Hải Phòng,"Số 21A Trần Hưng Đạo, Phường Hoàng Văn Thụ, Quận Hồng Bàng, Hải Phòng, VIỆT NAM",106.6882301,10.7554077,Cafe
3195,6286581601237044954,8615897371313594094,Mass Merchant,BÁNH CANH CUA NGỌC TRINH,"865 Trần Xuân Soạn, Phường Tân Hưng, Quận 7, Thành Phố Hồ Chí Minh, VIỆT NAM",BÁNH CANH CUA NGỌC TRINH 1,"865 Trần Xuân Soạn, Phường Tân Hưng, Quận 7, Thành Phố Hồ Chí Minh, VIỆT NAM",,,Mass Merchant
3197,4612140123734925274,6176580935961001587,Coffee chains and Milk tea,Công ty TNHH TM DỊCH VỤ KINH DOANH TRUNG TUYẾN,"867A  Nguyễn Văn Quá, Phường Đông Hưng Thuận, Quận 12, Thành Phố Hồ Chí Minh, VIỆT NAM",Effoc Coffee Nguyễn Văn Quá,"96/3 Nguyễn Văn Quá, Phường Đông Hưng Thuận, Quận 12, Thành Phố Hồ Chí Minh, VIỆT NAM",106.6864738,10.7976007,Cafe
3201,5194616817579721435,4454394252107849842,Mass Merchant,Chè Sầu Liên 233A Minh Khai,"233a Minh Khai, Hai Bà Trưng, Hà Nội, Việt Nam",chesaumk1,MOMOSQRE20181031,,,Mass Merchant
3203,2165615276945191899,3922387930973317350,Mass Merchant,Nhà Thuốc Linh An1,"45 Vũ Ngọc Phan, Phường Láng Hạ, Quận Đống Đa, Hà Nội, VIỆT NAM",nhathuoclinhan1,MOMOS75F20181027,106.6905327,10.7671923,Mass Merchant
3205,8975182605351401947,4927577315441554645,Mass Merchant,Bánh Mỳ Ngon,"122/1194 Đường Láng, Phường Láng Thượng, Quận Đống Đa, Hà Nội, VIỆT NAM",Bánh Mỳ Ngon,"122/1194 Đường Láng, Phường Láng Thượng, Quận Đống Đa, Hà Nội, VIỆT NAM",105.7884853,21.031806,Mass Merchant
3207,6601077103382916571,2849227932210561231,Mass Merchant,Nhà hàng Kem Ý EisRoma,"678 Sư Vạn Hạnh, Phường 12, Quận 10, Thành Phố Hồ Chí Minh, VIỆT NAM",Nhà Hàng Kem Ý EisRoma,"263-265 Vành Đai Trong, Phường Bình Trị Đông, Quận Bình Tân, Thành Phố Hồ Chí Minh, VIỆT NAM",105.821984,21.006284,Mass Merchant
3209,1458512560686467035,2028921068191311536,Mass Merchant,ĐẠI LÝ GẠO TÒA YẾN 1,"156 Hòa Hưng, Phường 13, Quận 10, Thành Phố Hồ Chí Minh, VIỆT NAM",dailygaotoayen1,MOMOBBRZ20181022,106.666691,10.742963,Mass Merchant
3211,8091499565413936348,2716465060552074311,Mass Merchant,CÔNG TY TNHH THƯƠNG MẠI DỊCH VỤ DI PHÁT,"118/3  Triệu Quang Phục, Phường 11, Quận 5, Thành Phố Hồ Chí Minh, VIỆT NAM",Lapusa Coffee 292 Điện Biên Phủ - Quận 3,"292 Điện Biên Phủ, Phường 7, Quận 3, Thành Phố Hồ Chí Minh, VIỆT NAM",106.703402,10.808521,Mass Merchant
3213,2414921363060165597,3186080224381973914,Mass Merchant,Cửa Hàng Anh Hiệp,"số 54 ngõ thái thịnh 1 Thái Thịnh, Phường Thịnh Quang, Quận Đống Đa, Hà Nội, VIỆT NAM",anhhiep1234,MOMOKP0O20181021,106.724392,10.741793,Mass Merchant
3215,2771574915115027933,7455477303574695860,Mass Merchant,CÔNG TY TNHH MỘT THÀNH VIÊN THƯƠNG MẠI NHÀ HÀNG VƯƠNG QUỐC,"67-69  Phạm Viết Chánh, Phường Nguyễn Cư Trinh, Quận 1, Thành Phố Hồ Chí Minh, VIỆT NAM",KINGDOM BEERCLUB Lê Văn Sỹ,"236A  Lê Văn Sỹ, Phường 1, Quận Tân Bình, Thành Phố Hồ Chí Minh, VIỆT NAM",106.675862,10.8168089,Mass Merchant
3219,7114671607758890461,2823715092101790780,Mass Merchant,Gà Phê,"20 Ngõ 7 Thái Hà, Phường Trung Liệt, Quận Đống Đa, Hà Nội, VIỆT NAM",Gà Phê,"Số 20 Ngõ 7  Thái hà, Phường Trung Liệt, Quận Đống Đa, Hà Nội, VIỆT NAM",106.633179,10.755243,Mass Merchant
3221,5566126605211849949,1192472444631427373,Mass Merchant,MILANO NAM LONG,"23 Trần Trọng Cung, Phường Tân Thuận Đông, Quận 7, Thành Phố Hồ Chí Minh, VIỆT NAM",MILANO PARAGON Q7,"Số 2 Đường số 8 Nguyễn Lương Bằng, Khu Phú Mỹ Hưng, Phường Tân Phú, Quận 7, Thành Phố Hồ Chí Minh, VIỆT NAM",,,Mass Merchant
3225,2639782840193998302,5232309832091618222,Mass Merchant,Lương Thu Hương,"18B Phố Nhà Thờ, Phường Đồng Xuân, Quận Hoàn Kiếm, Hà Nội, VIỆT NAM",TAKE EAT EASY,"18B Phố Nhà Thờ, Phường Hàng Trống, Quận Hoàn Kiếm, Hà Nội, VIỆT NAM",,,Mass Merchant
3227,5070406202004694238,7440410204969985298,Mass Merchant,QUÁN ĂN RẤT HUẾ,"136/11 Lê Thánh Tôn, Phường Bến Nghé, Quận 1, Thành Phố Hồ Chí Minh, VIỆT NAM",quanrathue1,MOMO6WVG20180711,,,Mass Merchant
3228,4962009386184835294,3648103455783817050,Mass Merchant,Chè Ngon Mẹ Nhím ,"80 Bàn Cờ, Phường 3, Quận 3, Thành Phố Hồ Chí Minh, VIỆT NAM",chengonmenhim1,MOMOY5M120180809,106.691475,10.778237,Mass Merchant
3229,7045310851295646686,7752404192254543592,Mass Merchant,Goky 45 Nguyễn Chí Thanh,"45 Nguyễn Chí Thanh, Phường Ngọc Khánh, Quận Ba Đình, Hà Nội, VIỆT NAM",goky45nct,MOMOXJST20180619,106.6831383,10.777098,Mass Merchant
3231,2444871135670595807,2714013352241933358,Mass Merchant,CÔNG TY CỔ PHẦN THƯƠNG MẠI GLOBAL FASHION,"96 Cao Thắng, Phường 4, Quận 3, Thành Phố Hồ Chí Minh, VIỆT NAM",VASCARA Nguyễn Đình Chiểu,"375-377 Nguyễn Đình Chiểu, Phường 2, Quận 3, Thành Phố Hồ Chí Minh, VIỆT NAM",105.8402632,21.0275232,Mass Merchant
3246,2424378769063252959,7813571611346446040,Mass Merchant,Quán Sành,"8 ngõ 97 Phạm Ngọc Thạch, Phường Trung Tự, Quận Đống Đa, Hà Nội, VIỆT NAM",Quán Sành 1,"8 ngõ 97 Phạm Ngọc Thạch, Phường Trung Tự, Quận Đống Đa, Hà Nội, VIỆT NAM",105.851704,21.037185,Mass Merchant
3248,4118833893051058399,7425101830798729504,Mass Merchant,COFFEE V - ĐỨC,"16 Nguyễn Thị Thập, Phường Bình Thuận, Quận 7, Thành Phố Hồ Chí Minh, VIỆT NAM",COFFEE V - ĐỨC,"16 Nguyễn Thị Thập, Phường Bình Thuận, Quận 7, Thành Phố Hồ Chí Minh, VIỆT NAM",105.8314577,21.0166806,Mass Merchant
3250,8264084576019958240,4534655880771603937,Mass Merchant,4 Seasons- Chè Trà Kem,"17B14 Phạm Ngọc Thạch, Phường Trung Liệt, Quận Đống Đa, Hà Nội, VIỆT NAM",4 Season chè trà kem,"17B14 Phạm Ngọc Thạch, Phường Trung Liệt, Quận Đống Đa, Hà Nội, VIỆT NAM",105.8282625,21.0181354,Mass Merchant
3252,737670975463653856,2298497881663630054,Mass Merchant,Công ty cổ phần Sói Biển Trung Thực,"303-T3-G1 Số 2 Kim Giang , Phường Kim Giang, Quận Thanh Xuân, Hà Nội, VIỆT NAM",Sói Biển Time City Park 8,"park 8 Times City, Phường Minh Khai, Quận Hai Bà Trưng, Hà Nội, VIỆT NAM",,,Mass Merchant
3291,3391042544567426272,6123439407730636583,Mass Merchant,MilanoCoffee,"28 Nguyễn Phúc Nguyên, Phường 9, Quận 3, TP Hồ Chí Minh",milanocf123,MOMODPOW20180412,105.856737,21.02158,Mass Merchant
3293,6539424037010797536,8141110432382676628,Mass Merchant,MR.TO GARDEN,"386/17C Lê Văn Sỹ, Phường 14, Quận 3, Thành Phố Hồ Chí Minh, VIỆT NAM",mrtogarden1,"386/17C Lê Văn Sỹ, Phường, Phường 14, Quận 3, Thành Phố Hồ Chí Minh, VIỆT NAM",105.8247237,21.0073828,Mass Merchant
3295,8405759108835333857,9092016780425252743,Fast food,Beard Papa's Aeon Mall,"No B311-1 Tầng 3 AEON MALL, 27 Cổ Linh, Long Biên, Hà Nội",bppaeon,MOMO8JYM20181001,105.852568,21.019558,Fast food
3312,4432829413075266018,8163215525294005434,Mass Merchant,HẬU GIANG-QUẬN 6,"161 Hậu Giang, Phường 5, Quận 6, Thành Phố Hồ Chí Minh, VIỆT NAM",vdl35,MOMOLTCB20180918,106.665068,10.7629642,Mass Merchant
3313,1492534056723042530,6142753838635866381,Mass Merchant,Lẩu cá kèo và bánh tráng Trảng Bàng,"Phòng 408 nhà G6A Nguyên Hồng, Phường Láng Hạ, Quận Đống Đa, Hà Nội, VIỆT NAM",Lẩu cá kèo và bánh tráng Trảng Bàng,"Phòng 408 nhà G6A Nguyên Hồng, Phường Láng Hạ, Quận Đống Đa, Hà Nội, VIỆT NAM",105.805742,21.015601,Mass Merchant
3317,7335906826609440739,4531260276268071353,Mass Merchant,Sinh Tố Mai Hương Quầy 6,"11 Nguyễn Văn Chiêm, Phường Bến Nghé, Quận 1, Thành Phố Hồ Chí Minh, VIỆT NAM",sinhtomaihuong123,MOMO5DLU20181015,,,Mass Merchant
3319,3821836790025117411,7432113561703904266,Mass Merchant,MỘC DELI,"89A Phan Huy Thực, Phường Tân Kiểng, Quận 7, Thành Phố Hồ Chí Minh, VIỆT NAM",hkdmocdeli1,MOMOB44K20181114,106.718904,10.729197,Mass Merchant
3320,8983932419977050595,890741273856609066,Coffee chains and Milk tea,CÔNG TY TNHH TM VÀ ĐẦU TƯ THQ,"532 ĐÊ LA THÀNH, Phường Giảng Võ, Quận Ba Đình, Hà Nội, VIỆT NAM",Sharetea 25 Nhà Thờ,"25  phố Nhà Thờ, Phường Hàng Trống, Quận Hoàn Kiếm, Hà Nội, VIỆT NAM",106.6703107,10.7709872,Cafe
3322,2850274530442097892,8936578944964110061,Mass Merchant,CÔNG TY TNHH ĐẦU TƯ THƯƠNG MẠI DỊCH VỤ THÀNH NGUYỄN,"497 Quang Trung, Phường 10, Quận Gò Vấp, Thành Phố Hồ Chí Minh, VIỆT NAM",ĐÀ LẠT ,"256 – 258 Phan Đình Phùng, Phường 2, Thành phố Đà Lạt, Lâm Đồng, VIỆT NAM",105.836628,21.029018,Mass Merchant
3339,1058241667815469540,5148561421899046534,Mass Merchant,CÔNG TY CP TMDV TVTK THỜI TRANG VIỆT,"189A Hai Bà Trưng , P.6, Quận 3 TPHCM",Concept Nguyễn Trãi,"Số 131, Nguyễn Trãi, Phường 2, Quận 5, Tp. HCM ",,,Mass Merchant
3360,7800199981419598821,8583427264154589047,Coffee chains and Milk tea,Wayne's Bitexco,"2 Hải Triều, phường Bến Nghé, Quận 1, TP.HCM",WVN02,MOMOFTUR20190422,,,Cafe
3374,5113986239198861541,4656642464951587069,Mass Merchant,CaFe Phim Jones coffee film,"44 ngõ 19 Trần Quang Diệu, Phường Ô Chợ Dừa, Quận Đống Đa, Hà Nội, VIỆT NAM",CaFe Phim Jones coffee film 1,"44 ngõ 19 Trần Quang Diệu, Phường Ô Chợ Dừa, Quận Đống Đa, Hà Nội, VIỆT NAM",105.8490319,21.009917,Mass Merchant
3376,4404161219422592741,601330647120695108,Restaurant,Công ty cổ phần Blue Star Pizza,"424A Nguyễn Thị Minh Khai, phường 5, Quận 3, Hồ Chí Minh, Việt Nam",Yellow Cab Pizza Nguyễn Văn Hưởng,"252 Nguyễn Văn Hưởng, Thảo Điền, Quận 2, Hồ Chí Minh, Việt Nam",,,pizza
3386,108571223216091877,3433412713970764106,Mass Merchant,HNOSS Võ Văn Tần,"357 Võ Văn Tần, Quận 3, TP. HCM",hnossvovantan,MOMOE8QH20180208,,,Mass Merchant
3390,6657163517614162406,1990695537457350512,Mass Merchant,Chân Gà nướng,"Số 3 G4-12  Nguyên hồng, Phường Láng Hạ, Quận Đống Đa, Hà Nội, VIỆT NAM",changanuong1,MOMOSRXA20180726,,,Mass Merchant
3391,836945335609331430,5727530021239587747,Mass Merchant,Lagrupa Steak House,"148  Trung Liệt, Phường Trung Liệt, Quận Đống Đa, Hà Nội, VIỆT NAM",Lagrupa Steak House,"148 Trung Liệt, Phường Trung Liệt, Quận Đống Đa, Hà Nội, VIỆT NAM",,,Mass Merchant
3393,1127558698440978406,6875363548470254499,Mass Merchant,Fuji Food,"Số 49 Ngõ 49 Huỳnh Thúc Kháng, Phường Láng Hạ, Quận Đống Đa, Hà Nội, VIỆT NAM",fujifood1,MOMOBHKZ20180922,105.85919009999998,21.0243979,Mass Merchant
3394,3175830236984461287,6563625425299528494,Mass Merchant,BBQ Chicken,"107 Giảng Võ, Phường Cát Linh, Quận Đống Đa, Hà Nội, VIỆT NAM",BBQ Chicken,"107 Giảng Võ, Phường Cát Linh, Quận Đống Đa, Hà Nội, VIỆT NAM",,,Mass Merchant
3396,800112964443013095,6113832798882174528,Mass Merchant,CÔNG TY TNHH TM DV BÁCH MỘC,"497 HÀO HẢO, Phường 7, Quận 10, Thành Phố Hồ Chí Minh, VIỆT NAM",teenplus1234,MOMOAE0X20180818,106.666296,10.804388,Mass Merchant
3398,7070378406380693991,7253158025208060234,Mass Merchant,Hộ kinh doanh cửa hàng đồ uống coco,"105 Láng Hạ, Phường Láng Hạ, Quận Đống Đa, Hà Nội, VIỆT NAM",cocofresh4,"6  Phạm Ngọc Thạch, Phường Trung Liệt, Quận Đống Đa, Hà Nội, VIỆT NAM",105.81001770000002,21.0513846,Mass Merchant
3402,3145535287478985192,8794716409961610114,Mass Merchant,COFFEINE1,"948 TRƯỜNG SA, Phường 13, Quận 3, Thành Phố Hồ Chí Minh, VIỆT NAM",coffeine1,MOMOXSDP20180626,106.67749340000002,10.7554006,Mass Merchant
3404,3264444899084817896,6386954694425091039,Mass Merchant,HỘ KINH DOANH NÚI,"157B NGUYỄN VĂN THỦ, Phường Đa Kao, Quận 1, Thành Phố Hồ Chí Minh, VIỆT NAM",COFFEE NÚI ,"157B NGUYỄN VĂN THỦ, Phường Đa Kao, Quận 1, Thành Phố Hồ Chí Minh, VIỆT NAM",105.8296774,21.0277038,Mass Merchant
3406,8096805314010429417,4744605322563493081,Coffee chains and Milk tea,CÔNG TY TNHH PARIS BAGUETTE HÀ NỘI,"Tầng 9, Tòa nhà văn phòng AC  Lô A1A cụm TTCN&CNN, Phường Dịch Vọng Hậu, Quận Cầu Giấy, Hà Nội, VIỆT NAM",Paris Baguette Metropolis,"B1-K4, Vincom Center Metropolis, 29 Liễu Giai, Ba Đình, Hà Nội",105.828324,21.000704,Cafe
3418,6481221346259782889,6786404640168631617,Mass Merchant,CÔNG TY TNHH DỊCH VỤ VÀ THƯƠNG MẠI BAMI BREAD,"38, Ngách 23, Ngõ 1197 Giải Phóng, Phường Thịnh Liệt, Quận Hoàng Mai, Hà Nội, VIỆT NAM",Bami 6 Nguyễn Thị Định,"6 Nguyễn Thị Định, Phường Khương Đình, Quận Thanh Xuân, Hà Nội, VIỆT NAM",106.7371475,10.80374,Mass Merchant
3448,4791234064805876969,7766878179589328466,Restaurant,Aka House Nguyễn Thị Thập,"384 Nguyễn Thị Thập, Phường Tân Quy, Quận 7, Thành Phố Hồ Chí Minh, VIỆT NAM",aka004,MOMOLFL620180620,106.700934,10.785675,buffet
3473,5623519941562243817,7367092612380684855,Mass Merchant,Flat White,"274 Lý Tự Trọng,Phường Bến Thành,Quận 1, HCm",FLAT WHITE,"274 Lý Tự Trọng,Phường Bến Thành,Quận 1, HCM",106.672007,10.791683,Mass Merchant
3475,5329948123005583081,4865519121098162567,Mass Merchant,HÒA BÌNH-  11,"58 Hòa Bình, Phường 5, Quận 11, Thành Phố Hồ Chí Minh, VIỆT NAM",vdl03,MOMO1XZY20180918,105.8182415,21.0206741,Mass Merchant
3476,2428028045951144938,6863738582653670647,Mass Merchant,HỘ KINH DOANH BÂNG KHUÂNG CÀ PHÊ,"Lầu 2 số 09 Thái Văn Lung, Phường Bến Nghé, Quận 1, Thành Phố Hồ Chí Minh, VIỆT NAM",BÂNG KHUÂNG CÀ PHÊ,"Lầu 2 số 09 Thái Văn Lung, Phường Bến Nghé, Quận 1, Thành Phố Hồ Chí Minh, VIỆT NAM",106.6733813,10.7624208,Mass Merchant
3478,1411049101518437098,8858236409434700220,Mass Merchant,Hộ Kinh Doanh Quách Thu Thảo,"77 Vĩnh Hồ, Phường Ngã Tư Sở, Quận Đống Đa, Hà Nội, VIỆT NAM",Đặc sản chè,"60 Vĩnh Hồ, Phường Ngã Tư Sở, Quận Đống Đa, Hà Nội, VIỆT NAM",105.8295687,21.0025042,Mass Merchant
3480,5574105295340017131,8132674685467636715,Mass Merchant,BUMBA CÔ BẮC,"35 Cô Bắc, Cầu Ông Lãnh, Quận 1, Hồ Chí Minh, Việt Nam",tsbumba9,MOMOCQ6S20181029,,,Mass Merchant
3496,4503904905105350123,4910660199698484205,Mass Merchant,CAFÉ LÊ GIA,"133 Nguyễn Thị Thập, Phường Tân Phú, Quận 7, Thành Phố Hồ Chí Minh, VIỆT NAM",cafelegia123,MOMOQKIP20181113,106.7034311,10.774777,Mass Merchant
3497,5272997585295521260,2611043468128572557,Coffee chains and Milk tea,Sharetea Phạm Ngọc Thạch,"88 Phạm Ngọc Thạch, Phường Phương Liên, Quận Đống Đa, Hà Nội, VIỆT NAM",shareteapnt,MOMOFWRF20180620,106.763765,10.842112,Cafe
3503,1275267658453436908,6012538387002492696,Fast food,CÔNG TY TNHH THƯƠNG MẠI KỸ THUẬT DỊCH VỤ ICOOL,"246/9 Bình Quới, phường 28, quận Bình Thạnh, Hồ Chí Minh",KARAOKE ICOOL Nguyễn Tri Phương,"465 Nguyễn Tri Phương, Phường 8, Quận 10, Thành Phố Hồ Chí Minh, VIỆT NAM",106.72400890000002,10.8469335,Fast food
3532,482004761482411756,8518147863755252756,Mass Merchant,Think Nature Vincom Times City,"TTTM Vincom Megamall Times city, khu đô thị Times city, số 458 Minh Khai, Phường Minh Khai, Quận Hai Bà Trưng, Hà Nội, VIỆT NAM",tnvincomtimescity,MOMO0UXM20190125,106.708725,10.800387,Mass Merchant
3540,4733652108159757037,3297549489811986230,Mass Merchant,GÀ TA QUÊ NHÀ  ,"60 TRẦN QUANG DIỆU, Phường 9, Quận 3, Thành Phố Hồ Chí Minh, VIỆT NAM",gataquenha1234,MOMOMTVS20180818,106.662621,10.8017948,Mass Merchant
3542,7956496375996231149,7511297846776813395,CVS,CÔNG TY TNHH GS 25 VIETNAM,"138-142 Hai Bà Trưng, Phường Đa Kao, Quận 1, Thành Phố Hồ Chí Minh, VIỆT NAM",GS25 Centre Point,"239 Nguyễn Trọng Tuyển, Phường 1, Quận Phú Nhuận, Thành Phố Hồ Chí Minh, VIỆT NAM",105.7897647,21.036862600000006,CVS
3544,6316121079822633965,3787015616731507433,Mass Merchant,Trà sữa Vone,"Đối diện số 32 ngõ 35 Thái Thịnh, Phường Ngã Tư Sở, Quận Đống Đa, Hà Nội, VIỆT NAM",trasuavone1,MOMOMYIK20181018,105.853847,21.019164,Mass Merchant
3546,5421741310508493549,60603841332969806,Mass Merchant,CUTIIE HOUSE,"35 Nguyễn Ngọc Lộc, Phường 14, Quận 10, Thành Phố Hồ Chí Minh, VIỆT NAM",cutiiehouse1,MOMOTZJX20181029,105.849851,21.016103,Mass Merchant
3547,1292141073663295981,6586012265616583487,Mass Merchant,SỮA TƯƠI TRÂN CHÂU ĐƯỜNG ĐEN - 194 CMT8,"194 Cách Mạng Tháng 8, Phường 10, Quận 3, Thành Phố Hồ Chí Minh, VIỆT NAM",consoi123,MOMOAMSF20181018,105.846688,21.014831,Mass Merchant
3557,401608409078803950,939961505351282207,Coffee chains and Milk tea,Gong Cha Biên Hòa,"K67 N2, Phường Thống Nhất, Thành phố Biên Hòa, Đồng Nai, VIỆT NAM",4237,MOMO0DQN20181030,106.6846382,10.7858355,Cafe
3559,140199532649262575,1390526967784118604,Mass Merchant,Bún Sườn Chua,"181 Xã Đàn , Phường Ô Chợ Dừa, Quận Đống Đa, Hà Nội, VIỆT NAM",Bún Sườn Chua 1,"181 Xã Đàn, Phường Ô Chợ Dừa, Quận Đống Đa, Hà Nội, VIỆT NAM",105.813456,20.99818,Mass Merchant
3561,4749945772350716911,3605725617214712518,Coffee chains and Milk tea,Royal Tea Quận 12,"10 Nguyễn Ảnh Thủ, Phường Hiệp Thành, Quận 12, Thành Phố Hồ Chí Minh, VIỆT NAM",royalteaquan12,MOMOOBZG20180830,106.70716509999998,10.7296545,Cafe
3563,6700205653822424559,2079363855480668818,Mass Merchant,MR.CAKE,"47 Nguyễn Thượng Hiền, Phường 5, Quận 3, Thành Phố Hồ Chí Minh, VIỆT NAM",MR CAKE 2,"162 Tôn Đản, Phường 8, Quận 4, Thành Phố Hồ Chí Minh, VIỆT NAM",105.8058402,21.0163703,Mass Merchant
3569,1643362567822364399,1697832137337618569,Mass Merchant,TRÀ SỮA RIRO,"571E&F Cách Mạng Tháng 8, Phường 15, Quận 10, Thành Phố Hồ Chí Minh, VIỆT NAM",TRÀ SỮA RIRO QUẬN 11,"3A , phường 15; Quận 11 Nguyễn Thị Nhỏ, Phường 15, Quận 11, Thành Phố Hồ Chí Minh, VIỆT NAM",,,Mass Merchant
3583,1454991718084664049,4623747979320766020,Mass Merchant,TAKA TEA,"39/3 Đường số 10, Phường Tân Kiểng, Quận 7, Thành Phố Hồ Chí Minh, VIỆT NAM",trasuatakatea39,MOMOA96R20181122,,,Mass Merchant
3585,2570506922029274353,1373101790639157125,Mass Merchant,Mì Ý Double B,"391 TK40/24 Trần Hưng Đạo, Phường Cầu Kho, Quận 1, Hồ Chí Minh",MÌ Ý DOUBLE B,"391 TK40/24  Trần Hưng Đạo, Phường Cầu Kho, Quận 1, Hồ Chí Minh",105.791893,21.020758,Mass Merchant
3589,8586364903071082993,9163805234731025881,Mass Merchant,QUÁN CÀ PHÊ THE HIDDEN ELEPHANT,"Lầu 2, 35 Phan Chu Trinh, Phường Bến Thành, Quận 1, Thành Phố Hồ Chí Minh, VIỆT NAM",QUÁN CÀ PHÊ  HIDDEN ELEPHANT,"lầu 2, Số 35 Phan Chu Trinh, Phường Bến Thành, Quận 1, Thành Phố Hồ Chí Minh, VIỆT NAM",,,Mass Merchant
3591,3760418328327562738,4669170194859366015,Mass Merchant,THE TOWN COFFEE,"175 Võ Thị Sáu, Phường 7, Quận 3, Thành Phố Hồ Chí Minh, VIỆT NAM",thetowncf2,MOMOJD6D20181125,105.8192721,21.0139344,Mass Merchant
3593,860733943490081010,2245511637138827260,Mass Merchant,Cà Phê Nana,"523A Đỗ Xuân Hợp, Phường Phước Long B, Quận 9, Thành Phố Hồ Chí Minh, VIỆT NAM",Quán cafe Nana,"523 Đỗ Xuân Hợp, Phường Phước Long B, Quận 9, Thành Phố Hồ Chí Minh, VIỆT NAM",105.8202678,21.0154192,Mass Merchant
3595,2693534275260314098,837193665867188321,Mass Merchant,TIỆM BÁNH IT,"91 Chùa Láng, Phường Láng Thượng, Quận Đống Đa, Hà Nội, VIỆT NAM",tiembanhit66,"66 Lê Thanh Nghị, Phường Bách Khoa, Quận Hai Bà Trưng, Hà Nội, VIỆT NAM",106.6765535,10.7848222,Mass Merchant
3599,754456615597202420,1762966759035001167,CVS,Guardian VN,"506 Nguyễn Đình Chiểu, P4, Q3, TP.HCM",Guardian Times City,"Tầng B1, Vincom Mega Mall Times City, số 458 Minh Khai, Phường Vĩnh Tuy, Quận Hai Bà Trưng, Hà Nội, VIỆT NAM",,,CVS
3643,5658857270301870068,959275075020887995,Coffee chains and Milk tea,CÔNG TY TNHH SMOOTHIE FACTORY VIỆT NAM,"160/57/36/1A Nguyễn Văn Qùy, Phường Phú Thuận, Quận 7, Thành Phố Hồ Chí Minh, VIỆT NAM",Smoothie - Phan Văn Trị,"366 Phan Văn Trị, Phường 5, Quận Gò Vấp, Thành Phố Hồ Chí Minh, VIỆT NAM",105.8234455,21.0289832,Cafe
3649,6235022066769294325,3780054031883111305,Coffee chains and Milk tea,Gong Cha Thanh Hóa,"Căn PG1-11 Shophouse Thanh Hóa, Khu đô thị mới Phường Điện Biên, Số 27 Trần Phú, Phường Điện Biên, Thành phố Thanh Hóa, Thanh Hóa, VIỆT NAM",2711,MOMO1ULN20181029,106.6637,10.789334,Cafe
3650,895515249920113141,534514134305210220,Mass Merchant,Mochi Đà Nẵng,"Tầng 4 Vincom Đường Ngô Quyền, Phường Mân Thái, Quận Sơn Trà, Đà Nẵng, VIỆT NAM",mochisweets24,MOMOANJL20180713,105.812337,21.027914000000006,Mass Merchant
3677,4507104380683061750,5129542075282939713,Mass Merchant,CATINA BAGEL,"98/201 Nguyễn Huệ, Phường Bến Nghé, Quận 1, Thành Phố Hồ Chí Minh, VIỆT NAM",Catina bagel,"98/201 Nguyễn Huệ, Phường Bến Nghé, Quận 1, Thành Phố Hồ Chí Minh, VIỆT NAM",106.6946025,10.7668664,Mass Merchant
3679,8073873840719601655,2217087971996193230,Coffee chains and Milk tea,HỘ KINH DOANH - QUÁCH THỊ HƯƠNG DUYÊN,"444 Hoàng Văn Thụ, Phường 2, Quận Tân Bình, Thành Phố Hồ Chí Minh, VIỆT NAM",Sharetea Hoàng Văn Thụ,"444 Hoàng Văn Thụ, Phường 4, Quận Tân Bình, Thành Phố Hồ Chí Minh, VIỆT NAM",106.6803053,10.7678584,Cafe
3681,8366660083633561080,6198733526551989405,Mass Merchant,ĐẶC SẢN LƯƠN ĐỒNG,"105 E5 Thái Thịnh, Phường Ngã Tư Sở, Quận Đống Đa, Hà Nội, VIỆT NAM",ĐẶC SẢN LƯƠN ĐỒNG,"105 E5 Thái Thịnh, Phường Ngã Tư Sở, Quận Đống Đa, Hà Nội, VIỆT NAM",106.68918329999998,10.7933823,Mass Merchant
3683,1011115523130927864,6886571857950251776,CVS,Cheers 290 An Dương Vương,"290 An Dương Vương, Phường 4, Quận 5, Thành Phố Hồ Chí Minh, VIỆT NAM",CVS00017,MOMOBL9G20180915,105.840498,21.018888,CVS
3725,56770201154831864,1799008696600641332,Mass Merchant,Shushi Garden,"Số 46 Vũ Trọng Phụng, Phường Thanh Xuân Trung, Quận Thanh Xuân, Hà Nội, VIỆT NAM",shushigarden1,MOMOUY4H20181009,,,Mass Merchant
3727,7129718215141539320,1368668152309493395,Mass Merchant,CÔNG TY TNHH THIẾT BỊ NHA KHOA HẢI ÂU,,NHA KHOA HẢI ÂU,"518 Phan Văn Trị, Phường 7, quận Gò Vấp, Hồ Chí Minh, Việt Nam",106.671239,10.783622,Mass Merchant
3729,2182648333340701432,7509476507632736246,Mass Merchant,VIKING STEAK,"122 Nguyễn Thiện Thuật , Phường 2, Quận 3, Thành Phố Hồ Chí Minh, VIỆT NAM",VIKING STEAK,"122 Nguyễn Thiện Thuật , Phường 2, Quận 3, Thành Phố Hồ Chí Minh, VIỆT NAM",106.6785232,10.755982,Mass Merchant
3731,2886615683343734522,2989076792006679356,Mass Merchant,Marc & Jen,"lầu 3, 252 Lê Thánh Tôn, Phường Bến Thành, Quận 1, Thành Phố Hồ Chí Minh, VIỆT NAM",marcjen123,MOMOHO9P20180807,106.6755903,10.7658427,Mass Merchant
3733,6015892195460290042,1180122017948259431,Mass Merchant,HỘ KINH DOANH HẺM MÌ Ý,"371 Vĩnh Viễn, Phường 5, Quận 10, Thành Phố Hồ Chí Minh, VIỆT NAM",The Summer,"371 Vĩnh Viễn, Phường 5, Quận 10, Thành Phố Hồ Chí Minh, VIỆT NAM",106.672005,10.816503,Mass Merchant
3737,161912590330675450,3379205111959514132,Mass Merchant,MOCKING BIRD CAFE,"Lầu 4 Số 14 Tôn Thất Đạm, Phường Nguyễn Thái Bình, Quận 1, Thành Phố Hồ Chí Minh, VIỆT NAM",MOCKING BIRD CAFE,"Lầu 4 Số 14 Tôn Thất Đạm, Phường Nguyễn Thái Bình, Quận 1, Thành Phố Hồ Chí Minh, VIỆT NAM",106.6660988,10.768887800000002,Mass Merchant
3739,4833825125239355898,2563228004913847042,Mass Merchant,Phở KCC Nguyên Hồng,"109D8 Nguyên Hồng, Phường Thành Công, Quận Ba Đình, Hà Nội, VIỆT NAM",kccnguyenhong1,MOMO3HDH20181027,106.6815621,10.834882,Mass Merchant
3741,605140935222794235,6472830193849331030,Mass Merchant,Công Ty TNHH TÂY CAFE,"110 Đường số 49, Phường Tân Quy, Quận 7, Thành Phố Hồ Chí Minh, VIỆT NAM",TÂY CAFE,"110 đường 49, Phường Tân Quy, Quận 7, Thành Phố Hồ Chí Minh, VIỆT NAM",,,Mass Merchant
3743,6808347026108568574,1996214728858440705,Fast food,POPEYES HƯƠNG LỘ 2,"756  Hương Lộ 2, KP6, Phường Bình Trị Đông A, Quận Bình Tân, Thành Phố Hồ Chí Minh, VIỆT NAM",phuonglo2,MOMOFHP420180530,106.693348,10.766081,Fast food
3776,1738450818260989695,7158500996512123013,Mass Merchant,Tiệm bánh Chez Moi,"10 Khán Đài B Hàng Cháo, Phường Ô Chợ Dừa, Quận Đống Đa, Hà Nội, VIỆT NAM",Tiệm bánh Chez Moi 1," 10 Khán Đài B Hàng Cháo, Phường Ô Chợ Dừa Hàng Cháo, Phường Ô Chợ Dừa, Quận Đống Đa, Hà Nội, VIỆT NAM",,,Mass Merchant
